Origin Time       2025/01/13 21:19:00
Lat.              31.8
Long.             131.6
Depth. (km)       30
Mag.              6.9
Station Code      TKS007
Station Lat.      34.0903
Station Long.     134.2854
Station Height(m) 50
Record Time       2025/01/13 21:21:29
Sampling Freq(Hz) 100Hz
Duration Time(s)  68
Dir.              N-S
Scale Factor      7845(gal)/8223790
Max. Acc. (gal)   1.690
Last Correction   2025/01/13 21:21:29
Memo.             
[...]
   -4386    -4394    -4401    -4421    -4446    -4477    -4502    -4515 
   -4542    -4576    -4598    -4615    -4634    -4631    -4615    -4598 
   -4575    -4563    -4576    -4580    -4568    -4564    -4553    -4521 
   -4492    -4463    -4425    -4394    -4359    -4326    -4322    -4324 
   -4307    -4293    -4293    -4302    -4318    -4329    -4328    -4329 
   -4332    -4321    -4313    -4334    -4375    -4415    -4448    -4486 
   -4538    -4591    -4621    -4642    -4676    -4708    -4733    -4764 
   -4796    -4819    -4838    -4827    -4791    -4779    -4781    -4766 
   -4750    -4734    -4711    -4693    -4677    -4662    -4657    -4652 
   -4642    -4638    -4629    -4611    -4592    -4561    -4515    -4487 
   -4487    -4496    -4518    -4560    -4614    -4661    -4691    -4712 
   -4742    -4764    -4760    -4743    -4725    -4698    -4669    -4652 
   -4634    -4619    -4615    -4602    -4568    -4534    -4514    -4496 
   -4494    -4506    -4502    -4479    -4457    -4425    -4379    -4348 
   -4330    -4314    -4295    -4275    -4261    -4255    -4236    -4218 
   -4225    -4237    -4234    -4232    -4222    -4202    -4195    -4195 
   -4194    -4220    -4266    -4310    -4356    -4405    -4446    -4491 
   -4529    -4553    -4583    -4618    -4637    -4664    -4716    -4749 
   -4752    -4746    -4715    -4669    -4637    -4591    -4525    -4471 
   -4434    -4406    -4375    -4330    -4291    -4274    -4266    -4261 
   -4270    -4275    -4264    -4245    -4218    -4201    -4225    -4268 
   -4298    -4326    -4355    -4371    -4394    -4428    -4453    -4482 
   -4510    -4515    -4518    -4548    -4587    -4626    -4671    -4712 
   -4741    -4754    -4739    -4714    -4720    -4752    -4781    -4810 
   -4828    -4834    -4846    -4853    -4835    -4819    -4807    -4783 
   -4758    -4747    -4730    -4696    -4652    -4611    -4590    -4587 
   -4569    -4523    -4463    -4396    -4325    -4270    -4237    -4216 
   -4207    -4197    -4171    -4148    -4135    -4121    -4109    -4098 
   -4074    -4052    -4047    -4050    -4085    -4153    -4214    -4260 
   -4303    -4333    -4353    -4378    -4406    -4449    -4511    -4576 
   -4630    -4675    -4702    -4731    -4773    -4811    -4846    -4889 
   -4916    -4924    -4924    -4923    -4934    -4962    -4992    -5011 
   -5030    -5050    -5054    -5035    -5015    -5011    -5027    -5036 
   -5023    -5008    -5007    -5007    -5003    -4995    -4977    -4958 
   -4943    -4919    -4885    -4868    -4854    -4828    -4804    -4785 
   -4747    -4688    -4614    -4530    -4460    -4402    -4337    -4286 
   -4253    -4213    -4172    -4147    -4117    -4097    -4114    -4122 
   -4116    -4129    -4144    -4148    -4160    -4185    -4218    -4259 
   -4284    -4294    -4318    -4355    -4386    -4430    -4482    -4523 
   -4565    -4587    -4585    -4603    -4646    -4696    -4749    -4793 
   -4810    -4820    -4845    -4858    -4861    -4866    -4861    -4843 
   -4815    -4777    -4750    -4742    -4722    -4688    -4660    -4639 
   -4622    -4615    -4610    -4588    -4563    -4537    -4503    -4480 
   -4464    -4440    -4426    -4434    -4440    -4438    -4436    -4419 
   -4403    -4396    -4368    -4332    -4317    -4309    -4295    -4290 
   -4276    -4255    -4252    -4252    -4251    -4279    -4311    -4326 
   -4341    -4357    -4371    -4402    -4433    -4446    -4452    -4450 
   -4452    -4475    -4509    -4533    -4552    -4567    -4575    -4591 
   -4619    -4634    -4635    -4639    -4644    -4672    -4734    -4787 
   -4822    -4862    -4899    -4924    -4951    -4962    -4959    -4969 
   -4978    -4976    -4972    -4961    -4939    -4923    -4911    -4908 
   -4928    -4946    -4950    -4958    -4958    -4924    -4878    -4837 
   -4793    -4749    -4712    -4673    -4626    -4584    -4540    -4495 
   -4452    -4407    -4365    -4340    -4317    -4299    -4301    -4303 
   -4293    -4278    -4261    -4244    -4225    -4203    -4172    -4141 
   -4118    -4093    -4063    -4041    -4020    -3986    -3958    -3940 
   -3925    -3925    -3943    -3964    -3981    -3985    -3979    -3978 
   -3971    -3959    -3973    -3998    -4013    -4037    -4072    -4102 
   -4141    -4182    -4212    -4243    -4261    -4260    -4257    -4274 
   -4310    -4351    -4382    -4384    -4367    -4356    -4344    -4328 
   -4318    -4314    -4314    -4315    -4305    -4293    -4295    -4295 
   -4283    -4276    -4283    -4297    -4315    -4334    -4338    -4349 
   -4380    -4414    -4450    -4498    -4552    -4612    -4664    -4692 
   -4716    -4735    -4730    -4715    -4702    -4675    -4641    -4621 
   -4610    -4595    -4581    -4565    -4537    -4496    -4448    -4394 
   -4351    -4322    -4302    -4298    -4298    -4278    -4261    -4263 
   -4268    -4282    -4294    -4290    -4298    -4330    -4357    -4386 
   -4430    -4463    -4479    -4492    -4499    -4518    -4554    -4569 
   -4557    -4556    -4565    -4580    -4590    -4577    -4557    -4545 
   -4523    -4495    -4475    -4463    -4441    -4413    -4384    -4347 
   -4317    -4303    -4287    -4271    -4266    -4256    -4248    -4251 
   -4251    -4263    -4287    -4284    -4268    -4275    -4295    -4321 
   -4347    -4348    -4340    -4347    -4352    -4355    -4379    -4405 
   -4411    -4415    -4429    -4452    -4495    -4548    -4590    -4633 
   -4683    -4726    -4758    -4792    -4823    -4847    -4869    -4885 
   -4899    -4923    -4935    -4924    -4901    -4874    -4847    -4820 
   -4780    -4733    -4693    -4657    -4626    -4614    -4618    -4622 
   -4638    -4671    -4704    -4731    -4745    -4734    -4716    -4700 
   -4681    -4660    -4630    -4590    -4553    -4530    -4504    -4480 
   -4463    -4429    -4391    -4364    -4336    -4313    -4309    -4309 
   -4298    -4286    -4283    -4282    -4274    -4247    -4207    -4176 
   -4167    -4167    -4174    -4178    -4167    -4155    -4151    -4135 
   -4122    -4135    -4149    -4174    -4218    -4259    -4290    -4322 
   -4352    -4367    -4382    -4395    -4398    -4402    -4413    -4418 
   -4422    -4421    -4409    -4402    -4405    -4418    -4445    -4473 
   -4487    -4500    -4523    -4544    -4567    -4599    -4622    -4637 
   -4664    -4684    -4692    -4703    -4696    -4673    -4656    -4630 
   -4591    -4557    -4531    -4513    -4503    -4486    -4467    -4469 
   -4473    -4472    -4477    -4486    -4499    -4538    -4583    -4617 
   -4654    -4703    -4749    -4793    -4849    -4900    -4942    -4986 
   -5031    -5069    -5105    -5124    -5108    -5081    -5042    -4984 
   -4931    -4889    -4842    -4807    -4770    -4707    -4646    -4600 
   -4548    -4494    -4441    -4379    -4330    -4298    -4263    -4230 
   -4209    -4185    -4155    -4129    -4101    -4078    -4066    -4047 
   -4033    -4058    -4102    -4151    -4207    -4253    -4295    -4359 
   -4419    -4461    -4509    -4558    -4602    -4649    -4681    -4695 
   -4718    -4729    -4720    -4725    -4726    -4722    -4729    -4725 
   -4696    -4664    -4622    -4560    -4502    -4452    -4383    -4307 
   -4247    -4182    -4113    -4055    -3991    -3923    -3859    -3796 
   -3742    -3701    -3655    -3618    -3603    -3597    -3601    -3628 
   -3669    -3704    -3746    -3784    -3800    -3825    -3882    -3942 
   -3983    -4008    -4027    -4063    -4120    -4179    -4234    -4303 
   -4376    -4430    -4484    -4546    -4611    -4671    -4715    -4739 
   -4757    -4774    -4784    -4791    -4797    -4796    -4810    -4846 
   -4872    -4889    -4911    -4915    -4908    -4911    -4908    -4911 
   -4927    -4935    -4934    -4936    -4939    -4949    -4966    -4974 
   -4978    -4982    -4972    -4950    -4942    -4947    -4945    -4941 
   -4949    -4949    -4945    -4949    -4934    -4899    -4880    -4865 
   -4851    -4847    -4837    -4841    -4866    -4877    -4880    -4887 
   -4872    -4857    -4858    -4850    -4845    -4857    -4857    -4845 
   -4828    -4803    -4780    -4770    -4768    -4768    -4770    -4756 
   -4727    -4702    -4687    -4681    -4688    -4691    -4680    -4668 
   -4661    -4650    -4639    -4634    -4622    -4608    -4602    -4592 
   -4580    -4579    -4569    -4542    -4523    -4513    -4495    -4488 
   -4484    -4469    -4463    -4461    -4448    -4437    -4430    -4413 
   -4399    -4391    -4374    -4363    -4363    -4341    -4315    -4309 
   -4302    -4297    -4311    -4322    -4336    -4363    -4379    -4387 
   -4409    -4425    -4433    -4450    -4467    -4472    -4490    -4510 
   -4518    -4536    -4557    -4575    -4604    -4639    -4658    -4684 
   -4725    -4756    -4783    -4810    -4830    -4851    -4872    -4885 
   -4901    -4916    -4919    -4920    -4932    -4954    -4981    -5008 
   -5030    -5050    -5073    -5088    -5092    -5092    -5084    -5071 
   -5066    -5059    -5042    -5022    -4996    -4957    -4911    -4858 
   -4812    -4785    -4757    -4716    -4669    -4612    -4553    -4492 
   -4429    -4374    -4329    -4295    -4268    -4239    -4206    -4175 
   -4139    -4104    -4067    -4028    -3997    -3978    -3959    -3944 
   -3931    -3909    -3889    -3866    -3834    -3809    -3794    -3774 
   -3753    -3747    -3750    -3748    -3738    -3715    -3694    -3686 
   -3673    -3643    -3622    -3619    -3612    -3604    -3611    -3618 
   -3635    -3678    -3707    -3723    -3753    -3780    -3815    -3866 
   -3908    -3959    -4027    -4078    -4126    -4180    -4224    -4280 
   -4342    -4374    -4396    -4426    -4448    -4467    -4491    -4506 
   -4506    -4509    -4511    -4500    -4480    -4446    -4399    -4359 
   -4321    -4282    -4255    -4233    -4202    -4168    -4126    -4068 
   -4021    -3985    -3937    -3906    -3905    -3901    -3896    -3898 
   -3901    -3910    -3936    -3954    -3966    -3991    -4017    -4033 
   -4056    -4071    -4074    -4081    -4081    -4062    -4044    -4029 
   -4016    -4018    -4033    -4041    -4050    -4070    -4093    -4121 
   -4160    -4194    -4228    -4275    -4324    -4375    -4429    -4471 
   -4525    -4598    -4662    -4735    -4826    -4900    -4961    -5020 
   -5078    -5152    -5244    -5328    -5400    -5470    -5537    -5602 
   -5665    -5718    -5760    -5805    -5848    -5881    -5914    -5953 
   -5984    -6008    -6030    -6039    -6041    -6049    -6053    -6058 
   -6064    -6052    -6027    -5994    -5941    -5884    -5840    -5790 
   -5737    -5690    -5637    -5571    -5503    -5433    -5358    -5281 
   -5204    -5124    -5053    -4980    -4897    -4822    -4764    -4708 
   -4653    -4596    -4530    -4468    -4425    -4384    -4340    -4305 
   -4275    -4239    -4210    -4202    -4209    -4222    -4233    -4236 
   -4244    -4266    -4282    -4302    -4334    -4361    -4387    -4413 
   -4433    -4457    -4480    -4495    -4513    -4533    -4544    -4549 
   -4558    -4558    -4553    -4560    -4567    -4561    -4554    -4546 
   -4544    -4554    -4549    -4527    -4517    -4507    -4484    -4471 
   -4463    -4442    -4429    -4425    -4413    -4392    -4364    -4326 
   -4299    -4286    -4274    -4274    -4282    -4276    -4264    -4251 
   -4230    -4224    -4228    -4229    -4244    -4270    -4280    -4274 
   -4261    -4249    -4247    -4253    -4252    -4261    -4293    -4325 
   -4348    -4376    -4411    -4441    -4465    -4487    -4499    -4514 
   -4544    -4577    -4615    -4646    -4660    -4673    -4692    -4691 
   -4676    -4665    -4639    -4606    -4583    -4558    -4536    -4521 
   -4496    -4457    -4423    -4388    -4348    -4311    -4263    -4198 
   -4145    -4110    -4071    -4041    -4013    -3967    -3925    -3900 
   -3869    -3842    -3825    -3800    -3775    -3765    -3759    -3761 
   -3774    -3786    -3797    -3821    -3854    -3886    -3928    -3977 
   -4031    -4094    -4158    -4221    -4295    -4369    -4434    -4504 
   -4579    -4652    -4733    -4818    -4895    -4970    -5043    -5105 
   -5161    -5217    -5263    -5290    -5309    -5324    -5323    -5316 
   -5305    -5283    -5255    -5217    -5163    -5113    -5080    -5043 
   -5005    -4968    -4923    -4878    -4834    -4772    -4693    -4614 
   -4533    -4453    -4386    -4317    -4229    -4147    -4068    -3987 
   -3916    -3848    -3777    -3713    -3647    -3582    -3537    -3497 
   -3445    -3406    -3384    -3372    -3375    -3373    -3358    -3349 
   -3343    -3327    -3315    -3319    -3315    -3311    -3330    -3353 
   -3376    -3410    -3437    -3454    -3483    -3507    -3537    -3585 
   -3632    -3692    -3781    -3874    -3959    -4052    -4145    -4241 
   -4355    -4468    -4576    -4691    -4795    -4882    -4974    -5057 
   -5117    -5163    -5196    -5211    -5219    -5227    -5236    -5256 
   -5279    -5287    -5292    -5292    -5274    -5246    -5220    -5188 
   -5154    -5128    -5100    -5069    -5038    -5003    -4955    -4909 
   -4872    -4839    -4806    -4766    -4725    -4688    -4644    -4592 
   -4541    -4490    -4440    -4384    -4324    -4252    -4182    -4128 
   -4077    -4027    -3986    -3939    -3896    -3873    -3854    -3829 
   -3821    -3829    -3844    -3871    -3910    -3954    -4009    -4070 
   -4125    -4189    -4255    -4317    -4387    -4463    -4525    -4596 
   -4683    -4768    -4862    -4970    -5071    -5175    -5277    -5347 
   -5416    -5502    -5579    -5657    -5745    -5817    -5881    -5952 
   -6002    -6042    -6095    -6139    -6174    -6216    -6239    -6246 
   -6266    -6277    -6265    -6253    -6232    -6207    -6203    -6196 
   -6165    -6123    -6066    -5994    -5919    -5841    -5761    -5690 
   -5621    -5533    -5439    -5339    -5223    -5104    -4988    -4866 
   -4757    -4665    -4575    -4488    -4415    -4347    -4290    -4244 
   -4205    -4176    -4159    -4140    -4124    -4109    -4090    -4068 
   -4055    -4047    -4035    -4024    -4020    -4013    -3997    -3982 
   -3967    -3950    -3931    -3908    -3878    -3850    -3820    -3793 
   -3774    -3755    -3727    -3678    -3611    -3532    -3449    -3369 
   -3285    -3194    -3110    -3036    -2982    -2947    -2909    -2880 
   -2876    -2886    -2911    -2959    -3018    -3094    -3194    -3302 
   -3407    -3520    -3628    -3730    -3844    -3963    -4078    -4195 
   -4290    -4367    -4442    -4500    -4540    -4580    -4610    -4630 
   -4661    -4689    -4695    -4688    -4683    -4668    -4648    -4617 
   -4567    -4513    -4459    -4391    -4315    -4241    -4168    -4102 
   -4039    -3971    -3909    -3861    -3813    -3771    -3747    -3736 
   -3723    -3712    -3711    -3713    -3719    -3738    -3765    -3789 
   -3808    -3829    -3855    -3886    -3915    -3943    -3979    -4016 
   -4051    -4085    -4113    -4140    -4171    -4201    -4230    -4266 
   -4311    -4364    -4423    -4487    -4552    -4618    -4684    -4749 
   -4810    -4873    -4941    -5019    -5104    -5173    -5225    -5282 
   -5335    -5374    -5412    -5441    -5463    -5498    -5532    -5544 
   -5555    -5567    -5576    -5601    -5621    -5617    -5614    -5611 
   -5586    -5552    -5514    -5467    -5422    -5367    -5292    -5212 
   -5138    -5059    -4981    -4899    -4810    -4722    -4644    -4567 
   -4491    -4422    -4365    -4320    -4280    -4237    -4206    -4187 
   -4162    -4137    -4133    -4139    -4140    -4151    -4170    -4179 
   -4201    -4240    -4274    -4306    -4344    -4374    -4409    -4457 
   -4498    -4537    -4591    -4637    -4680    -4729    -4761    -4780 
   -4801    -4814    -4824    -4845    -4857    -4868    -4887    -4896 
   -4903    -4919    -4935    -4958    -4989    -5017    -5050    -5096 
   -5143    -5190    -5243    -5293    -5333    -5367    -5395    -5424 
   -5448    -5463    -5466    -5456    -5439    -5418    -5386    -5336 
   -5281    -5221    -5161    -5096    -5020    -4946    -4870    -4777 
   -4681    -4587    -4492    -4421    -4364    -4301    -4248    -4201 
   -4141    -4086    -4028    -3958    -3897    -3850    -3798    -3751 
   -3721    -3686    -3647    -3612    -3568    -3526    -3505    -3489 
   -3473    -3464    -3458    -3466    -3499    -3528    -3557    -3600 
   -3642    -3684    -3732    -3780    -3838    -3919    -4009    -4104 
   -4199    -4291    -4380    -4477    -4576    -4660    -4741    -4831 
   -4918    -5007    -5103    -5179    -5248    -5325    -5389    -5443 
   -5498    -5544    -5580    -5620    -5656    -5686    -5721    -5753 
   -5775    -5794    -5810    -5826    -5845    -5852    -5840    -5827 
   -5813    -5791    -5780    -5768    -5740    -5714    -5687    -5647 
   -5606    -5568    -5518    -5458    -5389    -5313    -5239    -5165 
   -5084    -4996    -4912    -4833    -4754    -4679    -4599    -4513 
   -4437    -4372    -4311    -4247    -4189    -4139    -4094    -4059 
   -4029    -3997    -3974    -3959    -3940    -3919    -3902    -3881 
   -3858    -3838    -3812    -3785    -3765    -3747    -3730    -3712 
   -3700    -3711    -3723    -3719    -3724    -3736    -3747    -3769 
   -3792    -3801    -3823    -3854    -3865    -3874    -3883    -3889 
   -3904    -3920    -3920    -3919    -3919    -3910    -3906    -3901 
   -3885    -3879    -3886    -3881    -3877    -3881    -3878    -3871 
   -3856    -3819    -3777    -3748    -3724    -3696    -3670    -3642 
   -3618    -3612    -3605    -3582    -3568    -3557    -3547    -3554 
   -3565    -3572    -3599    -3631    -3651    -3669    -3689    -3707 
   -3719    -3732    -3742    -3748    -3763    -3771    -3770    -3781 
   -3801    -3828    -3873    -3917    -3962    -4016    -4064    -4105 
   -4149    -4194    -4236    -4291    -4351    -4396    -4448    -4510 
   -4563    -4611    -4666    -4725    -4781    -4842    -4903    -4962 
   -5023    -5073    -5125    -5193    -5247    -5285    -5339    -5390 
   -5418    -5447    -5466    -5464    -5470    -5478    -5472    -5460 
   -5445    -5429    -5410    -5391    -5370    -5348    -5324    -5286 
   -5236    -5182    -5115    -5049    -4993    -4935    -4877    -4830 
   -4777    -4718    -4668    -4617    -4561    -4522    -4494    -4460 
   -4438    -4429    -4421    -4406    -4388    -4378    -4380    -4396 
   -4417    -4442    -4473    -4504    -4533    -4558    -4573    -4590 
   -4615    -4639    -4665    -4693    -4719    -4753    -4795    -4837 
   -4876    -4909    -4942    -4974    -5000    -5019    -5038    -5067 
   -5096    -5116    -5131    -5147    -5162    -5178    -5192    -5202 
   -5221    -5248    -5273    -5296    -5321    -5348    -5386    -5435 
   -5482    -5532    -5594    -5655    -5703    -5749    -5798    -5840 
   -5880    -5922    -5948    -5956    -5964    -5971    -5985    -5999 
   -5992    -5985    -5985    -5965    -5938    -5911    -5863    -5811 
   -5757    -5682    -5603    -5533    -5456    -5378    -5298    -5200 
   -5104    -5017    -4912    -4796    -4689    -4581    -4480    -4392 
   -4297    -4202    -4133    -4066    -3994    -3935    -3871    -3801 
   -3747    -3692    -3626    -3569    -3522    -3478    -3450    -3427 
   -3397    -3388    -3404    -3422    -3445    -3483    -3518    -3557 
   -3600    -3634    -3672    -3719    -3753    -3782    -3817    -3839 
   -3863    -3897    -3919    -3928    -3935    -3937    -3939    -3939 
   -3928    -3909    -3886    -3862    -3836    -3808    -3774    -3753 
