Origin Time       2025/01/13 21:19:00
Lat.              31.8
Long.             131.6
Depth. (km)       30
Mag.              6.9
Station Code      TKS003
Station Lat.      33.8716
Station Long.     134.6040
Station Height(m) 13
Record Time       2025/01/13 21:21:00
Sampling Freq(Hz) 100Hz
Duration Time(s)  60
Dir.              E-W
Scale Factor      7845(gal)/8223790
Max. Acc. (gal)   1.887
Last Correction   2025/01/13 21:20:59
Memo.             
[...]
  -13828   -13894   -13949   -14007   -14061   -14103   -14152   -14202 
  -14222   -14216   -14185   -14121   -14044   -13976   -13906   -13837 
  -13810   -13818   -13819   -13824   -13848   -13890   -13948   -14019 
  -14072   -14089   -14088   -14071   -14019   -13963   -13940   -13937 
  -13926   -13911   -13903   -13896   -13895   -13899   -13913   -13932 
  -13938   -13913   -13868   -13856   -13875   -13879   -13852   -13810 
  -13775   -13764   -13794   -13841   -13857   -13855   -13861   -13865 
  -13883   -13934   -13987   -14000   -13986   -13944   -13884   -13848 
  -13853   -13884   -13933   -13979   -13975   -13934   -13934   -13983 
  -14035   -14064   -14045   -13963   -13864   -13813   -13811   -13821 
  -13833   -13861   -13890   -13914   -13965   -14038   -14108   -14154 
  -14143   -14079   -14019   -13998   -13976   -13933   -13903   -13898 
  -13902   -13930   -13986   -14029   -14040   -14027   -13994   -13963 
  -13963   -13954   -13909   -13864   -13851   -13849   -13867   -13923 
  -13996   -14054   -14092   -14092   -14052   -14008   -13976   -13927 
  -13871   -13825   -13779   -13736   -13710   -13697   -13683   -13686 
  -13720   -13779   -13856   -13933   -13983   -14022   -14085   -14143 
  -14160   -14150   -14127   -14085   -14030   -13980   -13945   -13930 
  -13948   -13972   -13963   -13929   -13896   -13861   -13848   -13894 
  -13957   -13971   -13945   -13932   -13949   -13987   -14035   -14077 
  -14091   -14061   -13972   -13846   -13774   -13780   -13813   -13848 
  -13898   -13949   -14000   -14068   -14131   -14158   -14156   -14139 
  -14081   -13975   -13872   -13806   -13764   -13730   -13693   -13655 
  -13649   -13699   -13780   -13876   -13988   -14076   -14119   -14156 
  -14173   -14137   -14083   -14037   -13990   -13954   -13942   -13942 
  -13940   -13929   -13907   -13872   -13857   -13896   -13941   -13937 
  -13907   -13878   -13863   -13900   -13983   -14052   -14083   -14064 
  -13986   -13900   -13882   -13917   -13932   -13906   -13845   -13759 
  -13697   -13701   -13753   -13822   -13867   -13856   -13821   -13830 
  -13911   -13998   -14033   -14044   -14040   -14014   -14004   -14010 
  -14007   -14026   -14068   -14073   -14046   -14034   -14027   -14010 
  -13991   -13952   -13875   -13799   -13759   -13733   -13724   -13755 
  -13806   -13851   -13919   -14011   -14088   -14149   -14218   -14262 
  -14262   -14247   -14208   -14123   -14030   -13959   -13886   -13821 
  -13790   -13757   -13699   -13659   -13671   -13729   -13818   -13907 
  -13972   -14023   -14072   -14106   -14108   -14103   -14099   -14076 
  -14033   -13991   -13937   -13863   -13790   -13733   -13695   -13687 
  -13707   -13733   -13790   -13911   -14044   -14126   -14169   -14195 
  -14191   -14157   -14098   -14004   -13910   -13871   -13873   -13884 
  -13914   -13949   -13940   -13911   -13895   -13871   -13852   -13869 
  -13903   -13921   -13923   -13911   -13890   -13891   -13936   -13975 
  -13967   -13923   -13863   -13791   -13756   -13779   -13832   -13896 
  -13952   -13976   -13995   -14050   -14121   -14142   -14118   -14085 
  -14052   -14027   -14015   -13980   -13923   -13887   -13867   -13853 
  -13883   -13960   -14022   -14046   -14061   -14054   -14021   -13996 
  -13987   -13971   -13959   -13934   -13878   -13819   -13802   -13817 
  -13851   -13914   -14000   -14061   -14076   -14081   -14083   -14060 
  -14033   -14019   -13987   -13932   -13875   -13821   -13791   -13828 
  -13895   -13937   -13959   -13959   -13917   -13869   -13861   -13863 
  -13857   -13864   -13868   -13872   -13913   -13968   -13988   -13980 
  -13972   -13980   -14019   -14073   -14100   -14081   -14040   -13998 
  -13964   -13948   -13940   -13905   -13851   -13830   -13855   -13895 
  -13933   -13964   -13967   -13938   -13910   -13898   -13900   -13913 
  -13913   -13886   -13861   -13867   -13895   -13942   -14017   -14077 
  -14076   -14042   -14010   -13988   -13998   -14017   -13980   -13905 
  -13851   -13825   -13822   -13853   -13891   -13903   -13907   -13919 
  -13933   -13954   -13998   -14023   -14022   -14027   -14026   -13991 
  -13961   -13969   -13971   -13941   -13917   -13902   -13879   -13860 
  -13842   -13803   -13765   -13771   -13802   -13829   -13865   -13903 
  -13913   -13941   -14018   -14075   -14080   -14061   -14022   -13971 
  -13929   -13899   -13878   -13868   -13871   -13863   -13855   -13888 
  -13961   -14030   -14077   -14092   -14073   -14067   -14107   -14152 
  -14158   -14149   -14103   -14000   -13899   -13836   -13797   -13776 
  -13779   -13801   -13832   -13876   -13922   -13949   -13975   -14027 
  -14061   -14052   -14048   -14042   -14011   -13988   -13971   -13940 
  -13919   -13925   -13946   -13983   -14029   -14046   -14025   -13999 
  -13988   -13984   -13977   -13956   -13903   -13841   -13802   -13771 
  -13734   -13718   -13722   -13707   -13683   -13699   -13757   -13844 
  -13954   -14046   -14083   -14081   -14073   -14067   -14072   -14071 
  -14029   -13963   -13900   -13842   -13788   -13768   -13806   -13855 
  -13875   -13887   -13896   -13899   -13948   -14057   -14152   -14187 
  -14169   -14099   -14018   -13975   -13950   -13910   -13864   -13810 
  -13741   -13699   -13711   -13743   -13776   -13833   -13896   -13938 
  -13976   -14030   -14087   -14134   -14164   -14152   -14098   -14044 
  -14003   -13965   -13936   -13906   -13871   -13852   -13848   -13832 
  -13809   -13814   -13844   -13857   -13844   -13836   -13844   -13867 
  -13922   -13983   -14007   -14013   -14019   -14018   -14021   -14038 
  -14034   -14018   -14041   -14079   -14089   -14088   -14065   -13992 
  -13923   -13900   -13883   -13853   -13848   -13860   -13869   -13896 
  -13940   -13961   -13967   -13980   -13976   -13949   -13940   -13946 
  -13945   -13938   -13922   -13873   -13807   -13772   -13772   -13797 
  -13838   -13878   -13892   -13914   -13960   -13990   -14004   -14030 
  -14054   -14058   -14054   -14052   -14034   -14006   -14003   -14027 
  -14045   -14052   -14040   -13994   -13967   -13980   -13983   -13969 
  -13967   -13957   -13937   -13926   -13922   -13905   -13883   -13864 
  -13845   -13841   -13859   -13876   -13879   -13887   -13899   -13892 
  -13880   -13892   -13911   -13909   -13892   -13873   -13845   -13834 
  -13857   -13871   -13865   -13871   -13880   -13902   -13969   -14041 
  -14057   -14042   -14031   -14021   -14015   -14026   -14025   -14007 
  -13996   -13979   -13950   -13950   -13977   -13983   -13965   -13945 
  -13902   -13849   -13840   -13878   -13917   -13941   -13952   -13937 
  -13921   -13926   -13918   -13880   -13837   -13791   -13744   -13725 
  -13747   -13786   -13822   -13857   -13875   -13887   -13929   -13981 
  -14007   -14017   -14019   -13984   -13927   -13895   -13880   -13853 
  -13826   -13813   -13810   -13829   -13865   -13890   -13896   -13917 
  -13956   -13991   -14034   -14080   -14092   -14084   -14092   -14088 
  -14045   -14008   -13995   -13971   -13933   -13917   -13919   -13937 
  -13969   -13983   -13956   -13927   -13914   -13894   -13873   -13872 
  -13861   -13832   -13837   -13888   -13946   -14013   -14084   -14111 
  -14098   -14080   -14048   -14002   -13980   -13977   -13940   -13869 
  -13801   -13745   -13730   -13763   -13797   -13825   -13875   -13938 
  -14000   -14080   -14165   -14207   -14195   -14148   -14069   -13967 
  -13880   -13826   -13772   -13710   -13653   -13605   -13605   -13690 
  -13809   -13900   -13967   -14014   -14042   -14072   -14115   -14137 
  -14131   -14126   -14107   -14053   -14000   -13972   -13948   -13930 
  -13922   -13907   -13892   -13903   -13925   -13933   -13950   -13979 
  -13980   -13961   -13950   -13940   -13923   -13918   -13914   -13888 
  -13867   -13883   -13915   -13940   -13965   -13979   -13979   -13994 
  -14017   -14007   -13981   -13959   -13911   -13845   -13791   -13756 
  -13726   -13707   -13705   -13701   -13691   -13717   -13780   -13861 
  -13973   -14071   -14106   -14131   -14168   -14181   -14177   -14148 
  -14045   -13909   -13817   -13770   -13743   -13740   -13748   -13749 
  -13772   -13848   -13956   -14058   -14149   -14235   -14295   -14296 
  -14235   -14129   -14029   -13973   -13938   -13886   -13830   -13787 
  -13748   -13741   -13783   -13845   -13911   -13979   -14022   -14008 
  -13971   -13956   -13960   -13968   -13969   -13936   -13860   -13798 
  -13786   -13811   -13872   -13944   -13972   -13972   -13992   -14015 
  -14025   -14040   -14052   -14040   -14018   -13990   -13950   -13914 
  -13888   -13855   -13814   -13791   -13782   -13774   -13784   -13826 
  -13873   -13917   -13971   -14025   -14065   -14098   -14096   -14046 
  -13992   -13977   -13990   -13988   -13946   -13869   -13784   -13736 
  -13744   -13774   -13805   -13830   -13832   -13833   -13883   -13959 
  -14017   -14060   -14088   -14083   -14071   -14087   -14112   -14114 
  -14089   -14041   -13969   -13914   -13899   -13910   -13937   -13987 
  -14031   -14035   -14010   -13972   -13930   -13905   -13898   -13883 
  -13849   -13822   -13807   -13809   -13855   -13934   -13984   -13998 
  -14013   -14021   -14017   -14022   -14014   -13980   -13948   -13927 
  -13921   -13945   -13996   -14046   -14079   -14087   -14067   -14031 
  -14004   -13992   -13968   -13925   -13888   -13867   -13844   -13822 
  -13817   -13825   -13859   -13922   -13996   -14072   -14143   -14188 
  -14184   -14154   -14129   -14108   -14089   -14061   -14000   -13918 
  -13855   -13807   -13761   -13740   -13745   -13743   -13738   -13768 
  -13809   -13855   -13938   -14034   -14094   -14131   -14165   -14173 
  -14162   -14154   -14130   -14064   -13975   -13888   -13821   -13795 
  -13817   -13852   -13884   -13942   -14014   -14071   -14123   -14179 
  -14218   -14231   -14226   -14193   -14134   -14075   -14027   -13994 
  -13983   -13977   -13946   -13909   -13915   -13948   -13968   -13976 
  -13972   -13957   -13948   -13941   -13918   -13890   -13868   -13842 
  -13810   -13780   -13759   -13745   -13760   -13818   -13884   -13944 
  -14018   -14081   -14106   -14126   -14146   -14156   -14188   -14230 
  -14222   -14160   -14079   -13996   -13922   -13888   -13890   -13872 
  -13821   -13756   -13682   -13651   -13711   -13814   -13888   -13922 
  -13922   -13903   -13906   -13973   -14079   -14137   -14116   -14041 
  -13945   -13884   -13902   -13963   -14014   -14022   -13960   -13841 
  -13724   -13651   -13626   -13655   -13730   -13788   -13782   -13734 
  -13695   -13697   -13749   -13840   -13941   -14021   -14069   -14092 
  -14094   -14107   -14146   -14165   -14134   -14041   -13896   -13751 
  -13660   -13645   -13691   -13761   -13809   -13803   -13783   -13802 
  -13848   -13900   -13959   -13977   -13923   -13817   -13689   -13581 
  -13536   -13572   -13675   -13814   -13938   -13992   -13968   -13932 
  -13954   -14044   -14158   -14245   -14254   -14166   -14014   -13838 
  -13686   -13625   -13683   -13783   -13840   -13818   -13749   -13722 
  -13836   -14064   -14269   -14331   -14212   -13944   -13637   -13436 
  -13396   -13452   -13508   -13500   -13447   -13439   -13567   -13834 
  -14183   -14489   -14578   -14397   -14084   -13813   -13676   -13680 
  -13755   -13797   -13772   -13747   -13802   -13960   -14191   -14393 
  -14451   -14364   -14212   -14045   -13905   -13830   -13810   -13799 
  -13791   -13818   -13922   -14099   -14291   -14392   -14335   -14149 
  -13895   -13641   -13483   -13454   -13481   -13504   -13529   -13590 
  -13711   -13899   -14091   -14189   -14180   -14091   -13930   -13752 
  -13672   -13721   -13830   -13940   -14021   -14081   -14202   -14420 
  -14655   -14797   -14809   -14671   -14384   -14050   -13770   -13535 
  -13354   -13269   -13263   -13344   -13555   -13836   -14075   -14219 
  -14293   -14347   -14424   -14530   -14601   -14573   -14470   -14339 
  -14207   -14139   -14142   -14119   -13990   -13753   -13478   -13288 
  -13293   -13485   -13736   -13918   -13998   -14007   -14006   -14029 
  -14057   -14062   -14040   -13983   -13884   -13774   -13707   -13694 
  -13717   -13768   -13833   -13873   -13888   -13895   -13890   -13892 
  -13942   -14035   -14145   -14262   -14312   -14170   -13848   -13477 
  -13204   -13174   -13414   -13765   -14042   -14187   -14207   -14148 
  -14138   -14264   -14430   -14493   -14401   -14175   -13898   -13716 
  -13698   -13771   -13832   -13806   -13652   -13467   -13436   -13601 
  -13875   -14168   -14411   -14562   -14627   -14636   -14598   -14490 
  -14272   -13882   -13332   -12787   -12444   -12397   -12636   -13080 
  -13616   -14154   -14648   -15016   -15148   -15051   -14802   -14445 
  -14062   -13765   -13563   -13429   -13352   -13320   -13373   -13605 
  -14037   -14542   -14960   -15167   -15101   -14821   -14503   -14260 
  -14071   -13883   -13670   -13435   -13228   -13135   -13219   -13504 
  -13936   -14342   -14526   -14458   -14297   -14157   -14033   -13919 
  -13791   -13575   -13269   -12958   -12745   -12735   -12999   -13471 
  -14004   -14459   -14756   -14886   -14924   -14953   -14962   -14883 
  -14671   -14296   -13815   -13402   -13192   -13198   -13362   -13583 
  -13791   -13995   -14235   -14473   -14588   -14494   -14196   -13792 
  -13454   -13327   -13412   -13621   -13896   -14160   -14323   -14372 
  -14339   -14229   -14040   -13759   -13347   -12849   -12453   -12337 
  -12529   -12981   -13593   -14195   -14659   -14970   -15155   -15233 
  -15186   -14931   -14407   -13680   -12910   -12271   -11959   -12105 
  -12626   -13267   -13798   -14165   -14435   -14675   -14878   -14913 
  -14690   -14307   -13903   -13558   -13324   -13225   -13231   -13316 
  -13464   -13651   -13848   -14033   -14152   -14125   -13933   -13663 
  -13436   -13360   -13475   -13698   -13902   -14044   -14149   -14257 
  -14404   -14580   -14729   -14809   -14793   -14648   -14351   -13959 
  -13587   -13343   -13266   -13292   -13309   -13306   -13379   -13599 
  -13960   -14370   -14663   -14736   -14667   -14593   -14563   -14532 
  -14442   -14274   -14062   -13860   -13679   -13545   -13547   -13702 
  -13884   -13992   -14031   -14040   -14053   -14098   -14150   -14153 
  -14077   -13942   -13794   -13730   -13842   -14091   -14330   -14455 
  -14428   -14239   -13961   -13734   -13620   -13589   -13598   -13626 
  -13698   -13871   -14187   -14590   -14951   -15157   -15113   -14771 
  -14234   -13695   -13316   -13157   -13163   -13201   -13224   -13319 
  -13525   -13767   -13965   -14038   -13948   -13795   -13699   -13695 
  -13772   -13890   -13981   -13999   -13964   -13926   -13872   -13778 
  -13655   -13518   -13397   -13358   -13435   -13599   -13822   -14049 
  -14180   -14143   -13996   -13895   -13954   -14123   -14234   -14197 
  -14119   -14157   -14342   -14563   -14674   -14580   -14256   -13782 
  -13358   -13171   -13286   -13608   -13887   -13949   -13880   -13859 
  -13981   -14249   -14532   -14623   -14438   -14116   -13852   -13730 
  -13765   -13892   -13980   -14013   -14060   -14116   -14168   -14243 
  -14330   -14354   -14283   -14164   -14103   -14185   -14347   -14392 
  -14242   -13992   -13718   -13443   -13217   -13076   -12991   -12935 
  -12911   -13019   -13386   -13980   -14573   -14949   -15082   -15055 
  -14916   -14673   -14355   -13977   -13540   -13088   -12708   -12487 
  -12480   -12696   -13105   -13641   -14224   -14742   -15093   -15287 
  -15354   -15264   -14979   -14517   -13969   -13490   -13181   -13028 
  -12973   -12982   -13057   -13170   -13317   -13535   -13779   -13942 
  -14006   -13999   -13957   -14019   -14256   -14504   -14588   -14482 
  -14231   -13938   -13747   -13729   -13856   -14072   -14280   -14324 
  -14180   -13994   -13892   -13899   -13957   -13921   -13698   -13420 
  -13312   -13455   -13772   -14129   -14362   -14351   -14156   -13954 
  -13892   -14045   -14396   -14748   -14883   -14781   -14553   -14322 
  -14202   -14153   -13986   -13595   -13061   -12515   -12154   -12177 
  -12598   -13244   -13879   -14326   -14554   -14659   -14755   -14851 
  -14897   -14872   -14775   -14589   -14305   -13914   -13456   -13081 
  -12955   -13117   -13441   -13736   -13864   -13806   -13684   -13672 
  -13817   -14046   -14238   -14250   -14033   -13747   -13599   -13639 
  -13814   -14046   -14191   -14162   -14021   -13895   -13907   -14088 
  -14285   -14284   -14062   -13799   -13621   -13566   -13667   -13842 
  -13888   -13703   -13369   -13101   -13124   -13466   -13925   -14318 
  -14611   -14823   -14928   -14921   -14831   -14654   -14380   -14040 
  -13703   -13464   -13379   -13381   -13360   -13331   -13375   -13501 
  -13662   -13834   -14008   -14157   -14249   -14260   -14176   -14044 
  -13919   -13799   -13674   -13566   -13456   -13325   -13225   -13201 
  -13238   -13323   -13464   -13656   -13923   -14299   -14733   -15105 
  -15309   -15298   -15107   -14875   -14754   -14750   -14710   -14485 
  -13975   -13239   -12571   -12248   -12359   -12849   -13524   -14067 
  -14269   -14222   -14169   -14258   -14474   -14659   -14584   -14175 
  -13617   -13163   -13011   -13244   -13736   -14184   -14358   -14242 
  -14031   -13984   -14156   -14350   -14337   -14057   -13641   -13288 
  -13155   -13305   -13652   -14014   -14273   -14413   -14474   -14516 
  -14571   -14611   -14567   -14391   -14076   -13689   -13347   -13131 
  -13008   -12942   -12958   -13093   -13371   -13765   -14179   -14523 
  -14781   -14929   -14898   -14650   -14254   -13844   -13510   -13288 
  -13178   -13198   -13386   -13709   -14067   -14413   -14724   -14885 
  -14809   -14550   -14170   -13699   -13211   -12830   -12694   -12911 
  -13463   -14150   -14720   -15016   -14966   -14592   -14038   -13528 
  -13205   -13081   -13101   -13173   -13204   -13240   -13412   -13768 
  -14266   -14769   -15043   -14949   -14569   -14084   -13671   -13475 
  -13525   -13691   -13814   -13806   -13666   -13521   -13563   -13838 
  -14237   -14611   -14814   -14752   -14466   -14134   -13961   -14038 
  -14277   -14454   -14361   -13980   -13477   -13042   -12831   -12924 
  -13230   -13560   -13791   -13918   -14017   -14165   -14330   -14415 
  -14411   -14347   -14235   -14142   -14183   -14377   -14608   -14739 
  -14717   -14571   -14382   -14220   -14060   -13809   -13412   -12907 
  -12424   -12162   -12279   -12749   -13390   -14018   -14484   -14727 
  -14800   -14770   -14666   -14546   -14496   -14515   -14539   -14517 
  -14364   -14013   -13545   -13128   -12868   -12829   -13023   -13325 
  -13575   -13693   -13687   -13686   -13865   -14258   -14686   -14949 
  -14997   -14877   -14677   -14485   -14326   -14134   -13829   -13448 
  -13182   -13201   -13514   -13960   -14299   -14380   -14239   -14033 
  -13918   -13981   -14173   -14316   -14276   -14062   -13810   -13676 
  -13730   -13929   -14145   -14220   -14080   -13787   -13517   -13416 
  -13481   -13612   -13683   -13633   -13556   -13609   -13834   -14166 
  -14501   -14747   -14832   -14754   -14558   -14231   -13747   -13197 
  -12742   -12518   -12610   -12976   -13452   -13911   -14300   -14559 
  -14643   -14609   -14516   -14349   -14118   -13880   -13676   -13590 
  -13698   -13933   -14165   -14355   -14457   -14381   -14183   -14007 
  -13878   -13753   -13636   -13528   -13446   -13463   -13601   -13814 
