Origin Time       2025/01/13 21:19:00
Lat.              31.8
Long.             131.6
Depth. (km)       30
Mag.              6.9
Station Code      TKS002
Station Lat.      34.0439
Station Long.     134.5820
Station Height(m) 2
Record Time       2025/01/13 21:21:37
Sampling Freq(Hz) 100Hz
Duration Time(s)  60
Dir.              N-S
Scale Factor      7845(gal)/8223790
Max. Acc. (gal)   2.236
Last Correction   2025/01/13 21:21:36
Memo.             
   -8397    -8465    -8515    -8595    -8688    -8754    -8802    -8824 
   -8847    -8888    -8881    -8834    -8800    -8787    -8795    -8799 
   -8804    -8850    -8899    -8946    -9008    -9036    -9032    -9023 
   -9003    -8978    -8953    -8947    -8984    -9031    -9082    -9170 
   -9259    -9320    -9382    -9440    -9475    -9508    -9549    -9590 
   -9629    -9680    -9747    -9809    -9894    -9999   -10060   -10091 
  -10126   -10137   -10130   -10130   -10112   -10076   -10017    -9938 
   -9865    -9769    -9629    -9482    -9351    -9240    -9150    -9076 
   -8997    -8903    -8820    -8742    -8658    -8599    -8527    -8442 
   -8407    -8376    -8341    -8351    -8334    -8271    -8218    -8195 
   -8210    -8220    -8213    -8232    -8256    -8280    -8318    -8360 
   -8433    -8503    -8536    -8568    -8594    -8630    -8689    -8726 
   -8752    -8765    -8762    -8784    -8807    -8827    -8866    -8918 
   -8991    -9050    -9076    -9092    -9081    -9101    -9208    -9335 
   -9383    -9351    -9351    -9397    -9377    -9331    -9385    -9474 
   -9483    -9477    -9506    -9504    -9491    -9524    -9545    -9559 
   -9612    -9698    -9783    -9790    -9747    -9751    -9767    -9734 
   -9709    -9738    -9738    -9651    -9564    -9508    -9428    -9352 
   -9301    -9232    -9163    -9120    -9066    -8995    -8920    -8846 
   -8773    -8712    -8661    -8618    -8591    -8553    -8502    -8473 
   -8455    -8436    -8441    -8476    -8521    -8557    -8592    -8660 
   -8753    -8831    -8883    -8923    -8961    -8995    -9028    -9050 
   -9042    -9024    -9012    -8982    -8935    -8924    -8968    -8997 
   -9011    -9046    -9070    -9045    -9000    -8959    -8904    -8831 
   -8776    -8761    -8775    -8824    -8911    -8992    -9047    -9092 
   -9138    -9159    -9146    -9150    -9171    -9181    -9189    -9170 
   -9131    -9108    -9074    -9009    -8949    -8934    -8943    -8938 
   -8938    -8968    -8999    -9032    -9082    -9112    -9112    -9111 
   -9117    -9121    -9131    -9150    -9148    -9132    -9115    -9080 
   -9009    -8934    -8885    -8846    -8787    -8735    -8742    -8779 
   -8802    -8820    -8833    -8853    -8922    -9011    -9047    -9045 
   -9057    -9101    -9157    -9169    -9165    -9188    -9188    -9163 
   -9135    -9089    -9061    -9040    -8989    -8930    -8877    -8835 
   -8835    -8854    -8872    -8874    -8857    -8847    -8841    -8847 
   -8883    -8885    -8885    -8941    -8995    -9015    -9038    -9069 
   -9063    -8999    -8926    -8881    -8842    -8822    -8838    -8842 
   -8816    -8802    -8806    -8806    -8820    -8873    -8926    -8947 
   -8980    -9055    -9123    -9148    -9167    -9194    -9215    -9235 
   -9259    -9289    -9327    -9366    -9393    -9394    -9377    -9360 
   -9350    -9316    -9254    -9213    -9219    -9204    -9154    -9136 
   -9150    -9154    -9158    -9166    -9170    -9170    -9161    -9146 
   -9139    -9166    -9200    -9193    -9132    -9032    -8931    -8860 
   -8810    -8760    -8695    -8625    -8565    -8525    -8513    -8502 
   -8463    -8410    -8343    -8272    -8278    -8386    -8488    -8500 
   -8476    -8498    -8583    -8711    -8806    -8781    -8726    -8814 
   -8989    -9086    -9100    -9084    -9062    -9094    -9185    -9270 
   -9344    -9404    -9417    -9416    -9435    -9460    -9502    -9556 
   -9545    -9470    -9451    -9514    -9533    -9474    -9393    -9305 
   -9261    -9265    -9255    -9207    -9117    -9031    -9019    -9035 
   -9040    -9070    -9116    -9150    -9190    -9246    -9315    -9401 
   -9471    -9510    -9559    -9643    -9738    -9795    -9796    -9790 
   -9818    -9871    -9902    -9898    -9883    -9837    -9764    -9722 
   -9710    -9678    -9640    -9626    -9602    -9541    -9491    -9475 
   -9490    -9514    -9493    -9423    -9350    -9306    -9298    -9265 
   -9161    -9057    -9003    -8954    -8888    -8824    -8768    -8726 
   -8681    -8581    -8451    -8351    -8303    -8263    -8171    -8070 
   -8032    -8024    -7989    -7959    -7955    -7940    -7913    -7893 
   -7881    -7894    -7920    -7916    -7923    -7965    -7992    -7996 
   -8005    -8016    -8037    -8105    -8194    -8243    -8260    -8313 
   -8375    -8405    -8446    -8521    -8573    -8572    -8561    -8614 
   -8691    -8695    -8652    -8645    -8656    -8635    -8619    -8641 
   -8638    -8613    -8640    -8683    -8683    -8698    -8749    -8806 
   -8851    -8889    -8947    -9000    -9015    -9034    -9076    -9107 
   -9135    -9174    -9213    -9266    -9340    -9432    -9535    -9625 
   -9683    -9709    -9740    -9790    -9806    -9788    -9842    -9933 
   -9929    -9872    -9871    -9892    -9902    -9904    -9867    -9807 
   -9775    -9765    -9740    -9701    -9675    -9633    -9558    -9466 
   -9369    -9306    -9305    -9288    -9193    -9113    -9124    -9159 
   -9211    -9306    -9359    -9379    -9483    -9613    -9676    -9720 
   -9752    -9755    -9829    -9976   -10037   -10011   -10018   -10049 
  -10045   -10004    -9949    -9896    -9833    -9695    -9498    -9393 
   -9362    -9234    -9009    -8819    -8719    -8667    -8594    -8486 
   -8349    -8210    -8118    -8070    -7989    -7877    -7897    -8062 
   -8106    -8016    -8056    -8198    -8289    -8368    -8441    -8487 
   -8550    -8600    -8614    -8656    -8721    -8764    -8835    -8877 
   -8780    -8726    -8865    -8932    -8814    -8748    -8777    -8800 
   -8827    -8839    -8791    -8750    -8733    -8642    -8502    -8409 
   -8355    -8320    -8294    -8229    -8162    -8195    -8270    -8279 
   -8275    -8299    -8347    -8426    -8532    -8633    -8729    -8824 
   -8916    -8992    -9085    -9225    -9356    -9460    -9560    -9648 
   -9747    -9869    -9979   -10039   -10068   -10100   -10129   -10125 
  -10108   -10088   -10018    -9954    -9973    -9957    -9861    -9772 
   -9694    -9568    -9420    -9320    -9267    -9212    -9111    -8977 
   -8885    -8865    -8895    -8924    -8930    -8907    -8870    -8877 
   -8932    -8969    -8976    -8996    -9018    -9000    -8978    -8996 
   -9043    -9081    -9080    -9088    -9140    -9200    -9246    -9302 
   -9364    -9370    -9342    -9356    -9394    -9408    -9389    -9373 
   -9362    -9309    -9267    -9271    -9269    -9234    -9161    -9088 
   -9027    -8966    -8904    -8826    -8749    -8679    -8613    -8576 
   -8530    -8472    -8452    -8468    -8476    -8436    -8418    -8482 
   -8568    -8629    -8653    -8689    -8734    -8756    -8793    -8811 
   -8800    -8820    -8851    -8853    -8811    -8770    -8750    -8710 
   -8672    -8642    -8618    -8611    -8614    -8637    -8691    -8750 
   -8775    -8807    -8888    -8964    -9024    -9076    -9093    -9124 
   -9166    -9150    -9113    -9096    -9054    -8999    -8970    -8959 
   -8930    -8883    -8838    -8780    -8707    -8642    -8600    -8583 
   -8580    -8560    -8522    -8495    -8499    -8541    -8588    -8606 
   -8604    -8608    -8629    -8650    -8660    -8681    -8707    -8694 
   -8665    -8665    -8700    -8754    -8796    -8834    -8885    -8953 
   -9042    -9136    -9198    -9221    -9232    -9252    -9296    -9343 
   -9352    -9336    -9336    -9356    -9397    -9440    -9471    -9508 
   -9547    -9570    -9574    -9602    -9661    -9699    -9691    -9657 
   -9648    -9679    -9711    -9706    -9678    -9660    -9666    -9684 
   -9706    -9729    -9759    -9798    -9828    -9842    -9865    -9899 
   -9919    -9903    -9898    -9944    -9977    -9968    -9967    -9990 
   -9985    -9963    -9976    -9996    -9990    -9977    -9956    -9930 
   -9914    -9891    -9856    -9834    -9832    -9829    -9803    -9751 
   -9675    -9602    -9562    -9509    -9405    -9282    -9171    -9053 
   -8904    -8750    -8613    -8488    -8370    -8262    -8143    -8012 
   -7912    -7823    -7719    -7639    -7582    -7528    -7488    -7514 
   -7576    -7595    -7608    -7674    -7753    -7804    -7852    -7928 
   -8000    -8046    -8082    -8127    -8175    -8228    -8290    -8340 
   -8380    -8430    -8475    -8503    -8519    -8546    -8595    -8614 
   -8607    -8619    -8640    -8660    -8688    -8695    -8699    -8753 
   -8808    -8842    -8895    -8962    -9030    -9099    -9167    -9243 
   -9321    -9400    -9462    -9525    -9598    -9655    -9698    -9736 
   -9771    -9807    -9833    -9860    -9904    -9957    -9990   -10018 
  -10077   -10110   -10120   -10158   -10172   -10149   -10120   -10098 
  -10076   -10042   -10022   -10007    -9976    -9954    -9938    -9931 
   -9931    -9906    -9882    -9877    -9861    -9829    -9801    -9778 
   -9764    -9759    -9753    -9751    -9734    -9698    -9694    -9682 
   -9628    -9585    -9529    -9447    -9356    -9251    -9153    -9036 
   -8900    -8784    -8668    -8563    -8452    -8317    -8212    -8135 
   -8055    -7974    -7884    -7801    -7717    -7612    -7523    -7474 
   -7434    -7379    -7338    -7334    -7349    -7366    -7380    -7419 
   -7495    -7589    -7701    -7796    -7869    -7959    -8062    -8162 
   -8272    -8397    -8505    -8587    -8676    -8750    -8802    -8851 
   -8874    -8885    -8896    -8887    -8849    -8789    -8742    -8710 
   -8685    -8664    -8645    -8667    -8692    -8696    -8739    -8788 
   -8822    -8874    -8916    -8972    -9031    -9058    -9120    -9224 
   -9327    -9431    -9540    -9655    -9759    -9863    -9973   -10052 
  -10122   -10189   -10223   -10253   -10278   -10312   -10370   -10431 
  -10512   -10581   -10612   -10647   -10660   -10682   -10752   -10813 
  -10812   -10723   -10617   -10571   -10501   -10400   -10358   -10341 
  -10245   -10072    -9894    -9720    -9548    -9401    -9266    -9153 
   -9077    -9012    -8920    -8777    -8633    -8537    -8449    -8359 
   -8313    -8329    -8330    -8280    -8248    -8270    -8320    -8360 
   -8364    -8365    -8374    -8364    -8348    -8316    -8274    -8248 
   -8230    -8212    -8185    -8155    -8127    -8085    -8058    -8043 
   -7994    -7925    -7878    -7861    -7842    -7817    -7815    -7827 
   -7842    -7867    -7897    -7920    -7929    -7936    -7946    -7946 
   -7952    -7979    -7989    -7990    -8010    -8047    -8102    -8160 
   -8212    -8303    -8434    -8573    -8729    -8874    -9009    -9155 
   -9279    -9385    -9505    -9625    -9733    -9826    -9925   -10044 
  -10149   -10250   -10355   -10458   -10562   -10642   -10698   -10756 
  -10810   -10866   -10891   -10913   -10956   -10963   -10962   -10984 
  -10983   -10986   -10989   -10962   -10945   -10918   -10870   -10831 
  -10782   -10733   -10696   -10624   -10517   -10436   -10373   -10287 
  -10200   -10122   -10053    -9995    -9909    -9815    -9729    -9616 
   -9490    -9362    -9223    -9086    -8942    -8784    -8625    -8469 
   -8330    -8191    -8039    -7882    -7750    -7638    -7515    -7403 
   -7300    -7186    -7086    -6994    -6910    -6844    -6783    -6743 
   -6714    -6704    -6720    -6728    -6733    -6779    -6860    -6918 
   -6951    -7003    -7068    -7161    -7291    -7410    -7531    -7681 
   -7846    -8012    -8158    -8301    -8440    -8552    -8656    -8750 
   -8831    -8900    -8970    -9069    -9165    -9252    -9344    -9416 
   -9505    -9630    -9736    -9811    -9891    -9991   -10069   -10115 
  -10161   -10211   -10265   -10311   -10338   -10366   -10397   -10426 
  -10446   -10453   -10426   -10373   -10334   -10281   -10223   -10181 
  -10108   -10022    -9952    -9891    -9846    -9796    -9751    -9720 
   -9678    -9636    -9582    -9521    -9478    -9424    -9366    -9328 
   -9288    -9246    -9220    -9175    -9101    -9050    -8995    -8904 
   -8829    -8749    -8642    -8542    -8460    -8388    -8320    -8252 
   -8181    -8102    -8037    -7971    -7886    -7805    -7740    -7708 
   -7680    -7634    -7616    -7641    -7676    -7709    -7759    -7830 
   -7900    -7992    -8105    -8217    -8336    -8460    -8584    -8703 
   -8827    -8954    -9058    -9161    -9283    -9390    -9460    -9502 
   -9539    -9578    -9603    -9626    -9643    -9645    -9668    -9691 
   -9687    -9671    -9676    -9693    -9687    -9680    -9684    -9675 
   -9648    -9632    -9643    -9644    -9647    -9682    -9707    -9747 
   -9802    -9807    -9792    -9799    -9828    -9856    -9865    -9886 
   -9921    -9958    -9995   -10004   -10023   -10071   -10103   -10114 
  -10120   -10127   -10135   -10153   -10183   -10210   -10227   -10234 
  -10242   -10249   -10255   -10268   -10247   -10192   -10150   -10103 
  -10012    -9902    -9805    -9693    -9564    -9459    -9346    -9229 
   -9150    -9072    -8997    -8951    -8896    -8823    -8741    -8656 
   -8576    -8482    -8364    -8259    -8181    -8110    -8046    -7992 
   -7927    -7869    -7835    -7780    -7717    -7711    -7743    -7773 
   -7805    -7847    -7869    -7882    -7916    -7948    -7967    -7990 
   -8016    -8039    -8073    -8122    -8159    -8174    -8182    -8194 
   -8205    -8191    -8176    -8181    -8186    -8208    -8245    -8284 
   -8337    -8395    -8445    -8495    -8552    -8618    -8679    -8730 
   -8800    -8893    -8978    -9047    -9127    -9209    -9279    -9363 
   -9441    -9509    -9594    -9667    -9729    -9806    -9888    -9961 
  -10011   -10072   -10152   -10199   -10211   -10206   -10185   -10164 
  -10123   -10061    -9994    -9922    -9864    -9790    -9683    -9589 
   -9512    -9429    -9343    -9250    -9148    -9047    -8943    -8838 
   -8734    -8618    -8498    -8386    -8272    -8172    -8079    -7985 
   -7904    -7839    -7789    -7736    -7689    -7682    -7690    -7688 
   -7678    -7677    -7722    -7796    -7861    -7915    -7982    -8078 
   -8187    -8293    -8397    -8499    -8614    -8725    -8815    -8910 
   -9001    -9099    -9213    -9325    -9427    -9516    -9614    -9721 
   -9818    -9919   -10015   -10096   -10173   -10258   -10351   -10428 
  -10505   -10593   -10663   -10717   -10751   -10768   -10793   -10817 
  -10828   -10817   -10795   -10775   -10746   -10710   -10674   -10617 
  -10546   -10458   -10366   -10281   -10180   -10065    -9937    -9803 
   -9674    -9529    -9393    -9258    -9116    -8997    -8865    -8719 
   -8594    -8482    -8376    -8280    -8199    -8125    -8060    -7994 
   -7919    -7873    -7831    -7767    -7720    -7677    -7653    -7641 
   -7618    -7604    -7595    -7608    -7631    -7634    -7662    -7701 
   -7734    -7777    -7813    -7870    -7932    -7979    -8051    -8129 
   -8212    -8294    -8361    -8433    -8503    -8571    -8608    -8622 
   -8662    -8707    -8754    -8804    -8837    -8891    -8959    -9024 
   -9081    -9117    -9178    -9242    -9285    -9354    -9427    -9494 
   -9560    -9610    -9667    -9721    -9771    -9840    -9899    -9961 
  -10037   -10104   -10169   -10234   -10308   -10396   -10463   -10516 
  -10588   -10660   -10719   -10773   -10818   -10856   -10886   -10889 
  -10866   -10839   -10785   -10687   -10581   -10465   -10330   -10204 
  -10068    -9915    -9774    -9629    -9478    -9317    -9153    -9007 
   -8845    -8673    -8533    -8375    -8199    -8044    -7913    -7797 
   -7673    -7555    -7447    -7341    -7283    -7256    -7230    -7210 
   -7180    -7175    -7187    -7180    -7204    -7252    -7285    -7338 
   -7399    -7469    -7568    -7651    -7749    -7877    -7978    -8056 
   -8140    -8233    -8344    -8436    -8507    -8584    -8649    -8723 
   -8818    -8895    -8966    -9050    -9131    -9198    -9263    -9355 
   -9459    -9541    -9637    -9738    -9821    -9917   -10011   -10103 
  -10222   -10319   -10392   -10480   -10554   -10608   -10659   -10681 
  -10694   -10716   -10724   -10729   -10724   -10704   -10701   -10681 
  -10627   -10594   -10548   -10463   -10380   -10278   -10170   -10080 
   -9975    -9876    -9790    -9690    -9598    -9518    -9425    -9337 
   -9243    -9117    -9001    -8907    -8816    -8734    -8646    -8557 
   -8507    -8471    -8438    -8426    -8419    -8426    -8441    -8438 
   -8429    -8417    -8407    -8401    -8386    -8386    -8409    -8407 
   -8376    -8355    -8338    -8293    -8220    -8149    -8094    -8031 
   -7956    -7913    -7897    -7871    -7857    -7871    -7894    -7924 
   -7962    -7996    -8037    -8104    -8195    -8289    -8363    -8446 
   -8561    -8667    -8758    -8868    -8974    -9080    -9200    -9302 
   -9396    -9506    -9602    -9687    -9788    -9892    -9988   -10083 
  -10152   -10210   -10282   -10338   -10365   -10397   -10432   -10470 
  -10486   -10476   -10481   -10482   -10458   -10440   -10436   -10427 
  -10412   -10396   -10372   -10351   -10331   -10296   -10249   -10193 
  -10133   -10060    -9977    -9906    -9842    -9774    -9695    -9603 
   -9533    -9489    -9410    -9304    -9215    -9134    -9051    -8992 
   -8961    -8919    -8854    -8799    -8743    -8668    -8594    -8515 
   -8418    -8316    -8220    -8116    -7992    -7879    -7796    -7708 
   -7616    -7543    -7468    -7400    -7356    -7304    -7253    -7223 
   -7187    -7144    -7122    -7113    -7107    -7113    -7113    -7118 
   -7146    -7204    -7276    -7331    -7389    -7480    -7576    -7662 
   -7759    -7874    -7987    -8095    -8209    -8317    -8422    -8545 
   -8672    -8783    -8912    -9076    -9216    -9342    -9505    -9656 
   -9753    -9846    -9949   -10048   -10146   -10246   -10341   -10435 
  -10559   -10698   -10790   -10858   -10947   -11041   -11125   -11191 
  -11230   -11254   -11265   -11272   -11286   -11275   -11222   -11142 
  -11061   -10999   -10935   -10828   -10690   -10569   -10444   -10292 
  -10139    -9987    -9825    -9678    -9547    -9408    -9266    -9147 
   -9035    -8918    -8810    -8704    -8592    -8473    -8360    -8262 
   -8163    -8060    -7973    -7885    -7803    -7754    -7709    -7638 
   -7574    -7554    -7530    -7465    -7414    -7407    -7393    -7371 
   -7380    -7392    -7408    -7457    -7512    -7564    -7630    -7709 
   -7778    -7846    -7944    -8031    -8079    -8137    -8222    -8313 
   -8398    -8483    -8567    -8645    -8749    -8868    -8957    -9043 
   -9146    -9231    -9309    -9394    -9475    -9553    -9622    -9688 
   -9756    -9826    -9891    -9933    -9973   -10027   -10062   -10083 
  -10115   -10158   -10191   -10197   -10200   -10199   -10183   -10173 
  -10152   -10092   -10042    -9996    -9904    -9806    -9726    -9637 
   -9537    -9431    -9348    -9285    -9207    -9135    -9067    -8999 
   -8958    -8910    -8843    -8785    -8725    -8667    -8604    -8542 
   -8506    -8471    -8429    -8398    -8376    -8353    -8318    -8290 
   -8272    -8259    -8252    -8229    -8205    -8202    -8209    -8222 
   -8220    -8209    -8228    -8252    -8272    -8294    -8303    -8332 
   -8383    -8424    -8455    -8487    -8529    -8577    -8630    -8675 
   -8691    -8712    -8765    -8820    -8870    -8924    -8982    -9049 
   -9120    -9208    -9296    -9375    -9475    -9576    -9667    -9753 
   -9826    -9917   -10022   -10103   -10169   -10223   -10280   -10349 
  -10396   -10420   -10450   -10471   -10470   -10451   -10435   -10415 
  -10373   -10324   -10278   -10241   -10201   -10131   -10053    -9998 
   -9946    -9876    -9790    -9705    -9628    -9537    -9437    -9347 
