Origin Time       2025/01/13 21:19:00
Lat.              31.8
Long.             131.6
Depth. (km)       30
Mag.              6.9
Station Code      TKS004
Station Lat.      33.7750
Station Long.     134.5907
Station Height(m) 3
Record Time       2025/01/13 21:21:00
Sampling Freq(Hz) 100Hz
Duration Time(s)  60
Dir.              N-S
Scale Factor      7845(gal)/8223790
Max. Acc. (gal)   1.962
Last Correction   2025/01/13 21:20:59
Memo.             
[...]
   -1587    -1620    -1674    -1571    -1444    -1480    -1548    -1498 
   -1459    -1545    -1601    -1590    -1663    -1663    -1491    -1406 
   -1483    -1560    -1560    -1544    -1614    -1694    -1705    -1741 
   -1730    -1620    -1553    -1534    -1526    -1556    -1593    -1607 
   -1571    -1482    -1437    -1417    -1362    -1379    -1463    -1489 
   -1478    -1476    -1516    -1533    -1449    -1379    -1398    -1422 
   -1412    -1397    -1476    -1661    -1799    -1838    -1804    -1678 
   -1548    -1483    -1453    -1456    -1456    -1462    -1512    -1539 
   -1522    -1517    -1530    -1532    -1482    -1417    -1422    -1433 
   -1443    -1513    -1514    -1447    -1475    -1551    -1579    -1584 
   -1587    -1567    -1530    -1533    -1537    -1443    -1351    -1414 
   -1555    -1632    -1611    -1594    -1688    -1791    -1790    -1777 
   -1776    -1756    -1717    -1613    -1486    -1385    -1300    -1301 
   -1341    -1312    -1277    -1267    -1285    -1328    -1308    -1312 
   -1459    -1621    -1733    -1799    -1804    -1842    -1887    -1842 
   -1769    -1714    -1711    -1728    -1637    -1560    -1539    -1437 
   -1375    -1393    -1401    -1401    -1359    -1372    -1494    -1503 
   -1401    -1348    -1390    -1526    -1611    -1598    -1656    -1756 
   -1764    -1687    -1586    -1543    -1556    -1559    -1549    -1513 
   -1451    -1444    -1435    -1398    -1406    -1397    -1386    -1418 
   -1425    -1431    -1424    -1463    -1645    -1772    -1782    -1814 
   -1814    -1809    -1802    -1691    -1583    -1517    -1441    -1428 
   -1463    -1516    -1570    -1521    -1443    -1431    -1393    -1333 
   -1333    -1370    -1391    -1398    -1509    -1713    -1740    -1629 
   -1606    -1561    -1501    -1528    -1513    -1476    -1482    -1495 
   -1549    -1566    -1549    -1603    -1637    -1625    -1594    -1507 
   -1478    -1525    -1512    -1489    -1506    -1516    -1540    -1528 
   -1480    -1489    -1474    -1462    -1543    -1574    -1555    -1587 
   -1595    -1633    -1678    -1617    -1595    -1611    -1582    -1586 
   -1578    -1572    -1586    -1518    -1499    -1568    -1539    -1448 
   -1408    -1449    -1548    -1587    -1572    -1586    -1591    -1563 
   -1530    -1525    -1555    -1556    -1532    -1559    -1610    -1609 
   -1590    -1595    -1613    -1594    -1499    -1455    -1503    -1487 
   -1426    -1414    -1429    -1433    -1393    -1375    -1404    -1420 
   -1433    -1429    -1428    -1474    -1490    -1518    -1644    -1711 
   -1675    -1690    -1760    -1807    -1842    -1837    -1768    -1680 
   -1655    -1674    -1594    -1470    -1455    -1455    -1408    -1377 
   -1367    -1387    -1417    -1440    -1493    -1518    -1498    -1510 
   -1579    -1644    -1588    -1466    -1458    -1526    -1557    -1539 
   -1467    -1401    -1401    -1432    -1445    -1441    -1494    -1586 
   -1599    -1570    -1587    -1613    -1591    -1541    -1509    -1520 
   -1557    -1595    -1634    -1637    -1610    -1586    -1534    -1537 
   -1615    -1602    -1532    -1566    -1648    -1687    -1683    -1659 
   -1663    -1661    -1606    -1561    -1510    -1416    -1402    -1468 
   -1485    -1467    -1499    -1580    -1622    -1579    -1532    -1507 
   -1472    -1424    -1382    -1408    -1459    -1462    -1485    -1513 
   -1502    -1532    -1593    -1621    -1613    -1578    -1597    -1645 
   -1659    -1668    -1622    -1564    -1594    -1564    -1432    -1355 
   -1343    -1350    -1358    -1368    -1460    -1555    -1601    -1665 
   -1656    -1570    -1553    -1578    -1606    -1624    -1602    -1601 
   -1584    -1545    -1570    -1579    -1505    -1421    -1343    -1305 
   -1344    -1374    -1394    -1471    -1582    -1625    -1566    -1541 
   -1578    -1563    -1516    -1493    -1506    -1533    -1545    -1553 
   -1568    -1597    -1634    -1628    -1601    -1615    -1613    -1574 
   -1545    -1536    -1587    -1636    -1583    -1553    -1599    -1591 
   -1530    -1510    -1510    -1489    -1485    -1512    -1520    -1494 
   -1490    -1520    -1528    -1525    -1525    -1486    -1458    -1499 
   -1540    -1543    -1516    -1510    -1555    -1564    -1579    -1640 
   -1645    -1595    -1545    -1532    -1544    -1489    -1412    -1404 
   -1387    -1366    -1395    -1436    -1543    -1701    -1761    -1740 
   -1676    -1564    -1491    -1490    -1534    -1568    -1539    -1552 
   -1629    -1599    -1512    -1464    -1449    -1509    -1586    -1615 
   -1625    -1611    -1629    -1676    -1637    -1584    -1622    -1665 
   -1668    -1598    -1440    -1301    -1233    -1285    -1379    -1343 
   -1298    -1364    -1452    -1537    -1541    -1453    -1498    -1680 
   -1765    -1767    -1767    -1713    -1676    -1692    -1652    -1591 
   -1586    -1583    -1620    -1675    -1578    -1467    -1490    -1453 
   -1436    -1555    -1530    -1426    -1489    -1514    -1449    -1424 
   -1417    -1483    -1563    -1533    -1528    -1582    -1579    -1529 
   -1459    -1372    -1316    -1298    -1356    -1449    -1458    -1426 
   -1437    -1475    -1536    -1559    -1537    -1570    -1634    -1696 
   -1741    -1719    -1728    -1768    -1755    -1799    -1830    -1709 
   -1624    -1633    -1602    -1553    -1503    -1447    -1451    -1495 
   -1533    -1545    -1541    -1580    -1563    -1412    -1289    -1221 
   -1193    -1254    -1278    -1248    -1251    -1289    -1408    -1479 
   -1413    -1435    -1559    -1617    -1649    -1674    -1671    -1674 
   -1682    -1742    -1780    -1728    -1725    -1773    -1760    -1696 
   -1610    -1601    -1680    -1683    -1655    -1647    -1553    -1497 
   -1525    -1468    -1375    -1344    -1362    -1425    -1437    -1395 
   -1420    -1433    -1375    -1336    -1367    -1439    -1498    -1556 
   -1606    -1611    -1633    -1637    -1547    -1487    -1498    -1529 
   -1620    -1649    -1576    -1572    -1587    -1548    -1530    -1455 
   -1345    -1379    -1490    -1556    -1548    -1463    -1420    -1490 
   -1593    -1655    -1636    -1602    -1617    -1599    -1548    -1487 
   -1440    -1509    -1613    -1665    -1729    -1711    -1595    -1529 
   -1510    -1502    -1475    -1451    -1534    -1597    -1495    -1429 
   -1516    -1593    -1576    -1521    -1467    -1416    -1405    -1470 
   -1539    -1534    -1532    -1593    -1665    -1705    -1679    -1615 
   -1591    -1614    -1679    -1737    -1671    -1555    -1547    -1567 
   -1514    -1462    -1451    -1414    -1368    -1397    -1425    -1381 
   -1409    -1516    -1540    -1507    -1476    -1453    -1441    -1422 
   -1490    -1621    -1621    -1572    -1652    -1706    -1595    -1472 
   -1449    -1428    -1351    -1309    -1345    -1387    -1436    -1510 
   -1557    -1594    -1598    -1556    -1574    -1655    -1719    -1710 
   -1613    -1586    -1668    -1661    -1566    -1524    -1543    -1588 
   -1605    -1567    -1555    -1568    -1563    -1528    -1464    -1445 
   -1493    -1490    -1421    -1393    -1433    -1490    -1530    -1621 
   -1715    -1676    -1615    -1638    -1620    -1520    -1436    -1417 
   -1443    -1466    -1452    -1402    -1348    -1341    -1381    -1386 
   -1363    -1379    -1460    -1560    -1534    -1398    -1364    -1467 
   -1575    -1655    -1709    -1755    -1800    -1792    -1729    -1645 
   -1588    -1578    -1549    -1530    -1521    -1455    -1418    -1462 
   -1486    -1466    -1462    -1524    -1609    -1609    -1568    -1578 
   -1607    -1613    -1579    -1559    -1617    -1688    -1734    -1744 
   -1645    -1540    -1549    -1545    -1476    -1429    -1414    -1433 
   -1406    -1325    -1304    -1278    -1273    -1406    -1520    -1534 
   -1586    -1636    -1575    -1474    -1464    -1534    -1559    -1557 
   -1624    -1680    -1661    -1630    -1593    -1559    -1594    -1647 
   -1615    -1502    -1426    -1455    -1453    -1382    -1409    -1460 
   -1428    -1414    -1382    -1331    -1310    -1259    -1274    -1372 
   -1460    -1580    -1678    -1684    -1649    -1571    -1524    -1536 
   -1513    -1530    -1570    -1470    -1375    -1402    -1478    -1539 
   -1494    -1408    -1397    -1418    -1468    -1485    -1405    -1366 
   -1408    -1471    -1563    -1587    -1509    -1436    -1410    -1435 
   -1476    -1509    -1560    -1628    -1684    -1698    -1613    -1486 
   -1414    -1364    -1323    -1320    -1343    -1402    -1459    -1499 
   -1552    -1534    -1510    -1606    -1714    -1780    -1750    -1570 
   -1464    -1452    -1356    -1258    -1194    -1186    -1273    -1339 
   -1358    -1318    -1228    -1270    -1383    -1401    -1471    -1609 
   -1668    -1728    -1830    -1875    -1813    -1740    -1741    -1744 
   -1705    -1680    -1660    -1630    -1628    -1629    -1609    -1561 
   -1458    -1426    -1516    -1506    -1418    -1412    -1448    -1482 
   -1483    -1459    -1451    -1412    -1420    -1498    -1451    -1364 
   -1397    -1425    -1468    -1582    -1664    -1740    -1813    -1846 
   -1865    -1827    -1771    -1741    -1691    -1679    -1668    -1578 
   -1534    -1520    -1470    -1458    -1435    -1375    -1310    -1231 
   -1231    -1282    -1300    -1379    -1491    -1590    -1755    -1860 
   -1837    -1814    -1806    -1810    -1822    -1790    -1776    -1740 
   -1617    -1526    -1462    -1399    -1409    -1390    -1341    -1347 
   -1305    -1252    -1298    -1397    -1512    -1588    -1668    -1806 
   -1857    -1823    -1799    -1703    -1591    -1555    -1549    -1594 
   -1648    -1617    -1506    -1333    -1204    -1198    -1229    -1281 
   -1332    -1355    -1429    -1472    -1404    -1374    -1425    -1532 
   -1696    -1836    -1931    -2012    -2076    -2130    -2061    -1864 
   -1777    -1782    -1750    -1744    -1756    -1761    -1757    -1664 
   -1551    -1486    -1383    -1300    -1298    -1304    -1271    -1166 
   -1048    -1028    -1048    -1113    -1260    -1377    -1435    -1485 
   -1530    -1588    -1651    -1741    -1917    -2058    -2093    -2058 
   -1938    -1783    -1606    -1416    -1356    -1351    -1305    -1323 
   -1301    -1156    -1007     -889     -839     -837     -846     -945 
   -1088    -1188    -1274    -1367    -1491    -1660    -1814    -1911 
   -1996    -2106    -2178    -2199    -2191    -2112    -1960    -1806 
   -1691    -1601    -1533    -1435    -1264    -1128    -1075    -1034 
    -967     -900     -841     -812     -854     -989    -1201    -1453 
   -1736    -2015    -2214    -2265    -2166    -2037    -1999    -1979 
   -1876    -1775    -1768    -1806    -1803    -1714    -1578    -1471 
   -1382    -1344    -1391    -1399    -1339    -1337    -1390    -1420 
   -1448    -1487    -1483    -1476    -1547    -1630    -1651    -1653 
   -1699    -1734    -1741    -1772    -1787    -1791    -1872    -1980 
   -1975    -1825    -1641    -1479    -1285    -1098    -1003     -950 
    -889     -837     -849     -969    -1119    -1236    -1435    -1701 
   -1865    -1973    -2126    -2204    -2118    -1991    -1857    -1638 
   -1458    -1409    -1383    -1344    -1350    -1408    -1435    -1418 
   -1464    -1545    -1590    -1644    -1687    -1709    -1737    -1729 
   -1696    -1640    -1547    -1497    -1467    -1364    -1219    -1105 
   -1047    -1096    -1271    -1471    -1624    -1737    -1868    -2041 
   -2120    -2057    -1975    -1934    -1892    -1809    -1744    -1759 
   -1733    -1561    -1337    -1179    -1061     -972     -996    -1140 
   -1329    -1509    -1684    -1809    -1830    -1867    -1954    -1980 
   -2008    -2120    -2214    -2218    -2141    -2007    -1836    -1634 
   -1414    -1174     -976     -862     -743     -675     -770     -922 
   -1092    -1310    -1448    -1518    -1633    -1736    -1811    -1881 
   -1930    -1980    -1979    -1883    -1740    -1517    -1233     -974 
    -737     -589     -594     -665     -801    -1062    -1387    -1706 
   -2018    -2323    -2523    -2520    -2398    -2236    -2056    -1930 
   -1838    -1728    -1659    -1626    -1580    -1456    -1166     -843 
    -710     -774     -959    -1156    -1309    -1480    -1684    -1860 
   -1895    -1710    -1464    -1350    -1333    -1300    -1182    -1050 
   -1073    -1236    -1425    -1684    -1998    -2273    -2484    -2574 
   -2548    -2421    -2166    -1930    -1772    -1563    -1323    -1077 
    -792     -518     -282     -202     -395     -747    -1150    -1556 
   -1898    -2235    -2540    -2656    -2641    -2569    -2416    -2196 
   -1884    -1534    -1242     -999     -899     -976    -1102    -1208 
   -1233    -1213    -1277    -1421    -1638    -1908    -2099    -2168 
   -2091    -1827    -1547    -1345    -1186    -1201    -1378    -1503 
   -1503    -1351    -1135    -1028     -972     -972    -1197    -1551 
   -1826    -1960    -1975    -1944    -1840    -1629    -1436    -1316 
   -1198    -1034     -880     -876     -957    -1024    -1208    -1502 
   -1756    -1969    -2099    -2141    -2118    -1918    -1633    -1474 
   -1416    -1375    -1282    -1132    -1050    -1030    -1001    -1008 
   -1070    -1201    -1363    -1480    -1568    -1591    -1521    -1466 
   -1428    -1363    -1363    -1467    -1642    -1815    -1833    -1752 
   -1692    -1678    -1830    -2118    -2378    -2586    -2651    -2550 
   -2424    -2266    -2052    -1772    -1393    -1028     -777     -626 
    -556     -481     -390     -311     -232     -260     -442     -662 
    -923    -1217    -1498    -1846    -2300    -2759    -3150    -3439 
   -3585    -3591    -3497    -3287    -2897    -2405    -1941    -1493 
   -1020     -535      -36      346      411      195      -82     -311 
    -537     -838    -1219    -1655    -2104    -2436    -2651    -2835 
   -2901    -2782    -2489    -2057    -1707    -1580    -1545    -1537 
   -1526    -1409    -1263    -1190    -1152    -1121    -1066    -1003 
   -1016    -1093    -1175    -1237    -1318    -1460    -1533    -1476 
   -1410    -1364    -1293    -1232    -1290    -1536    -1830    -2022 
   -2174    -2255    -2089    -1782    -1536    -1364    -1250    -1215 
   -1318    -1516    -1638    -1711    -1782    -1755    -1617    -1375 
   -1080     -876     -799     -881    -1162    -1499    -1729    -1848 
   -1896    -1831    -1668    -1557    -1603    -1723    -1814    -1844 
   -1771    -1610    -1414    -1254    -1275    -1466    -1647    -1810 
   -2003    -2150    -2161    -2061    -1953    -1791    -1502    -1228 
   -1040     -945    -1051    -1287    -1433    -1474    -1507    -1518 
   -1436    -1314    -1279    -1273    -1220    -1244    -1378    -1571 
   -1763    -1823    -1752    -1663    -1632    -1733    -1954    -2219 
   -2450    -2529    -2442    -2230    -1849    -1335     -864     -568 
    -495     -629     -918    -1248    -1464    -1566    -1628    -1601 
   -1514    -1410    -1282    -1262    -1359    -1503    -1748    -2014 
   -2187    -2289    -2347    -2376    -2362    -2281    -2155    -2012 
   -1803    -1537    -1237     -895     -589     -388     -356     -507 
    -685     -803     -888     -905     -895     -908     -926    -1023 
   -1269    -1601    -1867    -1930    -1933    -1999    -2050    -2101 
   -2149    -2174    -2180    -2079    -1946    -1930    -1987    -2069 
   -2181    -2215    -2087    -1836    -1533    -1267    -1055     -873 
    -765     -702     -638     -591     -511     -410     -349     -363 
    -534     -839    -1170    -1530    -1925    -2350    -2785    -3106 
   -3229    -3142    -2897    -2670    -2560    -2490    -2371    -2147 
   -1863    -1579    -1140     -606     -255      -98      -44      -75 
    -213     -484     -766     -994    -1262    -1529    -1725    -1877 
   -1927    -1899    -1890    -1829    -1775    -1840    -1921    -1961 
   -1977    -1958    -1934    -1858    -1701    -1559    -1516    -1609 
   -1757    -1806    -1786    -1647    -1304     -912     -517     -160 
     -37     -147     -413     -766    -1059    -1282    -1503    -1759 
   -2095    -2448    -2774    -3055    -3132    -3024    -2833    -2486 
   -2076    -1752    -1518    -1408    -1337    -1188     -984     -731 
    -453     -206        6       87      -40     -257     -481     -726 
   -1027    -1428    -1837    -2224    -2587    -2770    -2798    -2837 
   -2852    -2775    -2633    -2469    -2342    -2224    -2081    -1965 
   -1841    -1683    -1483    -1165     -816     -537     -305     -283 
    -535     -835    -1069    -1197    -1217    -1264    -1327    -1356 
   -1432    -1534    -1617    -1663    -1706    -1852    -2049    -2201 
   -2343    -2421    -2374    -2243    -2066    -1921    -1833    -1749 
   -1706    -1686    -1613    -1507    -1300     -930     -531     -201 
     -10       17      -39     -203     -469     -762    -1116    -1530 
   -1914    -2188    -2322    -2405    -2539    -2617    -2525    -2303 
   -2054    -1877    -1755    -1676    -1728    -1880    -2037    -2149 
   -2197    -2177    -1961    -1510    -1070     -742     -511     -526 
    -737     -967    -1170    -1232    -1177    -1090     -889     -660 
    -602     -741    -1065    -1588    -2189    -2659    -2937    -3022 
   -2876    -2589    -2290    -2018    -1800    -1709    -1717    -1725 
   -1717    -1628    -1386    -1123     -936     -801     -685     -557 
    -572     -820    -1105    -1328    -1536    -1718    -1854    -1914 
   -1919    -1917    -1873    -1802    -1757    -1768    -1848    -1880 
   -1773    -1680    -1684    -1705    -1696    -1624    -1491    -1320 
   -1105    -1020    -1116    -1200    -1279    -1421    -1553    -1686 
   -1826    -1921    -1939    -1903    -1865    -1777    -1551    -1291 
   -1129    -1055    -1086    -1229    -1424    -1563    -1556    -1431 
   -1286    -1170    -1134    -1177    -1219    -1233    -1194    -1066 
    -942     -899     -931    -1012    -1143    -1372    -1617    -1710 
   -1707    -1746    -1845    -2008    -2247    -2508    -2747    -2903 
   -2902    -2708    -2282    -1702    -1117     -621     -243       51 
     190       28     -287     -608     -996    -1375    -1674    -1956 
   -2203    -2363    -2420    -2398    -2389    -2415    -2420    -2362 
   -2245    -2150    -2106    -2006    -1822    -1634    -1440    -1235 
   -1109    -1116    -1206    -1282    -1321    -1351    -1321    -1219 
   -1117    -1034    -1008    -1131    -1377    -1595    -1721    -1829 
   -1891    -1822    -1733    -1729    -1761    -1804    -1883    -2003 
   -2101    -2112    -2050    -1919    -1706    -1452    -1190     -973 
    -873     -853     -865     -945    -1101    -1296    -1449    -1526 
   -1601    -1692    -1753    -1794    -1826    -1840    -1865    -1899 
   -1892    -1842    -1711    -1480    -1236    -1057     -963     -943 
   -1007    -1186    -1417    -1630    -1791    -1869    -1899    -1906 
   -1879    -1841    -1753    -1575    -1421    -1385    -1402    -1426 
   -1467    -1545    -1659    -1709    -1667    -1582    -1451    -1341 
   -1312    -1317    -1379    -1485    -1611    -1777    -1888    -1922 
   -1935    -1861    -1715    -1559    -1371    -1266    -1273    -1262 
   -1271    -1301    -1300    -1352    -1464    -1610    -1738    -1773 
   -1784    -1760    -1721    -1823    -1949    -1969    -1975    -1926 
   -1765    -1561    -1386    -1316    -1324    -1297    -1244    -1188 
   -1178    -1250    -1212    -1111    -1182    -1273    -1227    -1124 
