Origin Time       2025/01/13 21:19:00
Lat.              31.8
Long.             131.6
Depth. (km)       30
Mag.              6.9
Station Code      TKS002
Station Lat.      34.0439
Station Long.     134.5820
Station Height(m) 2
Record Time       2025/01/13 21:21:37
Sampling Freq(Hz) 100Hz
Duration Time(s)  60
Dir.              U-D
Scale Factor      7845(gal)/8223790
Max. Acc. (gal)   1.018
Last Correction   2025/01/13 21:21:36
Memo.             
[...]
   -8064    -8063    -8075    -8117    -8170    -8226    -8329    -8468 
   -8549    -8490    -8351    -8270    -8247    -8222    -8210    -8214 
   -8199    -8144    -8060    -7981    -7933    -7912    -7871    -7804 
   -7771    -7812    -7867    -7862    -7798    -7713    -7645    -7626 
   -7639    -7650    -7635    -7588    -7543    -7551    -7616    -7704 
   -7766    -7766    -7731    -7719    -7753    -7812    -7869    -7908 
   -7928    -7924    -7909    -7916    -7948    -7974    -7977    -7956 
   -7927    -7920    -7947    -7989    -8025    -8051    -8079    -8114 
   -8132    -8160    -8218    -8260    -8268    -8266    -8268    -8256 
   -8216    -8199    -8213    -8205    -8170    -8139    -8127    -8136 
   -8148    -8145    -8151    -8166    -8171    -8170    -8149    -8122 
   -8135    -8159    -8163    -8185    -8235    -8241    -8186    -8147 
   -8166    -8230    -8297    -8310    -8276    -8240    -8208    -8166 
   -8122    -8071    -7986    -7898    -7858    -7854    -7843    -7824 
   -7796    -7727    -7636    -7591    -7607    -7636    -7655    -7661 
   -7646    -7620    -7612    -7632    -7661    -7655    -7624    -7597 
   -7568    -7534    -7528    -7557    -7597    -7623    -7611    -7569 
   -7566    -7631    -7697    -7708    -7701    -7730    -7763    -7780 
   -7813    -7882    -7940    -7943    -7920    -7927    -7985    -8048 
   -8074    -8073    -8056    -8046    -8075    -8131    -8166    -8185 
   -8212    -8237    -8253    -8276    -8302    -8282    -8216    -8174 
   -8164    -8154    -8158    -8187    -8199    -8163    -8101    -8062 
   -8064    -8089    -8104    -8083    -8035    -8008    -8009    -8002 
   -7983    -7974    -7947    -7890    -7839    -7835    -7870    -7886 
   -7857    -7813    -7800    -7838    -7906    -7975    -8024    -8037 
   -8013    -7974    -7974    -8027    -8081    -8098    -8086    -8104 
   -8195    -8303    -8334    -8274    -8172    -8114    -8170    -8283 
   -8333    -8280    -8189    -8108    -8067    -8081    -8108    -8089 
   -8031    -7975    -7947    -7986    -8085    -8133    -8048    -7886 
   -7792    -7865    -8037    -8110    -8002    -7870    -7904    -8060 
   -8154    -8091    -7924    -7774    -7774    -7921    -8081    -8151 
   -8114    -7989    -7858    -7807    -7848    -7944    -7989    -7915 
   -7803    -7782    -7862    -7915    -7835    -7670    -7568    -7618 
   -7747    -7828    -7827    -7773    -7717    -7717    -7771    -7815 
   -7819    -7827    -7866    -7906    -7931    -7948    -7985    -8032 
   -8070    -8121    -8194    -8226    -8191    -8164    -8183    -8233 
   -8311    -8378    -8379    -8333    -8287    -8279    -8311    -8361 
   -8379    -8324    -8225    -8131    -8070    -8029    -7986    -7951 
   -7917    -7866    -7812    -7785    -7801    -7828    -7815    -7754 
   -7709    -7728    -7794    -7847    -7846    -7819    -7839    -7893 
   -7916    -7913    -7948    -8016    -8033    -7979    -7938    -7978 
   -8059    -8094    -8068    -8027    -8008    -8020    -8040    -8051 
   -8048    -8028    -8010    -8019    -8047    -8067    -8066    -8028 
   -7979    -7981    -8039    -8091    -8101    -8078    -8064    -8071 
   -8102    -8163    -8209    -8178    -8089    -8035    -8073    -8141 
   -8143    -8078    -8023    -8006    -8014    -8027    -8019    -8001 
   -8008    -8027    -8031    -8021    -8029    -8047    -8048    -8050 
   -8062    -8075    -8094    -8112    -8124    -8137    -8145    -8140 
   -8105    -8059    -8044    -8063    -8077    -8070    -8048    -8012 
   -7973    -7944    -7919    -7884    -7859    -7886    -7929    -7908 
   -7835    -7807    -7836    -7869    -7867    -7827    -7790    -7803 
   -7844    -7890    -7923    -7913    -7865    -7817    -7796    -7788 
   -7798    -7848    -7870    -7807    -7771    -7830    -7878    -7881 
   -7882    -7877    -7882    -7958    -8051    -8075    -8063    -8060 
   -8071    -8135    -8226    -8245    -8221    -8252    -8306    -8334 
   -8347    -8365    -8395    -8398    -8344    -8302    -8345    -8422 
   -8419    -8318    -8220    -8191    -8210    -8209    -8166    -8112 
   -8073    -8044    -8002    -7920    -7851    -7898    -7981    -7911 
   -7757    -7734    -7827    -7879    -7877    -7879    -7897    -7906 
   -7886    -7862    -7888    -7946    -7992    -8032    -8025    -7969 
   -8021    -8179    -8205    -8106    -8085    -8125    -8133    -8122 
   -8094    -8032    -7989    -7970    -7912    -7825    -7782    -7780 
   -7782    -7761    -7703    -7661    -7676    -7684    -7638    -7574 
   -7537    -7545    -7581    -7614    -7643    -7662    -7663    -7672 
   -7688    -7722    -7809    -7915    -7966    -7963    -7960    -8001 
   -8077    -8135    -8143    -8143    -8176    -8236    -8276    -8284 
   -8275    -8248    -8245    -8282    -8295    -8278    -8257    -8235 
   -8212    -8194    -8187    -8197    -8195    -8141    -8064    -8037 
   -8059    -8081    -8073    -8029    -7950    -7882    -7889    -7936 
   -7960    -7962    -7962    -7959    -7938    -7915    -7928    -7981 
   -8019    -8024    -8048    -8116    -8166    -8181    -8213    -8239 
   -8218    -8202    -8216    -8232    -8233    -8233    -8236    -8212 
   -8160    -8140    -8155    -8154    -8124    -8101    -8074    -8040 
   -8037    -8043    -8028    -8008    -7993    -7985    -7987    -7986 
   -7974    -7970    -7977    -7969    -7952    -7960    -8005    -8070 
   -8102    -8091    -8104    -8151    -8175    -8187    -8216    -8245 
   -8257    -8252    -8222    -8179    -8147    -8122    -8087    -8031 
   -7985    -7955    -7912    -7865    -7838    -7815    -7786    -7750 
   -7723    -7726    -7731    -7708    -7689    -7678    -7653    -7623 
   -7612    -7619    -7641    -7670    -7699    -7711    -7723    -7757 
   -7788    -7789    -7785    -7798    -7834    -7881    -7920    -7950 
   -7978    -7985    -7992    -8021    -8054    -8081    -8104    -8113 
   -8127    -8159    -8176    -8164    -8151    -8137    -8106    -8063 
   -8032    -8027    -8040    -8032    -7987    -7959    -7983    -8028 
   -8059    -8060    -8028    -7997    -8008    -8062    -8117    -8122 
   -8085    -8046    -8033    -8055    -8102    -8140    -8136    -8109 
   -8087    -8087    -8104    -8122    -8136    -8114    -8060    -8040 
   -8075    -8109    -8091    -8027    -7967    -7942    -7929    -7913 
   -7873    -7808    -7755    -7726    -7686    -7645    -7618    -7592 
   -7577    -7584    -7592    -7600    -7609    -7614    -7638    -7697 
   -7767    -7824    -7877    -7935    -7989    -8035    -8098    -8191 
   -8287    -8364    -8424    -8463    -8484    -8487    -8487    -8505 
   -8518    -8527    -8540    -8526    -8499    -8483    -8453    -8403 
   -8355    -8318    -8294    -8255    -8199    -8151    -8105    -8036 
   -7959    -7902    -7857    -7807    -7774    -7766    -7751    -7720 
   -7688    -7655    -7632    -7628    -7634    -7641    -7638    -7634 
   -7642    -7636    -7616    -7627    -7662    -7663    -7647    -7651 
   -7661    -7657    -7651    -7653    -7674    -7699    -7711    -7723 
   -7732    -7736    -7751    -7761    -7757    -7778    -7838    -7900 
   -7944    -7994    -8050    -8083    -8100    -8121    -8167    -8235 
   -8290    -8329    -8368    -8390    -8392    -8395    -8388    -8382 
   -8388    -8384    -8359    -8326    -8294    -8247    -8178    -8113 
   -8055    -8004    -7952    -7881    -7809    -7757    -7692    -7624 
   -7577    -7534    -7491    -7443    -7375    -7304    -7281    -7291 
   -7294    -7295    -7299    -7292    -7291    -7310    -7335    -7379 
   -7442    -7473    -7483    -7539    -7619    -7674    -7731    -7807 
   -7877    -7940    -8012    -8077    -8129    -8186    -8241    -8284 
   -8328    -8375    -8402    -8406    -8414    -8438    -8456    -8448 
   -8425    -8414    -8417    -8390    -8340    -8320    -8329    -8320 
   -8284    -8249    -8233    -8229    -8210    -8190    -8208    -8247 
   -8266    -8249    -8218    -8209    -8224    -8224    -8182    -8158 
   -8187    -8190    -8124    -8064    -8056    -8066    -8041    -8000 
   -7967    -7929    -7889    -7854    -7816    -7797    -7805    -7805 
   -7794    -7796    -7817    -7839    -7851    -7877    -7925    -7971 
   -7996    -8013    -8036    -8051    -8060    -8078    -8105    -8141 
   -8174    -8187    -8198    -8225    -8266    -8293    -8297    -8287 
   -8263    -8226    -8197    -8182    -8189    -8197    -8162    -8095 
   -8040    -7996    -7951    -7929    -7951    -7958    -7886    -7771 
   -7682    -7631    -7601    -7573    -7558    -7589    -7607    -7574 
   -7528    -7470    -7441    -7483    -7546    -7628    -7770    -7901 
   -7939    -7925    -7938    -8010    -8144    -8268    -8348    -8445 
   -8549    -8600    -8621    -8637    -8660    -8702    -8741    -8761 
   -8776    -8779    -8748    -8696    -8671    -8650    -8599    -8554 
   -8523    -8475    -8425    -8370    -8290    -8225    -8179    -8120 
   -8046    -7962    -7885    -7835    -7797    -7743    -7692    -7665 
   -7641    -7595    -7555    -7558    -7570    -7564    -7560    -7570 
   -7593    -7616    -7623    -7624    -7639    -7676    -7713    -7734 
   -7758    -7798    -7820    -7815    -7817    -7828    -7836    -7839 
   -7830    -7817    -7817    -7811    -7790    -7782    -7777    -7750 
   -7712    -7680    -7647    -7622    -7603    -7582    -7572    -7570 
   -7569    -7566    -7573    -7593    -7626    -7658    -7693    -7746 
   -7804    -7840    -7861    -7884    -7927    -7979    -8020    -8059 
   -8113    -8158    -8186    -8206    -8224    -8240    -8259    -8276 
   -8286    -8295    -8297    -8275    -8239    -8208    -8183    -8152 
   -8101    -8051    -8023    -8001    -7971    -7938    -7904    -7881 
   -7871    -7855    -7830    -7817    -7821    -7825    -7821    -7827 
   -7844    -7857    -7857    -7851    -7857    -7888    -7902    -7897 
   -7916    -7946    -7946    -7931    -7919    -7905    -7889    -7862 
   -7831    -7815    -7816    -7813    -7803    -7794    -7796    -7800 
   -7801    -7804    -7811    -7824    -7843    -7852    -7867    -7902 
   -7940    -7967    -7998    -8041    -8083    -8112    -8136    -8186 
   -8251    -8299    -8340    -8380    -8407    -8436    -8461    -8460 
   -8461    -8482    -8490    -8483    -8483    -8488    -8479    -8445 
   -8407    -8382    -8351    -8299    -8239    -8201    -8185    -8170 
   -8152    -8136    -8124    -8120    -8124    -8132    -8143    -8162 
   -8186    -8209    -8232    -8252    -8280    -8305    -8310    -8333 
   -8372    -8384    -8388    -8409    -8413    -8390    -8372    -8364 
   -8352    -8344    -8333    -8309    -8286    -8271    -8248    -8203 
   -8154    -8122    -8098    -8067    -8031    -8004    -7982    -7951 
   -7923    -7904    -7892    -7897    -7901    -7881    -7859    -7859 
   -7859    -7847    -7843    -7850    -7852    -7842    -7824    -7820 
   -7830    -7821    -7790    -7771    -7777    -7771    -7742    -7713 
   -7692    -7673    -7650    -7605    -7561    -7531    -7495    -7452 
   -7411    -7365    -7322    -7294    -7272    -7241    -7213    -7199 
   -7187    -7184    -7200    -7221    -7234    -7263    -7327    -7399 
   -7450    -7508    -7591    -7674    -7740    -7807    -7885    -7963 
   -8044    -8128    -8201    -8264    -8320    -8361    -8391    -8421 
   -8456    -8487    -8499    -8496    -8495    -8483    -8455    -8426 
   -8402    -8387    -8378    -8347    -8310    -8291    -8279    -8259 
   -8235    -8205    -8175    -8163    -8160    -8152    -8149    -8152 
   -8147    -8129    -8125    -8149    -8160    -8139    -8120    -8118 
   -8106    -8091    -8079    -8067    -8058    -8044    -8024    -8020 
   -8024    -8019    -8016    -8019    -8020    -8032    -8047    -8044 
   -8043    -8054    -8056    -8054    -8062    -8064    -8064    -8062 
   -8046    -8025    -8014    -8004    -7975    -7942    -7925    -7915 
   -7890    -7866    -7862    -7866    -7863    -7859    -7873    -7900 
   -7916    -7923    -7936    -7966    -8001    -8027    -8047    -8077 
   -8116    -8144    -8156    -8166    -8171    -8171    -8168    -8155 
   -8140    -8129    -8112    -8087    -8067    -8054    -8035    -8001 
   -7962    -7940    -7931    -7912    -7890    -7877    -7870    -7861 
   -7844    -7824    -7813    -7815    -7815    -7797    -7770    -7762 
   -7758    -7738    -7716    -7697    -7678    -7662    -7645    -7624 
   -7611    -7601    -7595    -7595    -7596    -7592    -7580    -7569 
   -7576    -7603    -7635    -7655    -7669    -7701    -7739    -7759 
   -7785    -7840    -7911    -7973    -8020    -8059    -8102    -8154 
   -8202    -8243    -8280    -8309    -8332    -8361    -8391    -8415 
   -8441    -8471    -8491    -8499    -8513    -8532    -8541    -8542 
   -8545    -8548    -8542    -8536    -8554    -8579    -8563    -8526 
   -8503    -8490    -8471    -8453    -8434    -8406    -8374    -8332 
   -8276    -8220    -8174    -8133    -8089    -8036    -7971    -7898 
   -7821    -7754    -7701    -7662    -7619    -7560    -7499    -7447 
   -7400    -7361    -7329    -7291    -7261    -7242    -7226    -7209 
   -7210    -7233    -7260    -7280    -7304    -7333    -7354    -7375 
   -7412    -7454    -7500    -7551    -7607    -7673    -7740    -7800 
   -7854    -7916    -8008    -8120    -8213    -8291    -8368    -8448 
   -8529    -8599    -8673    -8757    -8837    -8908    -8965    -9007 
   -9024    -9038    -9057    -9055    -9045    -9028    -8986    -8945 
   -8924    -8912    -8899    -8865    -8814    -8758    -8712    -8672 
   -8637    -8611    -8586    -8550    -8511    -8467    -8419    -8383 
   -8353    -8332    -8326    -8321    -8294    -8262    -8235    -8202 
   -8168    -8140    -8106    -8062    -8016    -7962    -7894    -7839 
   -7797    -7747    -7681    -7622    -7581    -7538    -7480    -7427 
   -7377    -7315    -7256    -7207    -7176    -7159    -7134    -7095 
   -7052    -7025    -7028    -7028    -7010    -6993    -6991    -6998 
   -7005    -7022    -7067    -7121    -7167    -7225    -7295    -7344 
   -7377    -7431    -7516    -7607    -7685    -7750    -7809    -7884 
   -7963    -8024    -8071    -8110    -8135    -8164    -8202    -8235 
   -8267    -8302    -8321    -8326    -8334    -8343    -8340    -8334 
   -8334    -8320    -8284    -8249    -8217    -8199    -8201    -8195 
   -8174    -8164    -8179    -8190    -8179    -8176    -8189    -8195 
   -8201    -8206    -8201    -8197    -8190    -8182    -8185    -8185 
   -8172    -8151    -8118    -8097    -8091    -8078    -8051    -8035 
   -8025    -8004    -7967    -7935    -7912    -7889    -7865    -7838 
   -7807    -7773    -7730    -7665    -7608    -7589    -7584    -7573 
   -7574    -7572    -7558    -7553    -7554    -7560    -7595    -7639 
   -7654    -7672    -7722    -7773    -7808    -7842    -7878    -7932 
   -8002    -8060    -8112    -8172    -8228    -8264    -8298    -8338 
   -8388    -8442    -8491    -8530    -8565    -8592    -8598    -8587 
   -8584    -8602    -8621    -8623    -8607    -8596    -8590    -8572 
   -8545    -8519    -8488    -8451    -8397    -8344    -8318    -8289 
   -8224    -8156    -8120    -8091    -8048    -8012    -7989    -7969 
   -7946    -7919    -7886    -7862    -7848    -7824    -7794    -7782 
   -7784    -7782    -7784    -7793    -7800    -7808    -7816    -7817 
   -7830    -7852    -7865    -7863    -7866    -7877    -7898    -7916 
   -7924    -7929    -7936    -7936    -7917    -7896    -7900    -7911 
   -7904    -7894    -7905    -7923    -7931    -7938    -7946    -7952 
   -7962    -7975    -7994    -8029    -8044    -8001    -7936    -7928 
   -7979    -8027    -8051    -8070    -8066    -8046    -8048    -8059 
   -8063    -8079    -8093    -8085    -8087    -8109    -8124    -8122 
   -8116    -8122    -8137    -8131    -8109    -8113    -8133    -8133 
   -8108    -8086    -8063    -8004    -7924    -7893    -7916    -7932 
   -7920    -7882    -7817    -7761    -7735    -7695    -7643    -7634 
   -7642    -7616    -7574    -7554    -7550    -7550    -7560    -7562 
   -7564    -7572    -7573    -7569    -7582    -7623    -7663    -7681 
   -7684    -7692    -7712    -7735    -7753    -7785    -7838    -7879 
   -7892    -7900    -7924    -7955    -7970    -7973    -7979    -8000 
   -8029    -8054    -8063    -8075    -8094    -8109    -8124    -8144 
   -8156    -8162    -8163    -8156    -8140    -8139    -8145    -8148 
   -8147    -8145    -8127    -8090    -8063    -8056    -8066    -8070 
   -8050    -8029    -8029    -8027    -8017    -8008    -7993    -7969 
   -7946    -7936    -7936    -7928    -7919    -7919    -7923    -7927 
   -7929    -7923    -7911    -7909    -7920    -7933    -7943    -7947 
   -7950    -7956    -7965    -7969    -7983    -8001    -7987    -7958 
   -7946    -7959    -7973    -7970    -7963    -7973    -7992    -7987 
   -7973    -7975    -7990    -7994    -7987    -7992    -8010    -8017 
   -8004    -7994    -8006    -8028    -8041    -8050    -8066    -8081 
   -8083    -8098    -8124    -8143    -8156    -8174    -8208    -8251 
   -8282    -8301    -8316    -8328    -8341    -8363    -8383    -8402 
   -8425    -8440    -8429    -8403    -8384    -8383    -8395    -8406 
   -8410    -8406    -8380    -8344    -8328    -8334    -8353    -8357 
   -8320    -8268    -8253    -8257    -8228    -8168    -8121    -8109 
   -8105    -8077    -8013    -7943    -7898    -7865    -7831    -7796 
   -7747    -7693    -7666    -7661    -7635    -7584    -7535    -7499 
   -7479    -7479    -7470    -7443    -7416    -7387    -7350    -7327 
   -7326    -7334    -7331    -7296    -7242    -7213    -7211    -7221 
   -7223    -7218    -7213    -7207    -7200    -7191    -7196    -7249 
   -7327    -7373    -7404    -7456    -7520    -7584    -7654    -7736 
   -7827    -7909    -7967    -8016    -8075    -8141    -8205    -8256 
   -8299    -8337    -8363    -8380    -8397    -8411    -8413    -8406 
   -8398    -8384    -8365    -8340    -8301    -8272    -8259    -8233 
   -8187    -8154    -8135    -8102    -8056    -8024    -8008    -7998 
   -7981    -7948    -7912    -7889    -7885    -7889    -7886    -7881 
   -7873    -7852    -7836    -7840    -7854    -7871    -7877    -7870 
   -7888    -7939    -7977    -7997    -8028    -8059    -8093    -8136 
   -8167    -8186    -8216    -8244    -8247    -8244    -8257    -8268 
   -8260    -8249    -8237    -8214    -8181    -8140    -8108    -8089 
   -8071    -8051    -8029    -8002    -7971    -7924    -7871    -7842 
   -7832    -7827    -7812    -7786    -7784    -7803    -7805    -7796 
   -7801    -7812    -7815    -7813    -7815    -7817    -7815    -7808 
   -7805    -7807    -7809    -7824    -7842    -7843    -7848    -7865 
   -7875    -7885    -7913    -7944    -7954    -7956    -7975    -8009 
   -8037    -8064    -8091    -8114    -8132    -8141    -8147    -8160 
   -8181    -8201    -8214    -8220    -8235    -8257    -8268    -8278 
   -8305    -8333    -8351    -8353    -8347    -8345    -8360    -8374 
   -8368    -8363    -8363    -8352    -8320    -8284    -8256    -8235 
   -8212    -8178    -8148    -8132    -8106    -8064    -8023    -7994 
   -7974    -7938    -7888    -7854    -7831    -7803    -7780    -7763 
