Origin Time       2025/01/13 21:19:00
Lat.              31.8
Long.             131.6
Depth. (km)       30
Mag.              6.9
Station Code      TKS001
Station Lat.      34.2034
Station Long.     134.6096
Station Height(m) 2
Record Time       2025/01/13 21:21:31
Sampling Freq(Hz) 100Hz
Duration Time(s)  60
Dir.              E-W
Scale Factor      7845(gal)/8223790
Max. Acc. (gal)   1.201
Last Correction   2025/01/13 21:21:30
Memo.             
[...]
  -10909   -10878   -10852   -10825   -10795   -10759   -10724   -10689 
  -10656   -10638   -10629   -10631   -10643   -10655   -10659   -10663 
  -10662   -10669   -10700   -10739   -10759   -10756   -10747   -10746 
  -10763   -10797   -10820   -10824   -10825   -10837   -10859   -10871 
  -10866   -10852   -10848   -10863   -10890   -10926   -10968   -10994 
  -11002   -11009   -11016   -11026   -11045   -11060   -11068   -11079 
  -11092   -11101   -11109   -11114   -11118   -11126   -11122   -11102 
  -11080   -11059   -11025   -10986   -10955   -10928   -10905   -10901 
  -10912   -10928   -10945   -10956   -10962   -10968   -10978   -10986 
  -11003   -11026   -11045   -11059   -11056   -11032   -10997   -10963 
  -10936   -10910   -10889   -10868   -10843   -10829   -10839   -10860 
  -10886   -10912   -10926   -10935   -10936   -10926   -10903   -10874 
  -10851   -10831   -10808   -10778   -10740   -10706   -10696   -10698 
  -10708   -10728   -10751   -10768   -10782   -10798   -10817   -10827 
  -10817   -10800   -10775   -10741   -10720   -10725   -10743   -10762 
  -10790   -10825   -10854   -10890   -10943   -10990   -11018   -11030 
  -11022   -10995   -10964   -10951   -10947   -10945   -10952   -10964 
  -10972   -10987   -11013   -11047   -11080   -11119   -11160   -11191 
  -11213   -11238   -11260   -11252   -11211   -11168   -11132   -11109 
  -11119   -11157   -11195   -11214   -11219   -11218   -11205   -11182 
  -11164   -11153   -11137   -11107   -11074   -11041   -11018   -11021 
  -11038   -11052   -11051   -11036   -11009   -10972   -10936   -10910 
  -10895   -10886   -10883   -10886   -10872   -10839   -10797   -10759 
  -10733   -10721   -10709   -10704   -10714   -10737   -10758   -10766 
  -10764   -10755   -10747   -10748   -10767   -10797   -10831   -10868 
  -10903   -10928   -10955   -10993   -11032   -11074   -11111   -11128 
  -11124   -11111   -11098   -11080   -11065   -11068   -11092   -11128 
  -11168   -11199   -11219   -11242   -11273   -11318   -11369   -11402 
  -11406   -11389   -11365   -11345   -11337   -11338   -11337   -11338 
  -11338   -11322   -11299   -11271   -11223   -11157   -11086   -11025 
  -10971   -10921   -10878   -10843   -10810   -10767   -10706   -10643 
  -10581   -10520   -10473   -10444   -10438   -10449   -10473   -10509 
  -10559   -10611   -10654   -10682   -10692   -10689   -10675   -10648 
  -10623   -10616   -10631   -10669   -10727   -10787   -10831   -10855 
  -10871   -10897   -10935   -10974   -11010   -11029   -11029   -11036 
  -11056   -11078   -11094   -11098   -11088   -11063   -11030   -11014 
  -11014   -11021   -11030   -11037   -11040   -11047   -11060   -11067 
  -11060   -11044   -11026   -11026   -11052   -11090   -11128   -11164 
  -11199   -11236   -11264   -11271   -11256   -11233   -11211   -11188 
  -11167   -11142   -11111   -11088   -11076   -11063   -11052   -11051 
  -11043   -11028   -11010   -10980   -10939   -10895   -10863   -10836 
  -10814   -10791   -10771   -10758   -10744   -10728   -10709   -10682 
  -10662   -10660   -10673   -10698   -10727   -10744   -10755   -10758 
  -10750   -10732   -10719   -10724   -10750   -10791   -10836   -10867 
  -10891   -10924   -10962   -10995   -11010   -11009   -10999   -10987 
  -10975   -10963   -10962   -10987   -11040   -11098   -11146   -11182 
  -11207   -11229   -11252   -11275   -11299   -11334   -11372   -11406 
  -11429   -11435   -11425   -11396   -11361   -11334   -11321   -11315 
  -11325   -11342   -11349   -11341   -11321   -11279   -11226   -11186 
  -11156   -11122   -11094   -11071   -11045   -11026   -11013   -11006 
  -11013   -11026   -11037   -11045   -11047   -11038   -11033   -11043 
  -11060   -11072   -11074   -11063   -11032   -10993   -10952   -10912 
  -10870   -10828   -10795   -10793   -10817   -10856   -10902   -10930 
  -10937   -10932   -10917   -10895   -10867   -10831   -10795   -10778 
  -10782   -10806   -10854   -10899   -10930   -10951   -10963   -10966 
  -10962   -10955   -10947   -10937   -10924   -10910   -10898   -10883 
  -10863   -10832   -10800   -10775   -10755   -10739   -10729   -10724 
  -10731   -10758   -10795   -10833   -10864   -10883   -10893   -10897 
  -10901   -10909   -10929   -10976   -11055   -11152   -11256   -11361 
  -11460   -11539   -11591   -11620   -11641   -11654   -11668   -11685 
  -11697   -11704   -11704   -11691   -11662   -11628   -11597   -11569 
  -11541   -11510   -11472   -11421   -11357   -11284   -11196   -11105 
  -11016   -10930   -10859   -10797   -10736   -10673   -10613   -10573 
  -10554   -10548   -10547   -10543   -10544   -10550   -10557   -10554 
  -10535   -10509   -10494   -10490   -10489   -10492   -10505   -10524 
  -10546   -10579   -10631   -10685   -10739   -10798   -10848   -10881 
  -10902   -10917   -10926   -10937   -10953   -10978   -11007   -11040 
  -11075   -11106   -11130   -11163   -11209   -11249   -11280   -11311 
  -11342   -11365   -11391   -11411   -11419   -11430   -11441   -11446 
  -11454   -11464   -11466   -11450   -11425   -11395   -11358   -11326 
  -11303   -11273   -11227   -11171   -11115   -11064   -11014   -10980 
  -10959   -10935   -10916   -10909   -10902   -10876   -10836   -10793 
  -10744   -10702   -10675   -10648   -10612   -10573   -10538   -10512 
  -10500   -10498   -10501   -10505   -10515   -10528   -10546   -10559 
  -10567   -10578   -10584   -10584   -10589   -10601   -10625   -10654 
  -10669   -10667   -10671   -10693   -10727   -10774   -10828   -10882 
  -10939   -11003   -11076   -11157   -11237   -11304   -11358   -11403 
  -11438   -11466   -11491   -11518   -11547   -11574   -11600   -11624 
  -11641   -11638   -11623   -11601   -11580   -11560   -11538   -11515 
  -11489   -11454   -11415   -11373   -11327   -11279   -11225   -11167 
  -11113   -11063   -11010   -10956   -10897   -10831   -10766   -10701 
  -10636   -10575   -10517   -10461   -10409   -10363   -10316   -10272 
  -10246   -10238   -10234   -10234   -10237   -10239   -10257   -10289 
  -10331   -10384   -10443   -10507   -10577   -10647   -10714   -10785 
  -10858   -10933   -11018   -11114   -11214   -11313   -11395   -11458 
  -11514   -11553   -11573   -11588   -11592   -11588   -11588   -11588 
  -11584   -11577   -11566   -11547   -11516   -11473   -11419   -11354 
  -11280   -11202   -11134   -11079   -11028   -10975   -10913   -10849 
  -10783   -10698   -10598   -10504   -10413   -10328   -10260   -10214 
  -10181   -10156   -10137   -10125   -10114   -10096   -10081   -10068 
  -10057   -10058   -10080   -10125   -10176   -10237   -10312   -10400 
  -10496   -10590   -10669   -10736   -10804   -10874   -10952   -11045 
  -11144   -11242   -11337   -11425   -11503   -11580   -11657   -11728 
  -11781   -11812   -11834   -11851   -11853   -11836   -11809   -11774 
  -11747   -11728   -11697   -11653   -11603   -11541   -11470   -11410 
  -11349   -11275   -11198   -11133   -11065   -10989   -10916   -10843 
  -10764   -10687   -10613   -10551   -10511   -10480   -10446   -10424 
  -10411   -10386   -10372   -10381   -10400   -10420   -10454   -10508 
  -10573   -10636   -10686   -10724   -10756   -10795   -10845   -10908 
  -10983   -11048   -11094   -11141   -11191   -11240   -11292   -11342 
  -11392   -11429   -11448   -11470   -11503   -11538   -11580   -11626 
  -11676   -11731   -11786   -11831   -11843   -11831   -11813   -11786 
  -11753   -11727   -11697   -11641   -11574   -11508   -11441   -11372 
  -11303   -11234   -11169   -11105   -11026   -10952   -10898   -10855 
  -10814   -10786   -10764   -10737   -10710   -10687   -10659   -10621 
  -10571   -10511   -10466   -10443   -10427   -10430   -10443   -10446 
  -10435   -10412   -10389   -10370   -10354   -10347   -10343   -10341 
  -10342   -10347   -10366   -10400   -10442   -10485   -10521   -10548 
  -10566   -10573   -10569   -10562   -10557   -10550   -10547   -10557 
  -10571   -10592   -10621   -10646   -10665   -10694   -10736   -10783 
  -10836   -10878   -10903   -10925   -10945   -10967   -10994   -11024 
  -11047   -11060   -11078   -11109   -11140   -11168   -11200   -11222 
  -11237   -11265   -11296   -11306   -11298   -11280   -11250   -11223 
  -11206   -11186   -11165   -11152   -11125   -11075   -11025   -10975 
  -10918   -10852   -10781   -10713   -10644   -10575   -10517   -10465 
  -10407   -10359   -10330   -10303   -10292   -10312   -10343   -10380 
  -10423   -10461   -10496   -10542   -10598   -10651   -10696   -10744 
  -10800   -10856   -10920   -10993   -11060   -11121   -11173   -11223 
  -11271   -11321   -11369   -11407   -11438   -11468   -11499   -11518 
  -11534   -11551   -11558   -11562   -11580   -11593   -11612   -11638 
  -11645   -11626   -11584   -11519   -11446   -11369   -11277   -11172 
  -11075   -10991   -10918   -10844   -10777   -10720   -10666   -10628 
  -10605   -10582   -10565   -10557   -10552   -10559   -10581   -10605 
  -10632   -10663   -10705   -10755   -10795   -10824   -10863   -10905 
  -10937   -10967   -11001   -11026   -11057   -11098   -11137   -11182 
  -11233   -11281   -11323   -11364   -11404   -11434   -11457   -11477 
  -11487   -11491   -11497   -11503   -11499   -11487   -11465   -11421 
  -11353   -11273   -11183   -11084   -10986   -10885   -10789   -10706 
  -10643   -10590   -10536   -10477   -10419   -10359   -10300   -10255 
  -10228   -10207   -10191   -10187   -10200   -10224   -10250   -10274 
  -10309   -10349   -10382   -10417   -10447   -10477   -10521   -10573 
  -10615   -10655   -10716   -10779   -10833   -10898   -10971   -11038 
  -11113   -11200   -11286   -11358   -11426   -11493   -11551   -11607 
  -11665   -11712   -11739   -11750   -11759   -11762   -11753   -11740 
  -11723   -11682   -11628   -11568   -11488   -11402   -11317   -11221 
  -11109   -10997   -10886   -10777   -10675   -10589   -10500   -10397 
  -10297   -10208   -10139   -10085   -10039   -10004    -9980    -9961 
   -9950    -9942    -9944    -9963    -9991   -10029   -10076   -10131 
  -10195   -10265   -10342   -10424   -10516   -10608   -10694   -10782 
  -10868   -10959   -11053   -11148   -11241   -11341   -11454   -11572 
  -11682   -11790   -11885   -11954   -12013   -12070   -12110   -12132 
  -12147   -12151   -12144   -12131   -12113   -12079   -12027   -11967 
  -11902   -11834   -11757   -11665   -11562   -11460   -11356   -11252 
  -11151   -11048   -10948   -10851   -10756   -10678   -10625   -10577 
  -10524   -10485   -10451   -10407   -10363   -10328   -10295   -10262 
  -10241   -10235   -10246   -10266   -10300   -10346   -10386   -10420 
  -10458   -10501   -10544   -10588   -10621   -10654   -10702   -10763 
  -10813   -10855   -10890   -10901   -10894   -10887   -10875   -10864 
  -10864   -10863   -10862   -10871   -10893   -10922   -10952   -10970 
  -10975   -10972   -10968   -10972   -10983   -10994   -11010   -11043 
  -11083   -11121   -11168   -11211   -11227   -11232   -11226   -11192 
  -11155   -11129   -11109   -11087   -11072   -11065   -11061   -11055 
  -11052   -11049   -11036   -11010   -10976   -10944   -10924   -10912 
  -10906   -10909   -10912   -10912   -10920   -10936   -10945   -10953 
  -10962   -10956   -10944   -10939   -10932   -10930   -10929   -10917 
  -10902   -10887   -10867   -10840   -10810   -10781   -10748   -10720 
  -10705   -10696   -10685   -10669   -10640   -10615   -10590   -10559 
  -10525   -10481   -10438   -10416   -10405   -10405   -10434   -10473 
  -10504   -10542   -10593   -10646   -10700   -10764   -10818   -10856 
  -10902   -10955   -10998   -11045   -11097   -11138   -11182   -11236 
  -11295   -11346   -11385   -11416   -11442   -11465   -11488   -11504 
  -11508   -11510   -11516   -11519   -11515   -11507   -11497   -11472 
  -11443   -11426   -11410   -11388   -11368   -11346   -11322   -11304 
  -11288   -11269   -11245   -11213   -11172   -11130   -11091   -11061 
  -11033   -11016   -11025   -11049   -11083   -11130   -11180   -11225 
  -11283   -11349   -11408   -11461   -11507   -11537   -11553   -11570 
  -11587   -11593   -11591   -11585   -11580   -11574   -11566   -11566 
  -11564   -11557   -11545   -11526   -11514   -11506   -11488   -11461 
  -11419   -11369   -11315   -11245   -11168   -11098   -11029   -10959 
  -10889   -10825   -10764   -10697   -10633   -10581   -10528   -10477 
  -10430   -10378   -10330   -10289   -10251   -10222   -10214   -10218 
  -10233   -10266   -10304   -10331   -10361   -10396   -10422   -10442 
  -10462   -10474   -10481   -10493   -10501   -10500   -10500   -10503 
  -10501   -10490   -10471   -10459   -10457   -10450   -10458   -10488 
  -10524   -10578   -10647   -10713   -10774   -10831   -10879   -10929 
  -10990   -11052   -11103   -11151   -11202   -11242   -11271   -11294 
  -11307   -11313   -11317   -11311   -11296   -11275   -11234   -11190 
  -11149   -11111   -11080   -11064   -11057   -11056   -11056   -11053 
  -11047   -11047   -11052   -11059   -11067   -11071   -11063   -11052 
  -11041   -11026   -10995   -10952   -10906   -10859   -10804   -10741 
  -10683   -10624   -10557   -10488   -10422   -10347   -10284   -10246 
  -10223   -10203   -10196   -10195   -10203   -10235   -10265   -10287 
  -10324   -10370   -10400   -10423   -10440   -10449   -10454   -10466 
  -10485   -10508   -10532   -10565   -10602   -10643   -10690   -10748 
  -10808   -10870   -10951   -11047   -11141   -11232   -11319   -11404 
  -11483   -11564   -11638   -11701   -11761   -11828   -11901   -11969 
  -12028   -12086   -12135   -12177   -12214   -12224   -12202   -12170 
  -12128   -12067   -12004   -11940   -11875   -11821   -11778   -11730 
  -11672   -11612   -11558   -11502   -11442   -11372   -11279   -11172 
  -11065   -10966   -10874   -10778   -10677   -10578   -10485   -10399 
  -10323   -10253   -10185   -10133   -10093   -10061   -10041   -10027 
  -10018   -10025   -10049   -10076   -10098   -10125   -10166   -10224 
  -10293   -10368   -10451   -10531   -10605   -10686   -10773   -10859 
  -10947   -11020   -11071   -11121   -11175   -11229   -11287   -11352 
  -11425   -11507   -11593   -11684   -11774   -11850   -11911   -11962 
  -12005   -12040   -12070   -12093   -12098   -12087   -12081   -12073 
  -12052   -12032   -12004   -11952   -11890   -11831   -11757   -11666 
  -11572   -11475   -11372   -11269   -11157   -11043   -10930   -10820 
  -10721   -10636   -10552   -10477   -10417   -10363   -10312   -10272 
  -10235   -10197   -10160   -10125   -10083   -10038   -10007    -9985 
   -9973    -9976    -9988   -10011   -10049   -10099   -10156   -10220 
  -10291   -10355   -10416   -10476   -10534   -10586   -10643   -10700 
  -10758   -10821   -10875   -10917   -10962   -11009   -11051   -11087 
  -11110   -11117   -11111   -11091   -11063   -11033   -10995   -10944 
  -10890   -10847   -10805   -10756   -10701   -10633   -10547   -10461 
  -10385   -10315   -10253   -10203   -10161   -10127   -10102   -10083 
  -10064   -10044   -10029   -10015   -10000    -9998   -10006   -10014 
  -10041   -10092   -10147   -10207   -10280   -10359   -10427   -10496 
  -10575   -10652   -10728   -10817   -10916   -11021   -11141   -11268 
  -11388   -11497   -11593   -11670   -11728   -11776   -11817   -11851 
  -11871   -11889   -11901   -11904   -11893   -11861   -11811   -11745 
  -11662   -11577   -11493   -11400   -11303   -11221   -11146   -11072 
  -11006   -10944   -10879   -10816   -10752   -10686   -10625   -10573 
  -10530   -10492   -10459   -10432   -10408   -10388   -10366   -10335 
  -10301   -10274   -10254   -10251   -10266   -10292   -10324   -10370 
  -10431   -10511   -10593   -10667   -10743   -10827   -10906   -10982 
  -11063   -11151   -11244   -11335   -11418   -11495   -11570   -11645 
  -11711   -11767   -11816   -11851   -11875   -11900   -11921   -11934 
  -11940   -11943   -11943   -11951   -11965   -11975   -11988   -12004 
  -12012   -12016   -12012   -11988   -11956   -11917   -11858   -11789 
  -11720   -11637   -11546   -11457   -11361   -11264   -11173   -11088 
  -11010   -10945   -10895   -10854   -10817   -10794   -10783   -10771 
  -10755   -10737   -10717   -10704   -10709   -10723   -10729   -10740 
  -10770   -10806   -10840   -10881   -10928   -10957   -10979   -11003 
  -11022   -11037   -11055   -11067   -11071   -11071   -11067   -11059 
  -11051   -11049   -11049   -11040   -11022   -11005   -10982   -10956 
  -10937   -10918   -10893   -10858   -10816   -10770   -10714   -10650 
  -10585   -10521   -10461   -10408   -10365   -10335   -10324   -10322 
  -10322   -10324   -10324   -10327   -10338   -10354   -10378   -10409 
  -10438   -10473   -10521   -10585   -10662   -10754   -10844   -10928 
  -11007   -11075   -11128   -11172   -11206   -11227   -11244   -11253 
  -11254   -11249   -11242   -11233   -11219   -11199   -11175   -11148 
  -11122   -11101   -11078   -11052   -11017   -10962   -10897   -10836 
  -10775   -10713   -10654   -10590   -10528   -10484   -10449   -10420 
  -10413   -10422   -10426   -10427   -10428   -10428   -10434   -10449 
  -10465   -10481   -10496   -10516   -10540   -10557   -10565   -10573 
  -10579   -10588   -10606   -10636   -10663   -10693   -10731   -10774 
  -10813   -10856   -10897   -10929   -10955   -10970   -10976   -10982 
  -10995   -11009   -11010   -11005   -10999   -10995   -10993   -10993 
  -10990   -10983   -10984   -10999   -11026   -11065   -11113   -11161 
  -11211   -11264   -11311   -11349   -11373   -11392   -11406   -11421 
  -11443   -11466   -11475   -11462   -11435   -11410   -11383   -11345 
  -11298   -11240   -11169   -11094   -11028   -10976   -10926   -10874 
  -10820   -10762   -10701   -10652   -10615   -10575   -10540   -10521 
  -10501   -10484   -10482   -10484   -10474   -10462   -10443   -10423 
  -10416   -10420   -10427   -10435   -10444   -10463   -10501   -10548 
  -10594   -10643   -10689   -10728   -10773   -10824   -10882   -10956 
  -11045   -11130   -11209   -11284   -11352   -11402   -11439   -11469 
  -11495   -11519   -11535   -11543   -11554   -11557   -11549   -11547 
  -11553   -11543   -11511   -11472   -11435   -11406   -11385   -11380 
  -11387   -11389   -11385   -11385   -11391   -11395   -11398   -11394 
  -11381   -11362   -11344   -11323   -11299   -11286   -11279   -11260 
  -11236   -11217   -11194   -11168   -11144   -11118   -11091   -11061 
  -11030   -10993   -10945   -10901   -10862   -10814   -10767   -10729 
  -10694   -10659   -10631   -10615   -10601   -10586   -10574   -10567 
  -10562   -10550   -10539   -10540   -10547   -10554   -10563   -10577 
  -10596   -10613   -10627   -10644   -10671   -10704   -10739   -10782 
  -10836   -10902   -10976   -11051   -11129   -11205   -11268   -11337 
  -11411   -11470   -11530   -11597   -11657   -11715   -11773   -11812 
  -11838   -11859   -11862   -11848   -11832   -11817   -11793   -11762 
  -11734   -11693   -11643   -11589   -11522   -11439   -11357   -11268 
  -11169   -11076   -10987   -10894   -10794   -10697   -10612   -10527 
  -10442   -10361   -10276   -10195   -10125   -10054    -9987    -9938 
   -9896    -9856    -9825    -9799    -9780    -9776    -9788    -9810 
   -9836    -9871    -9910    -9954   -10008   -10073   -10142   -10216 
  -10299   -10381   -10467   -10565   -10660   -10764   -10875   -10979 
  -11076   -11179   -11275   -11356   -11439   -11518   -11585   -11642 
