Origin Time       2025/01/13 21:19:00
Lat.              31.8
Long.             131.6
Depth. (km)       30
Mag.              6.9
Station Code      TKS004
Station Lat.      33.7750
Station Long.     134.5907
Station Height(m) 3
Record Time       2025/01/13 21:21:00
Sampling Freq(Hz) 100Hz
Duration Time(s)  60
Dir.              U-D
Scale Factor      7845(gal)/8223790
Max. Acc. (gal)   0.826
Last Correction   2025/01/13 21:20:59
Memo.             
[...]
   -9903    -9896    -9907   -10004   -10023    -9922    -9857    -9853 
   -9850    -9809    -9775    -9822    -9861    -9899   -10015   -10061 
   -9998    -9953    -9896    -9803    -9747    -9717    -9717    -9765 
   -9848    -9926    -9938    -9969   -10079   -10085    -9976    -9907 
   -9849    -9799    -9791    -9747    -9694    -9707    -9787    -9909 
   -9971    -9960    -9967    -9961    -9899    -9819    -9790    -9826 
   -9842    -9857    -9919    -9914    -9864    -9892    -9952   -10012 
  -10062   -10056   -10046   -10021    -9949    -9898    -9846    -9810 
   -9849    -9880    -9877    -9875    -9856    -9850    -9849    -9799 
   -9730    -9690    -9725    -9803    -9822    -9830    -9884    -9915 
   -9929    -9948    -9954    -9971    -9927    -9806    -9730    -9683 
   -9652    -9718    -9796    -9823    -9853    -9871    -9879    -9872 
   -9786    -9684    -9641    -9641    -9682    -9729    -9772    -9822 
   -9868    -9938    -9991    -9952    -9891    -9837    -9783    -9795 
   -9815    -9823    -9890    -9929    -9922    -9961    -9987    -9944 
   -9875    -9823    -9801    -9751    -9690    -9682    -9680    -9668 
   -9706    -9811    -9953   -10050   -10049    -9996    -9946    -9925 
   -9923    -9869    -9761    -9698    -9722    -9813    -9922    -9984 
  -10017   -10034   -10012    -9977    -9910    -9803    -9755    -9801 
   -9859    -9840    -9794    -9853    -9954    -9957    -9937    -9931 
   -9894    -9886    -9873    -9790    -9737    -9744    -9775    -9814 
   -9838    -9892   -10012   -10104   -10114   -10077   -10010    -9899 
   -9767    -9678    -9628    -9574    -9540    -9535    -9568    -9730 
   -9938   -10048   -10127   -10191   -10126    -9981    -9857    -9772 
   -9706    -9639    -9625    -9691    -9769    -9841    -9907    -9954 
   -9987    -9984    -9927    -9850    -9794    -9771    -9751    -9711 
   -9724    -9821    -9918    -9960   -10000   -10077   -10133   -10120 
  -10095   -10046    -9946    -9914    -9942    -9900    -9818    -9784 
   -9799    -9846    -9898    -9934    -9961    -9976   -10003   -10017 
   -9960    -9877    -9823    -9796    -9813    -9842    -9842    -9855 
   -9927   -10012    -9996    -9925    -9929    -9952    -9900    -9815 
   -9741    -9725    -9741    -9713    -9695    -9749    -9794    -9796 
   -9822    -9880    -9926    -9952    -9961    -9923    -9849    -9803 
   -9772    -9747    -9752    -9744    -9738    -9776    -9787    -9795 
   -9865    -9913    -9915    -9911    -9882    -9849    -9841    -9871 
   -9925    -9954   -10029   -10139   -10133   -10064   -10065   -10061 
   -9998    -9913    -9801    -9672    -9606    -9641    -9706    -9748 
   -9832    -9945    -9996   -10010   -10039   -10025    -9941    -9852 
   -9795    -9767    -9745    -9742    -9767    -9765    -9761    -9819 
   -9868    -9846    -9810    -9795    -9790    -9778    -9791    -9841 
   -9876    -9923   -10002   -10045   -10056   -10046    -9990    -9930 
   -9865    -9796    -9788    -9786    -9728    -9678    -9694    -9775 
   -9861    -9884    -9884    -9918   -10010   -10095   -10056    -9988 
  -10002    -9985    -9930    -9898    -9853    -9828    -9849    -9886 
   -9919    -9917    -9894    -9857    -9803    -9811    -9844    -9823 
   -9844    -9907    -9918    -9895    -9859    -9834    -9834    -9795 
   -9759    -9775    -9787    -9832    -9887    -9887    -9923    -9954 
   -9906    -9909    -9949    -9913    -9837    -9790    -9805    -9842 
   -9902   -10007   -10025    -9958    -9983   -10017    -9996   -10021 
  -10021    -9938    -9850    -9796    -9782    -9778    -9792    -9852 
   -9886    -9879    -9884    -9875    -9869    -9895    -9894    -9876 
   -9855    -9828    -9857    -9884    -9834    -9791    -9795    -9823 
   -9861    -9871    -9864    -9852    -9842    -9875    -9834    -9714 
   -9705    -9732    -9679    -9671    -9713    -9745    -9799    -9855 
   -9879    -9846    -9799    -9811    -9794    -9749    -9772    -9753 
   -9718    -9783    -9826    -9850    -9921    -9930    -9896    -9891 
   -9871    -9865    -9886    -9914    -9967    -9965    -9941    -9984 
  -10008    -9976    -9957    -9950    -9942    -9900    -9849    -9836 
   -9815    -9799    -9806    -9796    -9845    -9934    -9931    -9898 
   -9841    -9699    -9590    -9562    -9590    -9705    -9814    -9886 
   -9940    -9917    -9876    -9865    -9838    -9845    -9853    -9802 
   -9787    -9809    -9807    -9829    -9906   -10015   -10069   -10023 
   -9963    -9906    -9844    -9809    -9752    -9683    -9661    -9678 
   -9774    -9900    -9963   -10017   -10068   -10084   -10130   -10123 
  -10011    -9904    -9803    -9690    -9634    -9659    -9751    -9855 
   -9922    -9965    -9952    -9914    -9904    -9871    -9834    -9807 
   -9729    -9663    -9663    -9698    -9788    -9872    -9880    -9899 
   -9922    -9888    -9844    -9795    -9784    -9850    -9909    -9922 
   -9891    -9846    -9875    -9890    -9855    -9898    -9934    -9921 
   -9980   -10025    -9976    -9941    -9929    -9903    -9871    -9833 
   -9776    -9717    -9720    -9767    -9803    -9856    -9910    -9929 
   -9961    -9979    -9954    -9949    -9956    -9980   -10031   -10018 
   -9904    -9802    -9788    -9849    -9919    -9968   -10007   -10015 
   -9994    -9954    -9875    -9801    -9796    -9809    -9826    -9913 
  -10007   -10068   -10133   -10160   -10111    -9994    -9845    -9796 
   -9861    -9903    -9907    -9942    -9991   -10006   -10000    -9999 
   -9983    -9946    -9892    -9823    -9753    -9718    -9753    -9821 
   -9826    -9780    -9755    -9757    -9813    -9940   -10023    -9973 
   -9898    -9940   -10049   -10093   -10075   -10041    -9984    -9931 
   -9911    -9877    -9838    -9864    -9938    -9968    -9921    -9864 
   -9876    -9906    -9873    -9834    -9880    -9971   -10039   -10119 
  -10206   -10195   -10065    -9910    -9745    -9589    -9528    -9512 
   -9483    -9536    -9648    -9713    -9760    -9865    -9975    -9984 
   -9940    -9942    -9937    -9883    -9832    -9791    -9771    -9771 
   -9757    -9753    -9792    -9841    -9887    -9929    -9929    -9890 
   -9848    -9818    -9829    -9888    -9946    -9953    -9914    -9864 
   -9828    -9849    -9891    -9845    -9765    -9732    -9675    -9630 
   -9670    -9717    -9728    -9728    -9715    -9709    -9729    -9779 
   -9844    -9890    -9923    -9936    -9867    -9787    -9780    -9768 
   -9748    -9794    -9856    -9879    -9876    -9873    -9882    -9879 
   -9884    -9898    -9872    -9838    -9795    -9705    -9640    -9628 
   -9639    -9736    -9852    -9850    -9844    -9927   -10022   -10103 
  -10196   -10264   -10249   -10146    -9985    -9779    -9606    -9549 
   -9559    -9606    -9706    -9786    -9828    -9864    -9877    -9904 
   -9971    -9996    -9950    -9865    -9757    -9639    -9513    -9439 
   -9452    -9493    -9563    -9680    -9801    -9922    -9992    -9961 
   -9926    -9937    -9967   -10008   -10010    -9991   -10023   -10093 
  -10165   -10180   -10147   -10165   -10179   -10123   -10044    -9914 
   -9759    -9695    -9694    -9718    -9813    -9926    -9996   -10021 
  -10006    -9969    -9898    -9803    -9753    -9733    -9710    -9717 
   -9717    -9690    -9661    -9648    -9728    -9882   -10006   -10106 
  -10164   -10143   -10146   -10204   -10237   -10214   -10129    -9995 
   -9806    -9558    -9396    -9360    -9381    -9481    -9633    -9786 
   -9913    -9921    -9855    -9841    -9864    -9891    -9910    -9918 
   -9937    -9894    -9805    -9786    -9753    -9641    -9586    -9610 
   -9653    -9729    -9841   -10007   -10188   -10328   -10444   -10493 
  -10446   -10303   -10015    -9671    -9398    -9242    -9266    -9451 
   -9715    -9995   -10107    -9992    -9873    -9860    -9914   -10029 
  -10168   -10282   -10304   -10207   -10103    -9999    -9861    -9787 
   -9769    -9755    -9792    -9848    -9899    -9983   -10038   -10025 
   -9965    -9868    -9769    -9699    -9671    -9695    -9729    -9756 
   -9760    -9668    -9514    -9362    -9216    -9158    -9248    -9425 
   -9636    -9830   -10006   -10199   -10341   -10404   -10400   -10288 
  -10123    -9976    -9853    -9798    -9776    -9760    -9803    -9864 
   -9873    -9855    -9852    -9875    -9853    -9733    -9603    -9545 
   -9585    -9705    -9819    -9929   -10091   -10227   -10268   -10239 
  -10172   -10083    -9985    -9903    -9826    -9733    -9697    -9787 
   -9952   -10123   -10230   -10218   -10154   -10085    -9994    -9888 
   -9721    -9529    -9455    -9495    -9625    -9837   -10042   -10218 
  -10335   -10314   -10181    -9949    -9645    -9460    -9462    -9528 
   -9621    -9755    -9877    -9973   -10064   -10129   -10135   -10112 
  -10069    -9954    -9822    -9729    -9620    -9568    -9656    -9759 
   -9863   -10011   -10125   -10189   -10207   -10135   -10069   -10052 
   -9958    -9775    -9617    -9502    -9416    -9428    -9536    -9657 
   -9775    -9883    -9919    -9915    -9946    -9976   -10002   -10064 
  -10107   -10103   -10089   -10050    -9948    -9819    -9718    -9655 
   -9668    -9813    -9998   -10093   -10120   -10116   -10087   -10080 
  -10025    -9852    -9715    -9660    -9585    -9602    -9756    -9848 
   -9826    -9802    -9774    -9709    -9695    -9767    -9848    -9895 
   -9937    -9946    -9915    -9926    -9981    -9987    -9958    -9995 
  -10072   -10108   -10134   -10142   -10045    -9860    -9656    -9455 
   -9363    -9456    -9629    -9814   -10018   -10188   -10282   -10277 
  -10191   -10080    -9949    -9791    -9659    -9605    -9603    -9618 
   -9691    -9842    -9977   -10031    -9990    -9856    -9749    -9772 
   -9865    -9941    -9937    -9840    -9730    -9653    -9589    -9576 
   -9664    -9792    -9888    -9931    -9904    -9828    -9787    -9807 
   -9865    -9948    -9991    -9952    -9895    -9853    -9821    -9868 
   -9981   -10029    -9953    -9779    -9578    -9479    -9540    -9693 
   -9834    -9948   -10037    -9980    -9799    -9718    -9768    -9876 
  -10025   -10127   -10142   -10087    -9958    -9822    -9764    -9788 
   -9857    -9921    -9975   -10030   -10044   -10012    -9973    -9934 
   -9915    -9931    -9972    -9983    -9888    -9721    -9594    -9518 
   -9489    -9513    -9558    -9637    -9778    -9969   -10227   -10455 
  -10534   -10466   -10227    -9861    -9571    -9417    -9360    -9397 
   -9518    -9767   -10096   -10308   -10372   -10331   -10154    -9918 
   -9705    -9524    -9416    -9370    -9402    -9545    -9737    -9956 
  -10150   -10168   -10038    -9888    -9703    -9483    -9347    -9382 
   -9528    -9695    -9907   -10103   -10208   -10305   -10388   -10403 
  -10400   -10314   -10156   -10064    -9948    -9772    -9660    -9593 
   -9572    -9634    -9703    -9760    -9815    -9863    -9899    -9910 
   -9967   -10041    -9985    -9895    -9861    -9769    -9644    -9582 
   -9579    -9656    -9817    -9999   -10137   -10191   -10173   -10054 
   -9867    -9733    -9612    -9454    -9383    -9424    -9521    -9640 
   -9733    -9872   -10089   -10237   -10292   -10303   -10222   -10106 
  -10029    -9969    -9911    -9855    -9842    -9890    -9938    -9998 
  -10049   -10041   -10027    -9969    -9787    -9613    -9521    -9482 
   -9553    -9706    -9853    -9963    -9991    -9979   -10004   -10092 
  -10212   -10239   -10180   -10120    -9971    -9798    -9728    -9633 
   -9513    -9455    -9410    -9448    -9624    -9829   -10048   -10260 
  -10354   -10319   -10161    -9883    -9575    -9304    -9136    -9131 
   -9252    -9474    -9782   -10084   -10260   -10230   -10049    -9823 
   -9613    -9516    -9566    -9710    -9918   -10096   -10197   -10222 
  -10096    -9927    -9865    -9801    -9715    -9709    -9734    -9778 
   -9802    -9799    -9900   -10003    -9930    -9799    -9659    -9479 
   -9370    -9350    -9406    -9595    -9821    -9976   -10083   -10129 
  -10073    -9967    -9877    -9774    -9671    -9668    -9737    -9822 
   -9934   -10039   -10138   -10254   -10253   -10068    -9879    -9729 
   -9532    -9393    -9401    -9514    -9710    -9931   -10083   -10088 
   -9987    -9923    -9925    -9898    -9822    -9741    -9710    -9730 
   -9749    -9833   -10027   -10227   -10397   -10498   -10461   -10378 
  -10316   -10196    -9996    -9780    -9597    -9435    -9308    -9316 
   -9460    -9644    -9848   -10034   -10122   -10110   -10034    -9918 
   -9790    -9714    -9711    -9702    -9734    -9904   -10098   -10200 
  -10226   -10172   -10066    -9964    -9865    -9830    -9895    -9971 
  -10021   -10057   -10035    -9980    -9918    -9848    -9799    -9744 
   -9670    -9624    -9632    -9706    -9815    -9926   -10052   -10139 
  -10115   -10046   -10007    -9992   -10011   -10077   -10126   -10091 
  -10021    -9990    -9977    -9954    -9941    -9873    -9736    -9628 
   -9528    -9440    -9498    -9643    -9737    -9836    -9976   -10085 
  -10142   -10173   -10187   -10199   -10197   -10104    -9929    -9775 
   -9676    -9649    -9764    -9969   -10147   -10246   -10237   -10099 
   -9891    -9718    -9666    -9697    -9691    -9632    -9575    -9579 
   -9682    -9833    -9971   -10038   -10029   -10006    -9934    -9786 
   -9702    -9722    -9742    -9747    -9768    -9779    -9759    -9738 
   -9736    -9737    -9774    -9855    -9950   -10089   -10235   -10273 
  -10196   -10022    -9741    -9448    -9275    -9315    -9583    -9953 
  -10285   -10561   -10733   -10732   -10548   -10207    -9791    -9445 
   -9259    -9234    -9304    -9417    -9525    -9602    -9693    -9815 
   -9938   -10073   -10142   -10054    -9921    -9809    -9693    -9671 
   -9753    -9815    -9888    -9987   -10017    -9991    -9963    -9934 
   -9931    -9946    -9933    -9886    -9840    -9811    -9780    -9811 
   -9954   -10095   -10166   -10201   -10165   -10081   -10017    -9936 
   -9805    -9666    -9572    -9524    -9491    -9499    -9558    -9637 
   -9759    -9898    -9984   -10056   -10104   -10110   -10125   -10092 
   -9987    -9913    -9844    -9757    -9705    -9671    -9676    -9711 
   -9690    -9634    -9567    -9497    -9474    -9489    -9540    -9630 
   -9697    -9779    -9914    -9961    -9918    -9903    -9892    -9801 
   -9626    -9502    -9512    -9613    -9849   -10154   -10341   -10463 
  -10528   -10386   -10129    -9891    -9684    -9547    -9502    -9543 
   -9634    -9748    -9919   -10068   -10102   -10092   -10021    -9860 
   -9752    -9717    -9720    -9795    -9911   -10046   -10157   -10149 
  -10083   -10019    -9944    -9890    -9844    -9805    -9819    -9871 
   -9967   -10064   -10072   -10054   -10050    -9999    -9927    -9853 
   -9779    -9729    -9653    -9583    -9578    -9597    -9675    -9829 
   -9988   -10161   -10293   -10318   -10276   -10147    -9969    -9852 
   -9755    -9657    -9593    -9580    -9645    -9732    -9819    -9950 
  -10065   -10133   -10150   -10066    -9926    -9774    -9613    -9549 
   -9583    -9630    -9701    -9751    -9790    -9884    -9960    -9979 
   -9980    -9933    -9884    -9880    -9859    -9826    -9814    -9817 
   -9853    -9883    -9886    -9877    -9846    -9850    -9898    -9876 
   -9817    -9787    -9753    -9732    -9732    -9756    -9817    -9859 
   -9911   -10015   -10085   -10119   -10149   -10125   -10049    -9919 
   -9780    -9755    -9819    -9888    -9972   -10064   -10116   -10057 
   -9907    -9805    -9778    -9783    -9849    -9940   -10030   -10120 
  -10115   -10046   -10022    -9954    -9822    -9709    -9639    -9634 
   -9690    -9798    -9958   -10049   -10008    -9903    -9763    -9618 
   -9475    -9373    -9387    -9474    -9566    -9695    -9841    -9972 
  -10085   -10123   -10077    -9990    -9906    -9873    -9840    -9790 
   -9806    -9845    -9867    -9902    -9904    -9898    -9923    -9914 
   -9872    -9811    -9726    -9672    -9625    -9567    -9555    -9571 
   -9644    -9779    -9876    -9952   -10060   -10133   -10147   -10119 
  -10073   -10034    -9971    -9873    -9778    -9717    -9709    -9726 
   -9744    -9782    -9814    -9840    -9884    -9900    -9877    -9871 
   -9863    -9863    -9923    -9988    -9991    -9977    -9975    -9941 
   -9873    -9811    -9780    -9771    -9791    -9844    -9911    -9961 
   -9930    -9828    -9768    -9768    -9779    -9813    -9863    -9917 
   -9963    -9948    -9887    -9841    -9798    -9751    -9724    -9729 
   -9778    -9863    -9933    -9984   -10065   -10138   -10118   -10034 
   -9976    -9914    -9813    -9760    -9794    -9829    -9840    -9863 
   -9898    -9960   -10064   -10115   -10083   -10068   -10044    -9957 
   -9892    -9880    -9864    -9848    -9849    -9869    -9890    -9861 
   -9822    -9834    -9869    -9891    -9880    -9834    -9823    -9884 
   -9942    -9973    -9985    -9983    -9984    -9979    -9946    -9902 
   -9864    -9859    -9876    -9871    -9861    -9879    -9891    -9883 
   -9856    -9801    -9747    -9752    -9798    -9815    -9825    -9869 
   -9918    -9945    -9949    -9902    -9813    -9721    -9655    -9621 
   -9618    -9676    -9792    -9896    -9998   -10103   -10127   -10083 
  -10027    -9937    -9841    -9802    -9795    -9796    -9830    -9898 
   -9949    -9971   -10003    -9987    -9915    -9900    -9903    -9850 
   -9791    -9740    -9697    -9682    -9680    -9701    -9738    -9780 
   -9855    -9952   -10018   -10019    -9941    -9849    -9807    -9761 
   -9695    -9666    -9670    -9711    -9794    -9872    -9936    -9976 
   -9981    -9937    -9837    -9756    -9703    -9636    -9603    -9598 
   -9590    -9648    -9749    -9837    -9938   -10038   -10125   -10193 
  -10189   -10118   -10014    -9879    -9779    -9764    -9788    -9818 
   -9829    -9841    -9853    -9823    -9823    -9869    -9888    -9913 
   -9927    -9911    -9936    -9933    -9872    -9849    -9806    -9725 
   -9706    -9738    -9767    -9774    -9783    -9811    -9813    -9807 
   -9840    -9853    -9875    -9907    -9852    -9774    -9761    -9774 
   -9801    -9841    -9892    -9952    -9937    -9887    -9891    -9913 
   -9948    -9992    -9988    -9958    -9964   -10007   -10025    -9988 
   -9961    -9900    -9786    -9738    -9720    -9661    -9661    -9697 
   -9740    -9829    -9883    -9894    -9925    -9917    -9856    -9776 
   -9695    -9694    -9730    -9710    -9740    -9830    -9886    -9914 
   -9875    -9817    -9836    -9813    -9714    -9648    -9616    -9628 
   -9686    -9755    -9819    -9836    -9845    -9899    -9922    -9929 
   -9961    -9971    -9975    -9957    -9876    -9807    -9772    -9725 
   -9682    -9674    -9714    -9764    -9805    -9887    -9957    -9977 
   -9999    -9946    -9863    -9877    -9848    -9715    -9647    -9663 
   -9699    -9718    -9711    -9753    -9822    -9861    -9915    -9968 
   -9976    -9956    -9911    -9884    -9884    -9887    -9915    -9948 
  -10002   -10089   -10103   -10066   -10068   -10046    -9976    -9856 
   -9720    -9679    -9693    -9684    -9740    -9825    -9886    -9988 
  -10069   -10064   -10057   -10053   -10014    -9925    -9818    -9752 
   -9684    -9616    -9614    -9633    -9670    -9775    -9895   -10002 
  -10061   -10050   -10054   -10058   -10002    -9911    -9790    -9702 
   -9730    -9760    -9755    -9805    -9876    -9931    -9964    -9967 
