Origin Time       2025/01/13 21:19:00
Lat.              31.8
Long.             131.6
Depth. (km)       30
Mag.              6.9
Station Code      TKS012
Station Lat.      34.0317
Station Long.     133.8064
Station Height(m) 128
Record Time       2025/01/13 21:21:15
Sampling Freq(Hz) 100Hz
Duration Time(s)  60
Dir.              U-D
Scale Factor      7845(gal)/8223790
Max. Acc. (gal)   0.837
Last Correction   2025/01/13 21:21:15
Memo.             
[...]
    5773     5740     5706     5701     5680     5625     5541     5459 
    5435     5431     5393     5352     5328     5323     5335     5329 
    5321     5352     5402     5436     5448     5452     5463     5478 
    5497     5530     5579     5633     5676     5684     5690     5713 
    5728     5742     5756     5757     5757     5740     5718     5710 
    5699     5706     5721     5718     5724     5738     5753     5773 
    5772     5745     5746     5780     5814     5827     5834     5860 
    5877     5871     5865     5846     5823     5802     5749     5698 
    5670     5647     5633     5601     5553     5535     5529     5533 
    5549     5566     5595     5637     5665     5694     5729     5765 
    5817     5873     5926     5958     5950     5949     5960     5942 
    5919     5900     5888     5895     5894     5896     5906     5884 
    5848     5813     5782     5779     5778     5756     5742     5722 
    5702     5715     5730     5718     5692     5659     5641     5632 
    5618     5611     5586     5564     5579     5590     5598     5625 
    5657     5701     5764     5836     5886     5906     5915     5927 
    5938     5952     5952     5935     5927     5913     5877     5849 
    5814     5771     5756     5760     5755     5742     5728     5730 
    5741     5748     5765     5778     5769     5757     5742     5734 
    5732     5718     5711     5713     5690     5644     5601     5576 
    5566     5560     5567     5552     5497     5476     5503     5525 
    5541     5545     5541     5564     5605     5652     5679     5676 
    5671     5668     5676     5699     5717     5725     5737     5740 
    5726     5714     5692     5668     5655     5652     5672     5691 
    5707     5745     5771     5790     5821     5849     5884     5927 
    5980     6039     6075     6099     6138     6173     6200     6226 
    6237     6241     6241     6234     6242     6259     6259     6245 
    6215     6188     6169     6146     6127     6100     6052     6011 
    5967     5921     5895     5863     5822     5792     5760     5722 
    5690     5664     5636     5593     5559     5540     5510     5483 
    5476     5454     5422     5406     5385     5379     5389     5394 
    5401     5381     5350     5351     5354     5350     5355     5355 
    5367     5401     5432     5458     5468     5470     5482     5486 
    5486     5505     5510     5513     5540     5559     5570     5575 
    5570     5575     5593     5606     5607     5613     5640     5649 
    5645     5670     5697     5721     5760     5788     5817     5868 
    5904     5910     5910     5914     5923     5925     5911     5904 
    5891     5872     5857     5830     5818     5823     5811     5803 
    5800     5791     5779     5757     5741     5722     5678     5641 
    5632     5611     5576     5537     5509     5503     5493     5466 
    5451     5441     5428     5409     5389     5402     5418     5418 
    5443     5471     5485     5513     5528     5520     5521     5548 
    5601     5648     5679     5710     5738     5783     5837     5875 
    5911     5948     5962     5999     6057     6085     6099     6097 
    6092     6103     6104     6102     6099     6088     6092     6100 
    6093     6099     6116     6131     6134     6122     6114     6114 
    6100     6081     6062     6035     6006     5957     5895     5861 
    5834     5800     5765     5715     5668     5621     5576     5576 
    5587     5575     5564     5549     5533     5529     5522     5509 
    5482     5447     5421     5390     5352     5337     5329     5304 
    5271     5246     5242     5247     5250     5274     5292     5302 
    5340     5371     5377     5390     5418     5460     5501     5535 
    5567     5584     5587     5593     5606     5638     5682     5698 
    5702     5719     5734     5752     5786     5827     5877     5914 
    5952     6010     6056     6103     6153     6174     6197     6234 
    6278     6334     6363     6362     6365     6355     6339     6340 
    6328     6301     6270     6238     6228     6216     6169     6115 
    6060     6004     5945     5876     5826     5778     5707     5668 
    5667     5663     5653     5629     5618     5644     5686     5721 
    5724     5706     5721     5767     5807     5837     5852     5863 
    5884     5903     5923     5934     5918     5904     5891     5872 
    5863     5841     5814     5796     5779     5772     5767     5749 
    5738     5734     5721     5713     5699     5680     5664     5634 
    5601     5570     5512     5456     5421     5389     5367     5344 
    5316     5290     5263     5255     5250     5223     5205     5194 
    5174     5161     5154     5157     5177     5196     5211     5231 
    5247     5266     5304     5350     5402     5443     5466     5495 
    5509     5512     5539     5559     5563     5559     5564     5607 
    5649     5659     5663     5682     5713     5734     5730     5725 
    5730     5744     5765     5772     5764     5782     5796     5780 
    5773     5792     5827     5860     5879     5908     5952     5999 
    6050     6093     6138     6176     6197     6223     6242     6226 
    6211     6219     6218     6192     6158     6129     6092     6039 
    5984     5925     5867     5829     5783     5717     5682     5667 
    5638     5603     5564     5547     5532     5501     5482     5459 
    5422     5409     5409     5402     5394     5383     5377     5390 
    5414     5445     5479     5495     5514     5539     5566     5589 
    5593     5599     5609     5602     5613     5632     5630     5626 
    5620     5611     5595     5566     5551     5549     5540     5530 
    5539     5564     5582     5566     5545     5560     5576     5582 
    5593     5602     5610     5613     5607     5616     5626     5643 
    5659     5643     5626     5626     5616     5614     5616     5607 
    5599     5587     5587     5613     5633     5637     5645     5653 
    5670     5676     5670     5686     5703     5701     5707     5718 
    5733     5738     5714     5706     5709     5695     5709     5741 
    5763     5783     5800     5826     5857     5873     5899     5940 
    5965     5989     6014     6023     6039     6049     6049     6072 
    6093     6106     6112     6100     6095     6104     6134     6183 
    6207     6228     6264     6269     6265     6278     6286     6293 
    6301     6299     6282     6255     6253     6281     6297     6305 
    6305     6261     6210     6169     6119     6069     6012     5960 
    5934     5904     5867     5827     5787     5760     5713     5643 
    5595     5545     5474     5420     5379     5327     5273     5228 
    5197     5162     5130     5127     5144     5165     5185     5196 
    5220     5252     5267     5298     5346     5393     5451     5483 
    5497     5525     5548     5566     5584     5594     5621     5659 
    5672     5679     5691     5699     5713     5724     5737     5756 
    5763     5769     5773     5769     5779     5780     5765     5756 
    5742     5729     5730     5730     5721     5711     5697     5687 
    5694     5705     5717     5722     5717     5719     5728     5737 
    5748     5741     5742     5760     5779     5796     5792     5779 
    5765     5744     5732     5732     5730     5736     5726     5697 
    5687     5690     5672     5638     5603     5582     5570     5539 
    5498     5462     5433     5436     5448     5464     5503     5524 
    5536     5567     5603     5655     5705     5746     5794     5830 
    5863     5915     5972     6023     6066     6083     6106     6162 
    6211     6232     6237     6234     6258     6280     6284     6295 
    6299     6309     6327     6326     6330     6346     6339     6312 
    6285     6259     6230     6200     6183     6150     6095     6064 
    6045     5998     5960     5944     5913     5877     5837     5784 
    5749     5719     5687     5651     5607     5564     5510     5476 
    5481     5462     5416     5391     5379     5359     5348     5343 
    5336     5335     5341     5347     5340     5329     5323     5304 
    5282     5244     5192     5165     5135     5092     5082     5082 
    5059     5027     5013     5031     5049     5065     5096     5131 
    5188     5274     5346     5405     5485     5563     5636     5719 
    5800     5869     5914     5953     6010     6069     6135     6199 
    6220     6235     6262     6277     6288     6278     6257     6251 
    6254     6264     6262     6228     6193     6165     6126     6102 
    6088     6062     6039     6018     5995     5981     5956     5923 
    5898     5876     5876     5869     5834     5811     5798     5794 
    5807     5809     5795     5776     5756     5746     5746     5749 
    5759     5765     5771     5783     5786     5791     5803     5800 
    5794     5794     5802     5821     5829     5826     5826     5809 
    5791     5782     5767     5760     5756     5741     5737     5734 
    5715     5688     5659     5630     5598     5559     5529     5502 
    5454     5416     5379     5323     5279     5242     5192     5146 
    5098     5069     5059     5046     5039     5044     5058     5082 
    5112     5139     5166     5197     5228     5247     5266     5305 
    5351     5395     5443     5470     5487     5514     5526     5541 
    5567     5572     5574     5576     5589     5622     5643     5655 
    5667     5664     5676     5706     5736     5771     5786     5786 
    5809     5846     5890     5938     5968     5995     6023     6029 
    6045     6065     6057     6050     6043     6043     6057     6053 
    6041     6035     6031     6049     6065     6069     6081     6089 
    6092     6088     6081     6095     6114     6106     6097     6096 
    6079     6056     6011     5949     5908     5871     5836     5805 
    5752     5713     5676     5625     5586     5540     5506     5503 
    5494     5478     5468     5464     5478     5494     5506     5544 
    5593     5634     5667     5684     5707     5737     5733     5717 
    5705     5683     5668     5657     5656     5665     5668     5665 
    5656     5653     5679     5699     5702     5730     5763     5775 
    5794     5805     5795     5786     5763     5724     5690     5661 
    5637     5587     5528     5489     5428     5359     5321     5279 
    5233     5202     5185     5166     5139     5134     5144     5138 
    5140     5152     5152     5163     5200     5236     5278     5333 
    5386     5445     5502     5551     5597     5626     5653     5683 
    5707     5749     5782     5786     5805     5834     5853     5868 
    5883     5903     5926     5940     5958     5980     5983     5992 
    6008     6018     6039     6054     6058     6068     6058     6054 
    6062     6043     6002     5956     5925     5917     5894     5863 
    5849     5833     5805     5779     5763     5755     5746     5742 
    5742     5738     5732     5728     5718     5722     5713     5678 
    5672     5678     5647     5620     5610     5595     5572     5548 
    5530     5503     5468     5444     5410     5386     5386     5374 
    5351     5344     5339     5331     5324     5312     5306     5312 
    5328     5351     5359     5373     5417     5449     5467     5502 
    5541     5586     5636     5684     5744     5802     5846     5883 
    5926     5972     6000     6019     6054     6079     6084     6102 
    6112     6102     6099     6099     6087     6070     6048     6037 
    6025     6002     5985     5967     5949     5942     5927     5917 
    5911     5896     5880     5861     5840     5823     5802     5790 
    5784     5760     5745     5749     5746     5756     5778     5772 
    5769     5778     5798     5838     5871     5898     5935     5969 
    6014     6060     6085     6119     6151     6174     6211     6251 
    6274     6296     6308     6309     6307     6281     6241     6195 
    6153     6124     6080     6026     5991     5956     5933     5907 
    5871     5856     5833     5788     5751     5718     5686     5652 
    5605     5564     5545     5526     5502     5470     5444     5439 
    5416     5383     5377     5367     5375     5409     5428     5455 
    5502     5541     5586     5634     5682     5733     5778     5825 
    5873     5918     5968     6003     6022     6068     6120     6145 
    6158     6160     6150     6146     6129     6103     6083     6054 
    6030     6008     5989     5969     5935     5911     5890     5857 
    5840     5826     5792     5760     5736     5707     5671     5632 
    5593     5545     5498     5471     5440     5391     5362     5343 
    5306     5275     5251     5235     5225     5204     5189     5179 
    5165     5163     5163     5158     5161     5175     5198     5217 
    5244     5289     5323     5337     5364     5404     5437     5475 
    5505     5526     5562     5587     5611     5656     5688     5707 
    5733     5775     5818     5850     5891     5931     5950     5980 
    6023     6058     6106     6160     6188     6211     6235     6245 
    6257     6270     6293     6319     6327     6331     6326     6309 
    6307     6284     6247     6226     6180     6114     6057     5995 
    5927     5863     5805     5748     5678     5605     5537     5452 
    5373     5312     5239     5165     5100     5027     4969     4932 
    4901     4873     4849     4849     4862     4858     4872     4908 
    4947     5000     5046     5084     5127     5171     5221     5289 
    5352     5401     5448     5490     5535     5595     5652     5699 
    5740     5784     5844     5899     5948     5992     6030     6070 
    6107     6137     6153     6138     6126     6129     6108     6088 
    6085     6066     6035     6000     5962     5941     5923     5892 
    5863     5834     5811     5786     5738     5709     5688     5652 
    5628     5616     5609     5614     5607     5597     5591     5587 
    5593     5594     5594     5607     5624     5630     5629     5630 
    5647     5670     5686     5714     5744     5749     5765     5784 
    5787     5795     5798     5795     5794     5780     5788     5810 
    5814     5821     5836     5859     5894     5927     5958     5994 
    6014     6026     6041     6049     6054     6060     6060     6054 
    6035     6018     6010     5984     5960     5937     5906     5886 
    5869     5857     5849     5823     5794     5771     5746     5730 
    5713     5686     5656     5622     5597     5586     5574     5564 
    5557     5539     5520     5510     5493     5483     5474     5455 
    5455     5460     5464     5478     5495     5512     5520     5518 
    5529     5552     5567     5578     5589     5601     5616     5618 
    5618     5630     5636     5633     5636     5647     5674     5687 
    5676     5682     5691     5698     5721     5748     5771     5782 
    5802     5844     5873     5898     5917     5913     5911     5919 
    5925     5931     5929     5908     5899     5903     5907     5917 
    5914     5898     5883     5865     5859     5856     5848     5854 
    5850     5829     5817     5798     5769     5748     5736     5730 
    5714     5691     5679     5674     5676     5683     5674     5664 
    5670     5665     5667     5676     5674     5683     5684     5675 
    5688     5687     5663     5649     5632     5618     5617     5602 
    5587     5572     5549     5548     5557     5559     5578     5594 
    5599     5617     5624     5629     5644     5643     5632     5616 
    5597     5593     5584     5580     5568     5539     5535     5537 
    5528     5532     5533     5540     5567     5593     5624     5668 
    5703     5733     5764     5787     5822     5863     5888     5908 
    5915     5919     5917     5886     5860     5844     5819     5810 
    5802     5786     5773     5756     5744     5742     5736     5726 
    5714     5680     5641     5617     5610     5611     5603     5594 
    5594     5586     5576     5571     5563     5567     5563     5544 
    5537     5540     5552     5563     5556     5567     5583     5587 
    5598     5609     5602     5595     5586     5578     5587     5597 
    5601     5601     5584     5570     5560     5549     5555     5564 
    5572     5574     5556     5553     5562     5552     5548     5541 
    5524     5514     5499     5485     5479     5479     5490     5510 
    5526     5551     5572     5586     5617     5641     5659     5694 
    5714     5728     5748     5749     5765     5791     5795     5805 
    5821     5838     5861     5872     5880     5900     5927     5962 
    5999     6029     6058     6073     6069     6072     6070     6060 
    6046     6008     5972     5948     5925     5926     5925     5910 
    5913     5911     5899     5886     5872     5876     5888     5896 
    5908     5904     5895     5891     5876     5867     5871     5853 
    5840     5846     5849     5867     5890     5898     5914     5923 
    5937     5961     5967     5985     6014     6014     6022     6035 
    6041     6056     6066     6062     6052     6039     6033     6021 
    6007     6014     6008     5975     5961     5960     5949     5949 
    5940     5931     5934     5921     5908     5898     5871     5845 
    5823     5810     5796     5763     5728     5703     5675     5645 
    5617     5586     5567     5551     5530     5521     5510     5505 
    5513     5508     5503     5517     5529     5541     5557     5582 
    5606     5613     5640     5680     5694     5706     5736     5763 
    5782     5787     5787     5794     5805     5817     5830     5840 
    5846     5842     5836     5841     5842     5836     5844     5841 
    5829     5825     5810     5794     5775     5742     5713     5682 
    5636     5590     5543     5493     5447     5401     5360     5323 
    5285     5265     5250     5227     5204     5188     5202     5236 
    5252     5275     5313     5343     5373     5395     5420     5462 
    5503     5539     5576     5605     5626     5652     5676     5691 
    5709     5729     5749     5769     5796     5826     5826     5826 
    5842     5833     5821     5821     5809     5807     5811     5809 
    5809     5807     5818     5832     5832     5845     5872     5894 
    5922     5946     5957     5968     5976     5985     6002     6004 
    6008     6025     6021     6007     5996     5983     5968     5937 
    5904     5887     5869     5854     5840     5825     5817     5803 
    5790     5798     5802     5788     5778     5767     5749     5738 
    5744     5759     5761     5753     5760     5765     5765     5768 
    5756     5749     5757     5751     5755     5765     5757     5745 
    5736     5732     5729     5715     5705     5699     5692     5691 
    5683     5663     5659     5655     5640     5633     5622     5616 
    5617     5603     5591     5583     5571     5564     5556     5551 
    5544     5525     5513     5501     5476     5463     5456     5448 
    5441     5424     5404     5391     5377     5374     5378     5370 
    5377     5393     5393     5406     5431     5449     5468     5479 
    5501     5540     5578     5610     5640     5684     5744     5786 
