Origin Time       2025/01/13 21:19:00
Lat.              31.8
Long.             131.6
Depth. (km)       30
Mag.              6.9
Station Code      TKS012
Station Lat.      34.0317
Station Long.     133.8064
Station Height(m) 128
Record Time       2025/01/13 21:21:15
Sampling Freq(Hz) 100Hz
Duration Time(s)  60
Dir.              E-W
Scale Factor      7845(gal)/8223790
Max. Acc. (gal)   1.808
Last Correction   2025/01/13 21:21:15
Memo.             
[...]
     -17       16       33       87      126       78       27       22 
      76      222      359      422      446      414      330      247 
     186      156      159      184      220      234      232      271 
     291      226      172      148      103       85      135      232 
     329      423      477      411      280      163       52      -10 
       6       43       45       18      -33      -89     -109      -79 
     -29       -2       43       91       62       36       27      -35 
     -55      -12       32      106      186      236      263      292 
     298      178      -21     -175     -286     -336     -252     -102 
      12       85      118      130      120       66       24        5 
      -5       12        5        2       54       82       71       45 
     -39     -186     -315     -365     -345     -268     -155     -101 
    -137     -157     -121      -68       41      247      426      477 
     409      292      199      160      214      317      376      384 
     326      228      179      156      130      114      108      116 
     124      129      163      203      236      280      270      163 
      32      -93     -176     -156      -83        0       56       43 
      -4      -25       18       70       64       52       10      -87 
    -140     -140     -155     -180     -211     -263     -305     -286 
    -217     -152      -97      -59      -90     -141     -118      -85 
     -41       68      118       55       -8      -67     -116     -108 
     -51        1       28       82      137      120      121      222 
     329      395      463      487      437      368      313      252 
     162       86       36       -9       20       75       51       17 
       9       16       85      198      290      317      301      251 
     139       40       31       33       39      132      218      224 
     224      179       55      -33      -48      -32      -48      -74 
     -72      -98     -117     -109     -179     -291     -351     -392 
    -414     -364     -284     -234     -199     -170     -190     -260 
    -305     -341     -433     -473     -434     -433     -388     -255 
    -137      -52       10       18      -66     -178     -191     -171 
    -147      -29      120      216      284      313      255      172 
     141      137      120       95       87       97      140      234 
     321      384      456      480      450      391      314      264 
     241      256      294      321      392      467      433      334 
     199       31      -66      -55      -25      -10        4        4 
      -1        6       44       67       55       66       55       12 
      43       98       98       86       72       32      -31      -78 
    -124     -201     -264     -321     -414     -494     -540     -595 
    -603     -507     -419     -380     -324     -260     -209     -180 
    -153     -135     -157     -160     -135     -132     -105      -62 
     -35      -14      -12      -22      -43      -70      -76      -59 
     -17       62      109       95      113      121       55        4 
     -36      -89      -82        0      114      193      244      294 
     276      240      248      240      224      234      234      213 
     180      126       70       48       54       44       14       -8 
     -32      -48       20      105      125      170      207      170 
     140      147      175      211      240      284      315      315 
     332      337      326      345      332      248      160       66 
     -44     -110     -149     -194     -226     -229     -214     -236 
    -259     -275     -360     -444     -460     -442     -360     -214 
     -95      -54      -48      -21      -24      -52      -13       44 
      25       -1      -22     -102     -140     -105      -99     -109 
    -105     -117     -151     -160      -95      -43      -22       71 
     140      106       79       72       45       40       89      141 
     156      183      221      202      164      166      172      207 
     294      321      297      315      344      344      325      315 
     287      230      240      282      257      244      252      211 
     191      228      228      198      203      205      162       87 
      29        8       10       40       40        5        9      -16 
    -101     -159     -209     -298     -410     -496     -535     -580 
    -588     -533     -502     -483     -434     -429     -445     -398 
    -344     -321     -271     -216     -184     -162     -133     -112 
     -95      -31       37       62      118      172      160      144 
     136      116       90       72       89      113      121      132 
     122       72       51       47        6      -16      -36      -97 
    -117      -98     -102     -113     -101      -86     -102     -101 
     -72      -58       -8       74      108      103       94       75 
      28      -47      -97     -113     -129     -120      -79      -58 
     -40      -29      -54      -39       -2       14       86      180 
     243      295      311      302      284      270      274      233 
     144       71        4      -63      -97     -101     -102      -95 
     -83      -98     -151     -179     -151     -132     -106      -47 
     -44      -78     -110     -182     -233     -245     -260     -280 
    -297     -301     -330     -394     -409     -396     -430     -436 
    -376     -338     -303     -243     -218     -220     -216     -237 
    -284     -310     -306     -346     -414     -430     -446     -486 
    -515     -558     -583     -538     -433     -307     -216     -135 
     -78      -90      -97      -39       24       79      147      167 
     139      121      106      114      153      190      216      220 
     218      203      156      168      248      306      368      425 
     419      368      317      280      251      224      203      178 
     148      149      159      167      228      256      184       99 
      21      -67     -114      -98      -63      -76      -89      -66 
     -82      -97      -82     -117     -159     -136     -116     -124 
    -125     -133     -156     -172     -171     -183     -229     -249 
    -252     -283     -255     -166     -122      -89      -24       36 
      89      152      217      233      222      232      225      179 
     145      117       63       28       16      -25      -97     -157 
    -176     -167     -143      -99      -79      -59      -18      -28 
     -41      -28      -62      -97      -83      -86     -129     -162 
    -148     -147     -194     -238     -291     -394     -459     -449 
    -446     -446     -446     -494     -556     -608     -639     -635 
    -600     -523     -459     -434     -395     -372     -352     -272 
    -183     -110      -37        4       39      109      189      259 
     322      369      405      427      453      483      469      465 
     504      521      537      541      492      444      396      368 
     383      399      418      429      419      419      423      410 
     419      433      396      356      326      275      210      162 
     168      167      113       74        6      -89     -126     -145 
    -149     -114      -86      -71      -71      -83      -95     -136 
    -164     -147     -136     -126     -106     -137     -190     -201 
    -210     -220     -214     -203     -176     -151     -110      -91 
    -140     -147     -108      -86       -4       99      135      157 
     202      232      248      298      390      452      477      508 
     521      503      522      552      558      598      626      589 
     529      479      448      409      383      365      291      206 
     122        4      -74     -101     -156     -236     -301     -342 
    -378     -417     -440     -463     -510     -529     -508     -491 
    -430     -359     -351     -338     -336     -387     -417     -405 
    -382     -368     -356     -351     -414     -495     -496     -490 
    -506     -475     -441     -456     -441     -367     -292     -248 
    -211     -171     -162     -139      -72      -31       13       76 
      97      124      170      175      164      167      190      230 
     294      383      433      419      391      346      286      284 
     326      348      371      403      399      356      302      275 
     253      241      283      310      297      306      292      260 
     261      249      197      136       89       33      -35      -67 
     -83     -145     -202     -218     -276     -360     -406     -465 
    -519     -515     -492     -494     -525     -537     -535     -568 
    -556     -511     -498     -425     -306     -238     -186     -129 
    -124     -135      -94      -43      -21       -8       13       -6 
     -68      -89     -103     -124      -86      -49      -44      -29 
     -12       -5      -22      -18        5      -24      -44      -16 
     -13       -1       55       75       55       40       20       17 
      56      109      159      206      256      295      310      356 
     403      415      459      504      504      502      514      521 
     495      472      457      388      305      286      295      292 
     295      295      271      257      247      222      210      187 
     135       75       39       13      -35      -52      -33      -35 
     -12       37       55       49       55      108      186      248 
     313      353      340      337      357      356      376      398 
     353      305      268      211      156      109       74       33 
      -8      -17      -40      -81     -105     -166     -261     -333 
    -394     -464     -530     -576     -599     -616     -630     -622 
    -612     -608     -579     -544     -492     -419     -376     -332 
    -280     -265     -241     -183     -113      -68      -63      -48 
     -44      -74      -75      -41      -20       -4       10      -12 
     -74     -152     -241     -337     -425     -479     -519     -561 
    -579     -629     -715     -734     -715     -702     -665     -621 
    -596     -602     -615     -630     -661     -645     -571     -508 
    -445     -369     -340     -321     -244     -137      -10      139 
     257      336      400      484      585      677      799      916 
     974     1020     1032      986      954      938      900      832 
     742      650      550      446      368      290      216      197 
     182      140      137      140      114       97       82       75 
      70       78      105       93       82       70      -18     -106 
    -155     -226     -286     -287     -290     -333     -379     -392 
    -417     -480     -517     -506     -521     -517     -469     -463 
    -464     -437     -422     -407     -376     -334     -295     -248 
    -182     -164     -171     -135     -125     -140      -98      -60 
     -76      -79      -81     -116     -144     -145     -133     -132 
    -124      -70      -43      -43      -31      -64      -82      -58 
     -74      -93      -94     -125     -180     -197     -143     -106 
    -102      -60      -27      -27        2       33       39       64 
     105      135      174      225      275      283      252      238 
     194      132      126       83      -10      -74     -143     -222 
    -274     -314     -380     -456     -498     -534     -616     -665 
    -634     -625     -618     -530     -468     -468     -446     -427 
    -419     -376     -282     -171      -90        4       97      145 
     232      329      384      468      558      588      599      630 
     645      631      610      585      527      460      438      388 
     287      228      147        9      -90     -159     -218     -252 
    -261     -274     -319     -357     -378     -448     -514     -542 
    -585     -600     -557     -515     -476     -422     -367     -313 
    -244     -139      -27       55      157      261      309      364 
     425      440      452      465      444      387      330      297 
     240      167      135       93       29        0      -39      -97 
    -121     -144     -184     -195     -197     -202     -189     -153 
    -109      -90      -62      -12       17       83      189      268 
     337      386      376      342      314      291      268      261 
     280      278      248      245      237      194      189      199 
     191      202      210      199      180      163      174      179 
     190      228      233      226      240      229      229      282 
     336      369      419      475      517      562      642      747 
     822      874      926      918      896      904      893      877 
     853      807      749      688      658      642      611      603 
     589      540      522      523      463      392      342      248 
     133       27      -95     -251     -421     -569     -735     -912 
   -1042    -1170    -1294    -1362    -1417    -1470    -1507    -1548 
   -1595    -1647    -1678    -1680    -1680    -1674    -1656    -1653 
   -1633    -1583    -1563    -1551    -1501    -1451    -1404    -1339 
   -1251    -1146    -1062     -974     -896     -874     -832     -761 
    -702     -623     -530     -454     -392     -324     -233     -148 
     -49       90      210      295      426      557      650      791 
     947     1069     1202     1333     1437     1529     1618     1715 
    1780     1836     1891     1872     1834     1823     1777     1740 
    1748     1733     1690     1659     1601     1490     1371     1269 
    1135      958      816      668      453      278      132      -54 
    -203     -325     -481     -639     -772     -896    -1034    -1144 
   -1210    -1293    -1367    -1390    -1428    -1474    -1474    -1468 
   -1463    -1424    -1387    -1350    -1289    -1231    -1151    -1066 
    -965     -822     -696     -564     -379     -203      -52       98 
     229      311      371      460      553      635      757      892 
     980     1058     1142     1178     1219     1298     1363     1413 
    1468     1521     1553     1571     1607     1615     1582     1570 
    1510     1406     1328     1228     1109     1032      967      880 
     781      679      556      403      259      129      -35     -197 
    -326     -502     -683     -816     -990    -1179    -1331    -1476 
   -1614    -1715    -1767    -1803    -1838    -1825    -1807    -1810 
   -1780    -1732    -1683    -1611    -1530    -1458    -1397    -1358 
   -1335    -1317    -1294    -1250    -1220    -1200    -1158    -1147 
   -1156    -1129    -1104    -1054     -954     -845     -727     -626 
    -533     -432     -364     -297     -175      -47       71      221 
     364      477      585      676      750      832      936     1046 
    1124     1210     1298     1312     1308     1309     1289     1302 
    1317     1290     1256     1209     1139     1062     1004      970 
     927      885      876      850      808      792      773      751 
     760      751      714      666      584      480      369      276 
     199       90      -10      -98     -232     -346     -422     -503 
    -571     -618     -660     -697     -716     -712     -727     -769 
    -795     -816     -850     -839     -804     -789     -749     -702 
    -680     -665     -662     -654     -650     -648     -611     -589 
    -571     -511     -476     -486     -481     -475     -492     -492 
    -460     -437     -434     -425     -409     -423     -421     -363 
    -317     -245     -120      -40       12       79      124      164 
     244      364      481      588      716      816      881      980 
    1066     1096     1139     1185     1166     1147     1152     1123 
    1069     1019      961      862      758      702      618      515 
     471      402      299      220      124       13      -75     -137 
    -193     -259     -311     -371     -468     -554     -616     -702 
    -761     -753     -750     -747     -711     -687     -684     -688 
    -672     -657     -679     -688     -714     -792     -851     -891 
    -940     -969     -970     -974     -984     -954     -886     -826 
    -761     -648     -531     -436     -292     -164      -97       10 
     117      190      288      396      484      553      642      733 
     757      803      881      904      945     1040     1107     1140 
    1185     1200     1167     1131     1085     1001      916      870 
     823      749      703      634      510      430      359      252 
     172      121       75       25      -12      -36      -97     -167 
    -221     -315     -411     -461     -529     -614     -657     -679 
    -711     -731     -735     -733     -745     -745     -715     -727 
    -743     -733     -758     -761     -715     -692     -664     -602 
    -534     -488     -437     -349     -282     -244     -166      -83 
     -41       17       83      117      164      222      251      275 
     301      332      356      376      432      475      525      625 
     688      741      850      934      966      996     1026     1011 
     969      958      945      882      827      789      697      612 
     576      492      403      360      288      214      172      139 
      97       51       20      -32      -95     -110     -130     -190 
    -229     -264     -325     -376     -410     -448     -488     -517 
    -518     -522     -534     -500     -476     -465     -403     -357 
    -334     -256     -167     -101      -28       56      128      162 
     187      202      182      189      207      171      129      118 
      78       29       14       -1      -40      -82      -97     -114 
    -157     -164     -167     -211     -232     -252     -301     -326 
    -341     -363     -365     -352     -348     -359     -352     -330 
    -325     -295     -213     -162     -143      -93      -75      -94 
     -95      -98      -97      -90      -71      -48      -66      -72 
     -67     -112     -140     -135     -143     -136      -99      -62 
     -47      -43      -28      -31      -52      -40      -22      -35 
     -14       10       -2        8       24       18       37       64 
      87       94      102      130      130      143      213      245 
     237      261      275      251      234      251      260      237 
     209      174       94       31       14      -25      -44       -4 
      -6      -29      -24      -52     -103     -136     -160     -189 
    -213     -222     -256     -301     -307     -321     -360     -359 
    -334     -346     -346     -315     -297     -274     -245     -221 
    -213     -207     -153      -93      -55        2       37       43 
      76      125      172      225      284      325      333      355 
     395      407      425      473      490      490      506      479 
     438      418      390      371      369      369      338      282 
     264      249      221      245      253      217      213      217 
     191      172      171      148      110       95       90       44 
      -8      -22      -67     -118      -99     -101     -135     -135 
    -160     -210     -234     -245     -265     -299     -309     -332 
    -395     -409     -388     -407     -410     -380     -372     -371 
