Origin Time       2025/01/13 21:19:00
Lat.              31.8
Long.             131.6
Depth. (km)       30
Mag.              6.9
Station Code      TKS002
Station Lat.      34.0439
Station Long.     134.5820
Station Height(m) 2
Record Time       2025/01/13 21:21:37
Sampling Freq(Hz) 100Hz
Duration Time(s)  60
Dir.              E-W
Scale Factor      7845(gal)/8223790
Max. Acc. (gal)   2.301
Last Correction   2025/01/13 21:21:36
Memo.             
[...]
   -1058    -1067    -1073    -1085    -1127    -1151    -1140    -1108 
   -1069    -1061    -1059    -1054    -1070    -1048     -978     -959 
    -990    -1040    -1173    -1347    -1439    -1463    -1493    -1549 
   -1632    -1682    -1679    -1715    -1796    -1865    -1935    -1993 
   -1958    -1842    -1791    -1806    -1777    -1748    -1730    -1652 
   -1555    -1517    -1518    -1512    -1498    -1495    -1489    -1440 
   -1401    -1426    -1440    -1404    -1355    -1336    -1331    -1294 
   -1256    -1251    -1255    -1278    -1313    -1327    -1332    -1345 
   -1339    -1296    -1246    -1250    -1287    -1290    -1262    -1240 
   -1237    -1223    -1156    -1058     -988     -935     -858     -795 
    -761     -733     -734     -769     -812     -866     -946    -1019 
   -1050    -1074    -1107    -1112    -1111    -1151    -1208    -1221 
   -1165    -1090    -1043     -997     -976     -990    -1017    -1046 
   -1063    -1101    -1171    -1243    -1309    -1341    -1329    -1316 
   -1341    -1397    -1405    -1347    -1305    -1310    -1308    -1289 
   -1281    -1273    -1235    -1166    -1098    -1067    -1082    -1101 
   -1102    -1123    -1148    -1158    -1177    -1200    -1217    -1227 
   -1247    -1294    -1343    -1391    -1439    -1455    -1476    -1478 
   -1416    -1350    -1321    -1331    -1360    -1391    -1408    -1382 
   -1402    -1505    -1590    -1637    -1660    -1656    -1661    -1691 
   -1729    -1787    -1838    -1845    -1840    -1864    -1875    -1833 
   -1780    -1755    -1714    -1653    -1622    -1629    -1637    -1606 
   -1532    -1445    -1351    -1287    -1291    -1298    -1267    -1221 
   -1165    -1109    -1077    -1065    -1024     -930     -841     -810 
    -801     -766     -719     -704     -699     -675     -677     -708 
    -704     -662     -608     -533     -456     -434     -450     -444 
    -427     -430     -422     -409     -405     -425     -479     -500 
    -479     -538     -685     -781     -789     -757     -714     -719 
    -810     -923    -1011    -1089    -1175    -1246    -1297    -1371 
   -1452    -1491    -1463    -1416    -1455    -1610    -1765    -1784 
   -1678    -1603    -1672    -1853    -1991    -1966    -1844    -1790 
   -1885    -2037    -2103    -2034    -1900    -1827    -1879    -2008 
   -2124    -2143    -2056    -1941    -1873    -1888    -2000    -2128 
   -2128    -2008    -1938    -2022    -2162    -2184    -2038    -1911 
   -1949    -2023    -2038    -2030    -1941    -1775    -1661    -1624 
   -1617    -1618    -1580    -1512    -1462    -1404    -1347    -1343 
   -1331    -1224    -1109    -1090    -1051     -935     -870     -842 
    -793     -792     -831     -843     -811     -738     -673     -672 
    -703     -703     -692     -696     -684     -654     -630     -610 
    -619     -639     -606     -544     -523     -549     -584     -592 
    -556     -527     -560     -661     -781     -847     -850     -858 
    -892     -924     -943     -973    -1034    -1075    -1069    -1059 
   -1093    -1152    -1215    -1256    -1255    -1255    -1321    -1425 
   -1502    -1532    -1529    -1530    -1561    -1626    -1707    -1784 
   -1850    -1869    -1841    -1846    -1902    -1919    -1863    -1804 
   -1771    -1741    -1737    -1736    -1687    -1603    -1539    -1534 
   -1568    -1574    -1543    -1502    -1467    -1447    -1425    -1374 
   -1302    -1244    -1227    -1213    -1166    -1123    -1097    -1086 
   -1096    -1097    -1102    -1155    -1223    -1281    -1348    -1435 
   -1528    -1582    -1621    -1702    -1792    -1860    -1899    -1922 
   -1949    -1965    -1964    -1944    -1890    -1825    -1773    -1680 
   -1526    -1358    -1213    -1100     -994     -896     -823     -776 
    -742     -726     -731     -754     -766     -757     -760     -762 
    -743     -737     -773     -819     -822     -811     -849     -904 
    -943     -976     -980     -976    -1021    -1071    -1084    -1094 
   -1090    -1075    -1090    -1101    -1080    -1085    -1124    -1128 
   -1117    -1120    -1093    -1027     -945     -826     -714     -677 
    -662     -591     -502     -453     -444     -473     -527     -573 
    -596     -595     -591     -607     -629     -642     -704     -830 
    -915     -926     -981    -1098    -1190    -1251    -1308    -1374 
   -1443    -1485    -1526    -1580    -1613    -1651    -1706    -1701 
   -1638    -1638    -1703    -1696    -1614    -1610    -1667    -1678 
   -1679    -1709    -1742    -1746    -1723    -1701    -1669    -1637 
   -1651    -1692    -1723    -1769    -1845    -1921    -1953    -1976 
   -2015    -2014    -1992    -2000    -1999    -1968    -1917    -1850 
   -1796    -1753    -1707    -1657    -1599    -1545    -1494    -1424 
   -1337    -1264    -1209    -1139    -1044     -984     -976     -961 
    -922     -913     -930     -916     -880     -857     -849     -832 
    -805     -780     -762     -749     -733     -723     -695     -654 
    -664     -708     -746     -796     -874     -934     -946     -953 
    -965     -949     -901     -859     -824     -764     -704     -680 
    -673     -661     -649     -633     -595     -557     -544     -560 
    -584     -591     -619     -664     -683     -720     -824     -969 
   -1085    -1193    -1332    -1471    -1584    -1682    -1791    -1890 
   -1942    -1985    -2025    -2047    -2070    -2106    -2131    -2128 
   -2143    -2182    -2195    -2207    -2232    -2261    -2269    -2254 
   -2255    -2253    -2231    -2197    -2160    -2137    -2092    -2037 
   -1999    -1956    -1929    -1911    -1863    -1795    -1744    -1732 
   -1723    -1702    -1686    -1657    -1617    -1578    -1540    -1502 
   -1455    -1399    -1332    -1246    -1140    -1031     -926     -792 
    -654     -564     -487     -373     -256     -189     -137      -59 
     -13      -45      -86      -98     -130     -197     -272     -336 
    -380     -432     -500     -569     -622     -664     -707     -761 
    -828     -865     -876     -926    -1004    -1058    -1078    -1096 
   -1136    -1166    -1155    -1136    -1140    -1140    -1113    -1092 
   -1069    -1034     -997     -943     -881     -830     -769     -692 
    -639     -641     -650     -653     -680     -715     -766     -862 
    -959    -1044    -1161    -1274    -1347    -1404    -1466    -1541 
   -1638    -1729    -1782    -1817    -1867    -1922    -1964    -1998 
   -2019    -2022    -2006    -1977    -1972    -1998    -2018    -2019 
   -2019    -2008    -1972    -1931    -1891    -1827    -1771    -1723 
   -1647    -1572    -1521    -1467    -1425    -1393    -1354    -1313 
   -1274    -1247    -1233    -1252    -1294    -1328    -1351    -1375 
   -1391    -1385    -1364    -1340    -1297    -1263    -1264    -1256 
   -1228    -1215    -1209    -1205    -1205    -1178    -1120    -1057 
   -1009     -990     -978     -959     -946     -924     -899     -881 
    -855     -822     -787     -747     -733     -724     -693     -661 
    -630     -576     -538     -550     -531     -477     -463     -467 
    -461     -468     -492     -530     -561     -568     -565     -573 
    -595     -602     -575     -573     -630     -668     -669     -680 
    -699     -707     -706     -706     -714     -735     -773     -814 
    -858     -901     -954    -1011    -1043    -1109    -1232    -1340 
   -1426    -1517    -1628    -1748    -1848    -1938    -2035    -2139 
   -2227    -2300    -2386    -2471    -2547    -2610    -2654    -2674 
   -2687    -2706    -2690    -2644    -2624    -2608    -2575    -2529 
   -2475    -2411    -2332    -2258    -2168    -2056    -1938    -1765 
   -1552    -1374    -1247    -1146    -1038     -939     -839     -726 
    -625     -534     -460     -406     -367     -349     -341     -363 
    -413     -438     -467     -522     -585     -634     -660     -733 
    -857     -970    -1059    -1144    -1242    -1312    -1324    -1331 
   -1333    -1328    -1304    -1231    -1158    -1112    -1051     -963 
    -861     -778     -726     -665     -571     -479     -454     -477 
    -492     -500     -534     -595     -643     -692     -777     -886 
   -1015    -1155    -1305    -1455    -1601    -1768    -1915    -2035 
   -2166    -2259    -2308    -2349    -2401    -2474    -2505    -2504 
   -2517    -2504    -2465    -2430    -2381    -2323    -2261    -2199 
   -2128    -2073    -2027    -1948    -1877    -1819    -1734    -1655 
   -1566    -1486    -1471    -1472    -1463    -1439    -1414    -1422 
   -1416    -1395    -1402    -1429    -1460    -1445    -1422    -1468 
   -1501    -1478    -1429    -1362    -1306    -1233    -1105     -949 
    -807     -729     -669     -564     -459     -363     -241     -105 
       0       40       41       59      137      241      282      271 
     253      243      229      164       81       17      -56     -144 
    -228     -297     -363     -450     -548     -645     -720     -789 
    -911    -1054    -1156    -1246    -1343    -1425    -1482    -1539 
   -1593    -1638    -1686    -1707    -1714    -1732    -1729    -1710 
   -1699    -1709    -1723    -1715    -1690    -1675    -1682    -1701 
   -1713    -1715    -1722    -1744    -1764    -1759    -1749    -1753 
   -1761    -1760    -1757    -1783    -1814    -1811    -1784    -1744 
   -1687    -1618    -1549    -1493    -1445    -1406    -1348    -1270 
   -1217    -1175    -1121    -1074    -1034     -989     -942     -892 
    -869     -862     -854     -850     -834     -812     -803     -787 
    -743     -703     -695     -691     -683     -692     -708     -733 
    -756     -773     -800     -826     -838     -835     -824     -834 
    -862     -896     -922     -931     -962     -997    -1024    -1063 
   -1104    -1159    -1213    -1250    -1306    -1360    -1399    -1429 
   -1437    -1472    -1505    -1506    -1541    -1590    -1609    -1615 
   -1628    -1651    -1669    -1695    -1730    -1740    -1755    -1811 
   -1849    -1841    -1841    -1854    -1852    -1849    -1840    -1811 
   -1782    -1742    -1696    -1655    -1638    -1655    -1674    -1702 
   -1757    -1819    -1867    -1884    -1898    -1935    -1969    -1984 
   -1988    -1998    -2018    -2010    -1980    -1957    -1941    -1917 
   -1883    -1863    -1831    -1779    -1734    -1678    -1626    -1599 
   -1545    -1470    -1406    -1354    -1310    -1263    -1208    -1142 
   -1065     -974     -870     -791     -737     -660     -568     -494 
    -441     -387     -333     -288     -251     -216     -182     -144 
    -118     -121     -125     -121     -130     -156     -182     -218 
    -249     -286     -341     -394     -444     -498     -556     -626 
    -692     -757     -820     -892     -990    -1102    -1212    -1318 
   -1412    -1479    -1516    -1539    -1568    -1593    -1605    -1603 
   -1582    -1556    -1533    -1503    -1471    -1466    -1468    -1436 
   -1404    -1391    -1377    -1356    -1343    -1335    -1323    -1301 
   -1278    -1262    -1264    -1279    -1277    -1256    -1258    -1309 
   -1359    -1370    -1404    -1466    -1494    -1498    -1510    -1528 
   -1547    -1586    -1625    -1642    -1678    -1719    -1728    -1736 
   -1761    -1775    -1755    -1734    -1730    -1718    -1702    -1694 
   -1675    -1641    -1617    -1606    -1584    -1564    -1560    -1540 
   -1518    -1512    -1494    -1467    -1445    -1431    -1416    -1404 
   -1382    -1352    -1354    -1368    -1355    -1335    -1316    -1291 
   -1264    -1215    -1136    -1047     -970     -893     -803     -706 
    -603     -491     -357     -201      -62       31      105      190 
     257      286      310      351      378      382      372      368 
     356      332      315      276      211      143       66        6 
     -17      -40      -82     -133     -189     -260     -351     -463 
    -596     -711     -827     -992    -1156    -1279    -1393    -1518 
   -1641    -1756    -1876    -2008    -2147    -2273    -2373    -2455 
   -2528    -2605    -2681    -2732    -2772    -2828    -2876    -2891 
   -2894    -2916    -2947    -2978    -3018    -3056    -3080    -3100 
   -3102    -3086    -3064    -3053    -3036    -2994    -2957    -2926 
   -2878    -2826    -2766    -2693    -2640    -2575    -2473    -2377 
   -2305    -2235    -2153    -2054    -1948    -1827    -1680    -1517 
   -1370    -1240    -1101     -943     -785     -642     -519     -409 
    -295     -197     -122      -29       78      157      217      276 
     341      430      525      588      641      702      743      768 
     807      849      885      923      936      942      959      969 
     961      963      985      993      965      911      832      742 
     629      475      299      133      -10     -195     -437     -653 
    -843    -1046    -1264    -1485    -1684    -1863    -2033    -2193 
   -2335    -2457    -2581    -2722    -2857    -2967    -3084    -3210 
   -3302    -3365    -3438    -3505    -3553    -3569    -3554    -3558 
   -3578    -3584    -3566    -3532    -3528    -3542    -3535    -3505 
   -3456    -3406    -3342    -3248    -3157    -3065    -2957    -2830 
   -2701    -2574    -2435    -2288    -2126    -1976    -1869    -1763 
   -1656    -1552    -1455    -1390    -1317    -1240    -1169    -1089 
   -1017     -922     -796     -654     -496     -334     -145       49 
     232      418      585      738      850      923      996     1050 
    1105     1131     1116     1142     1167     1170     1151     1098 
    1070     1017      923      831      716      614      479      306 
     167        9     -148     -317     -513     -653     -797     -940 
   -1046    -1198    -1325    -1432    -1567    -1667    -1757    -1817 
   -1863    -1945    -1976    -2023    -2106    -2133    -2178    -2203 
   -2189    -2218    -2201    -2162    -2142    -2092    -2070    -2045 
   -1998    -1996    -1989    -1985    -1980    -1931    -1922    -1917 
   -1884    -1869    -1796    -1728    -1692    -1602    -1545    -1525 
   -1497    -1494    -1452    -1441    -1486    -1449    -1416    -1410 
   -1372    -1354    -1309    -1247    -1223    -1179    -1150    -1129 
   -1081    -1070    -1065    -1057    -1089    -1092    -1085    -1092 
   -1067    -1085    -1143    -1154    -1159    -1182    -1213    -1270 
   -1302    -1320    -1372    -1410    -1452    -1516    -1557    -1614 
   -1659    -1659    -1686    -1718    -1744    -1802    -1826    -1840 
   -1877    -1880    -1883    -1883    -1863    -1881    -1868    -1800 
   -1767    -1718    -1659    -1611    -1520    -1425    -1341    -1236 
   -1142    -1044     -954     -896     -812     -727     -689     -649 
    -608     -584     -556     -544     -535     -500     -486     -491 
    -476     -465     -457     -445     -450     -456     -469     -515 
    -565     -615     -657     -665     -691     -746     -778     -808 
    -849     -872     -897     -936     -977    -1019    -1047    -1051 
   -1055    -1069    -1092    -1138    -1167    -1171    -1200    -1220 
   -1216    -1237    -1263    -1289    -1329    -1367    -1420    -1487 
   -1551    -1611    -1656    -1698    -1760    -1809    -1838    -1875 
   -1891    -1880    -1869    -1844    -1829    -1854    -1863    -1850 
   -1856    -1856    -1840    -1814    -1783    -1752    -1713    -1652 
   -1597    -1567    -1559    -1567    -1556    -1525    -1516    -1493 
   -1443    -1421    -1408    -1377    -1358    -1324    -1271    -1239 
   -1206    -1154    -1117    -1119    -1115    -1082    -1047    -1017 
    -988     -958     -926     -889     -841     -791     -733     -656 
    -595     -542     -471     -403     -349     -313     -294     -287 
    -275     -251     -256     -306     -382     -477     -530     -527 
    -557     -637     -715     -780     -831     -855     -859     -909 
    -990    -1011    -1013    -1069    -1121    -1154    -1189    -1216 
   -1239    -1255    -1236    -1216    -1233    -1260    -1285    -1316 
   -1354    -1413    -1458    -1474    -1480    -1444    -1395    -1382 
   -1366    -1354    -1374    -1368    -1331    -1317    -1331    -1341 
   -1363    -1414    -1455    -1472    -1503    -1533    -1548    -1574 
   -1605    -1626    -1624    -1615    -1632    -1618    -1570    -1545 
   -1507    -1448    -1417    -1370    -1287    -1232    -1215    -1197 
   -1193    -1217    -1212    -1177    -1182    -1224    -1267    -1297 
   -1306    -1327    -1360    -1378    -1387    -1402    -1448    -1528 
   -1591    -1614    -1630    -1665    -1710    -1717    -1703    -1722 
   -1740    -1744    -1771    -1792    -1791    -1794    -1811    -1836 
   -1865    -1896    -1894    -1876    -1898    -1914    -1887    -1852 
   -1821    -1803    -1809    -1800    -1768    -1728    -1701    -1672 
   -1617    -1570    -1536    -1501    -1476    -1451    -1409    -1372 
   -1333    -1279    -1236    -1198    -1147    -1098    -1066    -1035 
    -982     -926     -891     -884     -889     -885     -872     -859 
    -847     -846     -830     -781     -751     -747     -749     -768 
    -792     -811     -830     -830     -823     -838     -847     -837 
    -815     -787     -769     -753     -714     -676     -666     -661 
    -641     -638     -652     -654     -658     -656     -639     -634 
    -635     -633     -641     -654     -650     -621     -595     -599 
    -610     -621     -646     -661     -652     -658     -679     -707 
    -739     -760     -762     -770     -811     -862     -895     -932 
    -993    -1066    -1132    -1189    -1236    -1277    -1340    -1408 
   -1436    -1459    -1485    -1510    -1553    -1563    -1533    -1522 
   -1512    -1489    -1474    -1472    -1482    -1490    -1491    -1494 
   -1503    -1534    -1580    -1622    -1659    -1702    -1740    -1763 
   -1794    -1840    -1867    -1890    -1917    -1950    -1991    -1993 
   -1991    -2042    -2118    -2180    -2226    -2281    -2365    -2436 
   -2473    -2502    -2535    -2548    -2532    -2508    -2489    -2486 
   -2481    -2435    -2373    -2328    -2270    -2205    -2139    -2058 
   -1981    -1884    -1761    -1651    -1545    -1451    -1367    -1267 
   -1192    -1139    -1058     -981     -915     -820     -737     -669 
    -591     -530     -491     -429     -355     -282     -213     -160 
    -108      -52       -8       43       98      153      233      306 
     357      421      460      457      459      452      436      409 
     355      321      291      236      180      126       85       60 
       9      -67     -149     -238     -334     -457     -602     -726 
    -842     -969    -1092    -1213    -1337    -1449    -1564    -1692 
   -1813    -1933    -2065    -2195    -2331    -2473    -2609    -2749 
   -2867    -2949    -3036    -3130    -3211    -3269    -3315    -3370 
   -3410    -3418    -3427    -3422    -3384    -3354    -3304    -3202 
   -3109    -3038    -2937    -2805    -2679    -2566    -2423    -2253 
   -2108    -1971    -1819    -1684    -1540    -1378    -1228    -1074 
    -907     -751     -612     -477     -341     -205      -79       39 
     148      237      318      384      429      469      500      513 
     508      500      510      517      486      446      425      395 
     345      282      195      114       44      -52     -160     -252 
