Origin Time       2025/01/13 21:19:00
Lat.              31.8
Long.             131.6
Depth. (km)       30
Mag.              6.9
Station Code      TKS007
Station Lat.      34.0903
Station Long.     134.2854
Station Height(m) 50
Record Time       2025/01/13 21:21:29
Sampling Freq(Hz) 100Hz
Duration Time(s)  68
Dir.              U-D
Scale Factor      7845(gal)/8223790
Max. Acc. (gal)   1.357
Last Correction   2025/01/13 21:21:29
Memo.             
[...]
   -9207    -9229    -9243    -9244    -9258    -9270    -9262    -9266 
   -9294    -9315    -9325    -9336    -9336    -9351    -9389    -9401 
   -9386    -9385    -9386    -9366    -9354    -9350    -9328    -9304 
   -9296    -9302    -9329    -9354    -9351    -9342    -9344    -9354 
   -9360    -9343    -9305    -9267    -9220    -9189    -9193    -9190 
   -9167    -9153    -9148    -9130    -9107    -9116    -9138    -9127 
   -9109    -9109    -9097    -9088    -9113    -9142    -9131    -9113 
   -9123    -9132    -9132    -9147    -9162    -9157    -9162    -9167 
   -9177    -9208    -9234    -9254    -9297    -9335    -9359    -9383 
   -9409    -9436    -9458    -9467    -9471    -9478    -9485    -9477 
   -9454    -9443    -9440    -9425    -9416    -9417    -9413    -9417 
   -9447    -9475    -9481    -9489    -9509    -9516    -9506    -9498 
   -9472    -9433    -9408    -9393    -9373    -9354    -9347    -9352 
   -9359    -9358    -9354    -9363    -9382    -9382    -9359    -9342 
   -9336    -9324    -9312    -9313    -9310    -9294    -9293    -9309 
   -9304    -9297    -9316    -9327    -9317    -9320    -9323    -9308 
   -9302    -9309    -9292    -9265    -9263    -9271    -9265    -9255 
   -9248    -9232    -9205    -9184    -9178    -9175    -9167    -9159 
   -9159    -9167    -9170    -9167    -9158    -9140    -9126    -9105 
   -9085    -9084    -9089    -9084    -9074    -9063    -9039    -9016 
   -9016    -9023    -9027    -9035    -9047    -9058    -9072    -9089 
   -9100    -9107    -9130    -9161    -9163    -9147    -9138    -9124 
   -9108    -9109    -9113    -9109    -9112    -9128    -9138    -9132 
   -9147    -9170    -9170    -9174    -9193    -9194    -9198    -9231 
   -9262    -9271    -9281    -9288    -9271    -9244    -9229    -9224 
   -9221    -9219    -9211    -9189    -9167    -9166    -9171    -9157 
   -9136    -9134    -9132    -9124    -9121    -9131    -9134    -9139 
   -9154    -9154    -9136    -9134    -9134    -9116    -9100    -9097 
   -9082    -9063    -9066    -9066    -9045    -9023    -9016    -9019 
   -9018    -9013    -9019    -9013    -8993    -8978    -8977    -8977 
   -8972    -8981    -9007    -9019    -9024    -9042    -9055    -9074 
   -9104    -9119    -9126    -9138    -9159    -9188    -9216    -9250 
   -9289    -9320    -9337    -9350    -9370    -9397    -9414    -9431 
   -9454    -9470    -9475    -9505    -9535    -9526    -9517    -9524 
   -9509    -9489    -9483    -9470    -9443    -9428    -9428    -9416 
   -9393    -9374    -9350    -9327    -9313    -9300    -9286    -9279 
   -9277    -9273    -9279    -9296    -9296    -9278    -9263    -9258 
   -9254    -9246    -9239    -9238    -9232    -9220    -9221    -9232 
   -9239    -9242    -9242    -9232    -9228    -9239    -9248    -9235 
   -9219    -9216    -9209    -9202    -9209    -9213    -9204    -9201 
   -9197    -9173    -9154    -9154    -9139    -9112    -9097    -9090 
   -9078    -9076    -9081    -9076    -9066    -9065    -9066    -9067 
   -9061    -9038    -9020    -9019    -9016    -9022    -9043    -9040 
   -9027    -9035    -9040    -9039    -9043    -9043    -9039    -9042 
   -9050    -9061    -9078    -9101    -9117    -9128    -9140    -9144 
   -9143    -9148    -9154    -9165    -9181    -9185    -9184    -9181 
   -9170    -9167    -9169    -9157    -9148    -9155    -9169    -9181 
   -9190    -9200    -9217    -9240    -9266    -9274    -9265    -9261 
   -9275    -9289    -9286    -9289    -9301    -9305    -9297    -9286 
   -9274    -9261    -9251    -9242    -9234    -9236    -9240    -9232 
   -9225    -9234    -9244    -9258    -9270    -9266    -9262    -9277 
   -9294    -9309    -9331    -9350    -9359    -9370    -9391    -9404 
   -9409    -9433    -9464    -9485    -9513    -9543    -9551    -9570 
   -9610    -9632    -9633    -9637    -9639    -9626    -9607    -9602 
   -9609    -9601    -9589    -9586    -9567    -9545    -9544    -9533 
   -9508    -9495    -9481    -9454    -9439    -9427    -9402    -9386 
   -9386    -9366    -9335    -9331    -9331    -9306    -9286    -9275 
   -9246    -9215    -9205    -9202    -9182    -9165    -9167    -9173 
   -9169    -9166    -9153    -9121    -9093    -9082    -9078    -9062 
   -9045    -9043    -9040    -9027    -9012    -8997    -8985    -8977 
   -8978    -8974    -8954    -8938    -8942    -8962    -8984    -8992 
   -8997    -9012    -9024    -9024    -9031    -9043    -9040    -9027 
   -9023    -9020    -9015    -9012    -9012    -9011    -9007    -8997 
   -8985    -8980    -8978    -8965    -8949    -8942    -8941    -8945 
   -8946    -8942    -8943    -8955    -8970    -8981    -8991    -9001 
   -9024    -9059    -9090    -9123    -9163    -9198    -9232    -9277 
   -9304    -9327    -9370    -9409    -9433    -9454    -9464    -9474 
   -9482    -9485    -9489    -9485    -9471    -9459    -9450    -9454 
   -9459    -9458    -9466    -9482    -9491    -9504    -9505    -9491 
   -9483    -9478    -9462    -9440    -9413    -9385    -9364    -9352 
   -9346    -9329    -9302    -9286    -9283    -9281    -9277    -9277 
   -9271    -9255    -9250    -9258    -9263    -9254    -9235    -9227 
   -9225    -9217    -9212    -9212    -9196    -9171    -9166    -9169 
   -9153    -9139    -9139    -9130    -9124    -9131    -9126    -9115 
   -9113    -9112    -9115    -9131    -9153    -9163    -9158    -9155 
   -9175    -9201    -9216    -9234    -9261    -9281    -9297    -9329 
   -9362    -9379    -9393    -9400    -9396    -9398    -9414    -9435 
   -9452    -9463    -9472    -9482    -9487    -9495    -9508    -9508 
   -9498    -9497    -9498    -9490    -9475    -9450    -9420    -9397 
   -9373    -9346    -9315    -9286    -9265    -9243    -9223    -9197 
   -9158    -9126    -9111    -9093    -9072    -9055    -9043    -9039 
   -9039    -9031    -9022    -9013    -9011    -9018    -9018    -9009 
   -9008    -9012    -9013    -9027    -9047    -9062    -9070    -9066 
   -9063    -9077    -9084    -9084    -9097    -9111    -9121    -9142 
   -9155    -9163    -9170    -9166    -9155    -9157    -9167    -9184 
   -9196    -9208    -9223    -9221    -9205    -9198    -9197    -9185 
   -9166    -9157    -9148    -9132    -9120    -9116    -9107    -9092 
   -9096    -9099    -9089    -9099    -9112    -9115    -9119    -9115 
   -9094    -9085    -9073    -9042    -9022    -9015    -9007    -9012 
   -9023    -9031    -9038    -9043    -9049    -9055    -9058    -9061 
   -9076    -9103    -9119    -9120    -9135    -9157    -9171    -9188 
   -9197    -9193    -9205    -9232    -9254    -9271    -9290    -9301 
   -9305    -9309    -9309    -9300    -9293    -9302    -9320    -9328 
   -9333    -9346    -9356    -9363    -9375    -9375    -9367    -9358 
   -9342    -9335    -9337    -9325    -9309    -9315    -9319    -9308 
   -9296    -9281    -9256    -9236    -9229    -9224    -9215    -9202 
   -9196    -9204    -9216    -9221    -9223    -9223    -9221    -9224 
   -9235    -9259    -9274    -9282    -9300    -9319    -9337    -9366 
   -9394    -9418    -9440    -9448    -9462    -9491    -9508    -9517 
   -9544    -9567    -9567    -9570    -9585    -9594    -9597    -9601 
   -9607    -9605    -9601    -9606    -9609    -9598    -9579    -9555 
   -9524    -9498    -9482    -9456    -9416    -9383    -9362    -9335 
   -9298    -9270    -9242    -9208    -9175    -9153    -9134    -9111 
   -9092    -9080    -9066    -9055    -9057    -9059    -9057    -9059 
   -9069    -9077    -9072    -9070    -9090    -9103    -9107    -9123 
   -9143    -9161    -9180    -9197    -9212    -9216    -9215    -9224 
   -9239    -9250    -9255    -9261    -9263    -9256    -9250    -9251 
   -9255    -9262    -9274    -9275    -9279    -9288    -9278    -9261 
   -9255    -9252    -9244    -9234    -9227    -9236    -9252    -9261 
   -9265    -9273    -9283    -9290    -9286    -9278    -9282    -9290 
   -9286    -9269    -9243    -9219    -9204    -9192    -9173    -9155 
   -9151    -9153    -9147    -9138    -9130    -9123    -9119    -9116 
   -9113    -9111    -9112    -9116    -9126    -9136    -9146    -9148 
   -9148    -9150    -9154    -9153    -9153    -9165    -9189    -9208 
   -9208    -9204    -9197    -9186    -9186    -9196    -9192    -9184 
   -9182    -9177    -9166    -9153    -9143    -9131    -9117    -9107 
   -9089    -9065    -9055    -9049    -9031    -9020    -9013    -8992 
   -8968    -8958    -8953    -8943    -8950    -8973    -8984    -8985 
   -8999    -9011    -9012    -9024    -9042    -9046    -9055    -9077 
   -9081    -9069    -9065    -9065    -9058    -9061    -9078    -9090 
   -9103    -9127    -9154    -9175    -9198    -9219    -9229    -9238 
   -9243    -9248    -9256    -9263    -9273    -9289    -9305    -9313 
   -9327    -9360    -9391    -9412    -9435    -9455    -9467    -9483 
   -9504    -9514    -9521    -9532    -9545    -9562    -9572    -9579 
   -9589    -9591    -9583    -9582    -9585    -9579    -9575    -9567 
   -9549    -9531    -9512    -9497    -9487    -9474    -9463    -9466 
   -9464    -9462    -9470    -9472    -9468    -9471    -9472    -9477 
   -9490    -9498    -9504    -9514    -9532    -9556    -9580    -9603 
   -9625    -9634    -9640    -9659    -9686    -9707    -9718    -9726 
   -9726    -9717    -9713    -9714    -9705    -9691    -9676    -9653 
   -9634    -9629    -9620    -9599    -9580    -9563    -9535    -9504 
   -9486    -9477    -9464    -9454    -9448    -9439    -9418    -9402 
   -9396    -9379    -9351    -9332    -9306    -9261    -9231    -9209 
   -9166    -9128    -9104    -9066    -9031    -9008    -8984    -8962 
   -8957    -8957    -8945    -8926    -8910    -8895    -8893    -8895 
   -8887    -8874    -8861    -8845    -8829    -8814    -8802    -8784 
   -8761    -8742    -8726    -8710    -8698    -8685    -8683    -8684 
   -8683    -8688    -8708    -8730    -8741    -8756    -8785    -8807 
   -8818    -8834    -8854    -8869    -8889    -8918    -8938    -8950 
   -8973    -9004    -9024    -9039    -9054    -9072    -9097    -9127 
   -9148    -9161    -9171    -9189    -9204    -9213    -9227    -9239 
   -9250    -9265    -9282    -9296    -9312    -9335    -9360    -9378 
   -9393    -9409    -9421    -9424    -9420    -9412    -9401    -9385 
   -9364    -9347    -9325    -9293    -9259    -9225    -9184    -9139 
   -9096    -9051    -9009    -8969    -8926    -8883    -8845    -8811 
   -8775    -8750    -8738    -8718    -8696    -8687    -8675    -8657 
   -8653    -8660    -8669    -8684    -8706    -8741    -8787    -8838 
   -8888    -8945    -9001    -9050    -9097    -9159    -9228    -9282 
   -9324    -9381    -9441    -9487    -9531    -9578    -9620    -9640 
   -9661    -9694    -9718    -9730    -9745    -9760    -9763    -9756 
   -9756    -9761    -9759    -9745    -9736    -9726    -9715    -9711 
   -9706    -9693    -9682    -9676    -9667    -9657    -9657    -9661 
   -9653    -9643    -9640    -9640    -9636    -9625    -9610    -9593 
   -9574    -9552    -9533    -9516    -9490    -9462    -9437    -9408 
   -9378    -9352    -9323    -9290    -9262    -9235    -9209    -9184 
   -9154    -9121    -9096    -9074    -9050    -9026    -9004    -8989 
   -8985    -8984    -8978    -8966    -8955    -8950    -8951    -8958 
   -8958    -8950    -8937    -8918    -8907    -8907    -8900    -8888 
   -8874    -8853    -8838    -8835    -8826    -8818    -8820    -8820 
   -8820    -8838    -8864    -8881    -8905    -8934    -8957    -8988 
   -9028    -9063    -9100    -9130    -9143    -9163    -9189    -9207 
   -9212    -9217    -9231    -9247    -9266    -9283    -9293    -9300 
   -9305    -9302    -9312    -9333    -9346    -9351    -9366    -9383 
   -9396    -9409    -9420    -9428    -9441    -9456    -9472    -9487 
   -9489    -9481    -9478    -9478    -9477    -9478    -9479    -9471 
   -9456    -9441    -9423    -9405    -9397    -9387    -9371    -9358 
   -9347    -9336    -9321    -9302    -9285    -9265    -9238    -9212 
   -9197    -9188    -9174    -9167    -9166    -9158    -9146    -9147 
   -9150    -9139    -9128    -9132    -9138    -9132    -9128    -9127 
   -9109    -9089    -9080    -9061    -9035    -9013    -8989    -8964 
   -8943    -8920    -8893    -8876    -8864    -8846    -8824    -8806 
   -8784    -8758    -8737    -8721    -8708    -8698    -8684    -8667 
   -8657    -8650    -8638    -8633    -8634    -8623    -8617    -8615 
   -8606    -8598    -8596    -8592    -8584    -8577    -8571    -8567 
   -8571    -8581    -8594    -8608    -8627    -8657    -8691    -8718 
   -8743    -8779    -8824    -8874    -8920    -8961    -9000    -9039 
   -9084    -9127    -9162    -9189    -9208    -9225    -9244    -9262 
   -9275    -9292    -9319    -9342    -9348    -9348    -9354    -9363 
   -9373    -9386    -9393    -9383    -9370    -9364    -9360    -9351 
   -9350    -9356    -9359    -9364    -9378    -9390    -9401    -9413 
   -9418    -9417    -9418    -9421    -9421    -9420    -9425    -9429 
   -9424    -9425    -9431    -9428    -9433    -9445    -9459    -9471 
   -9486    -9506    -9533    -9564    -9591    -9625    -9670    -9710 
   -9747    -9796    -9850    -9894    -9946   -10008   -10062   -10116 
  -10174   -10226   -10273   -10323   -10362   -10399   -10449   -10489 
  -10509   -10539   -10578   -10604   -10617   -10628   -10639   -10646 
  -10650   -10654   -10647   -10631   -10606   -10577   -10548   -10515 
  -10470   -10422   -10366   -10304   -10242   -10185   -10141   -10095 
  -10035    -9975    -9925    -9861    -9788    -9728    -9667    -9591 
   -9525    -9466    -9401    -9340    -9285    -9229    -9169    -9105 
   -9042    -8978    -8918    -8860    -8800    -8738    -8675    -8615 
   -8563    -8509    -8459    -8407    -8351    -8305    -8271    -8240 
   -8209    -8175    -8141    -8113    -8082    -8052    -8025    -7998 
   -7971    -7944    -7921    -7898    -7881    -7870    -7862    -7862 
   -7869    -7875    -7881    -7889    -7892    -7901    -7919    -7931 
   -7944    -7974    -8004    -8027    -8055    -8087    -8118    -8156 
   -8199    -8235    -8266    -8299    -8330    -8360    -8388    -8417 
   -8452    -8490    -8525    -8565    -8610    -8649    -8684    -8721 
   -8760    -8797    -8841    -8897    -8959    -9012    -9066    -9128 
   -9188    -9236    -9289    -9347    -9400    -9454    -9520    -9585 
   -9651    -9721    -9786    -9848    -9914    -9975   -10034   -10095 
  -10145   -10188   -10237   -10276   -10303   -10334   -10359   -10376 
  -10392   -10408   -10415   -10415   -10413   -10407   -10393   -10385 
  -10381   -10365   -10347   -10341   -10331   -10315   -10309   -10309 
  -10307   -10311   -10316   -10314   -10303   -10297   -10299   -10295 
  -10291   -10296   -10291   -10276   -10276   -10276   -10264   -10255 
  -10247   -10233   -10224   -10219   -10212   -10210   -10200   -10191 
  -10184   -10168   -10149   -10131   -10104   -10073   -10044   -10014 
   -9981    -9952    -9918    -9883    -9853    -9823    -9784    -9747 
   -9709    -9657    -9605    -9558    -9508    -9456    -9400    -9333 
   -9275    -9223    -9161    -9099    -9038    -8969    -8901    -8839 
   -8775    -8711    -8654    -8615    -8583    -8541    -8499    -8469 
   -8445    -8425    -8405    -8384    -8367    -8347    -8328    -8311 
   -8295    -8280    -8275    -8267    -8253    -8237    -8222    -8210 
   -8202    -8193    -8186    -8176    -8159    -8133    -8122    -8117 
   -8104    -8091    -8083    -8074    -8070    -8075    -8082    -8081 
   -8079    -8087    -8100    -8102    -8106    -8116    -8124    -8132 
   -8147    -8166    -8182    -8202    -8222    -8247    -8275    -8297 
   -8318    -8341    -8357    -8375    -8402    -8432    -8455    -8479 
   -8509    -8536    -8565    -8602    -8642    -8685    -8729    -8770 
   -8807    -8845    -8897    -8958    -9015    -9065    -9109    -9157 
   -9205    -9247    -9292    -9335    -9369    -9398    -9425    -9452 
   -9482    -9506    -9526    -9548    -9560    -9563    -9574    -9591 
   -9607    -9622    -9636    -9647    -9659    -9675    -9690    -9706 
   -9724    -9738    -9742    -9748    -9760    -9774    -9782    -9779 
   -9774    -9771    -9769    -9767    -9765    -9765    -9771    -9780 
   -9786    -9792    -9802    -9813    -9825    -9844    -9861    -9875 
   -9903    -9938    -9964    -9990   -10021   -10048   -10079   -10118 
  -10153   -10176   -10207   -10243   -10262   -10276   -10293   -10299 
  -10292   -10288   -10284   -10280   -10276   -10266   -10255   -10246 
  -10231   -10220   -10210   -10187   -10157   -10127   -10091   -10056 
  -10019    -9972    -9923    -9879    -9837    -9782    -9718    -9657 
   -9599    -9537    -9475    -9405    -9328    -9259    -9197    -9139 
   -9080    -9016    -8961    -8916    -8865    -8814    -8770    -8725 
   -8681    -8642    -8598    -8561    -8534    -8506    -8479    -8455 
   -8434    -8424    -8418    -8406    -8394    -8384    -8375    -8375 
   -8382    -8386    -8397    -8411    -8426    -8438    -8448    -8464 
   -8482    -8500    -8525    -8548    -8571    -8600    -8627    -8652 
   -8679    -8712    -8746    -8775    -8803    -8838    -8865    -8889 
   -8928    -8962    -8980    -9000    -9026    -9042    -9057    -9082 
   -9109    -9132    -9154    -9171    -9190    -9219    -9243    -9261 
   -9279    -9298    -9313    -9329    -9352    -9375    -9390    -9401 
   -9416    -9427    -9435    -9447    -9455    -9452    -9450    -9452 
   -9451    -9436    -9414    -9393    -9374    -9355    -9335    -9319 
   -9302    -9282    -9263    -9246    -9232    -9213    -9193    -9177 
   -9162    -9151    -9143    -9135    -9130    -9128    -9131    -9130 
   -9127    -9126    -9126    -9127    -9136    -9138    -9130    -9132 
   -9142    -9143    -9148    -9165    -9180    -9194    -9205    -9211 
   -9217    -9236    -9258    -9274    -9288    -9300    -9320    -9351 
   -9378    -9394    -9409    -9429    -9454    -9485    -9508    -9522 
   -9544    -9570    -9591    -9609    -9628    -9647    -9660    -9668 
   -9667    -9659    -9657    -9657    -9649    -9637    -9626    -9610 
   -9594    -9582    -9566    -9548    -9537    -9524    -9505    -9494 
   -9481    -9460    -9440    -9425    -9413    -9398    -9379    -9360 
   -9342    -9313    -9277    -9244    -9220    -9193    -9165    -9142 
   -9124    -9103    -9081    -9062    -9032    -8996    -8965    -8935 
   -8900    -8864    -8833    -8806    -8773    -8752    -8742    -8729 
   -8714    -8710    -8702    -8689    -8688    -8689    -8691    -8698 
   -8704    -8712    -8725    -8745    -8764    -8777    -8797    -8820 
   -8839    -8860    -8884    -8904    -8924    -8947    -8959    -8977 
   -9005    -9024    -9043    -9070    -9093    -9113    -9136    -9158 
   -9170    -9171    -9177    -9193    -9211    -9219    -9224    -9239 
   -9254    -9265    -9273    -9281    -9286    -9292    -9290    -9283 
   -9278    -9269    -9250    -9238    -9225    -9200    -9169    -9147 
   -9127    -9104    -9082    -9058    -9035    -9020    -9001    -8980 
   -8970    -8966    -8962    -8959    -8958    -8961    -8972    -8984 
   -8997    -9013    -9031    -9039    -9053    -9076    -9090    -9104 
