Origin Time       2025/01/13 21:19:00
Lat.              31.8
Long.             131.6
Depth. (km)       30
Mag.              6.9
Station Code      TKS003
Station Lat.      33.8716
Station Long.     134.6040
Station Height(m) 13
Record Time       2025/01/13 21:21:00
Sampling Freq(Hz) 100Hz
Duration Time(s)  60
Dir.              N-S
Scale Factor      7845(gal)/8223790
Max. Acc. (gal)   1.493
Last Correction   2025/01/13 21:20:59
Memo.             
[...]
    9794     9768     9732     9714     9701     9697     9695     9686 
    9691     9726     9767     9783     9783     9780     9771     9763 
    9771     9767     9740     9711     9691     9668     9652     9659 
    9679     9706     9757     9803     9805     9774     9721     9655 
    9616     9606     9593     9579     9593     9628     9652     9664 
    9676     9691     9714     9756     9787     9794     9802     9791 
    9733     9678     9664     9679     9707     9736     9730     9679 
    9628     9609     9606     9629     9693     9755     9792     9829 
    9844     9826     9817     9817     9798     9784     9794     9798 
    9786     9775     9752     9707     9686     9698     9707     9717 
    9729     9706     9655     9636     9661     9687     9701     9717 
    9709     9671     9648     9643     9643     9675     9736     9783 
    9819     9857     9872     9863     9857     9856     9829     9780 
    9737     9698     9670     9653     9625     9621     9667     9722 
    9775     9832     9867     9875     9894     9919     9913     9872 
    9817     9741     9656     9597     9559     9525     9514     9547 
    9612     9697     9794     9875     9914     9917     9895     9850 
    9786     9717     9645     9593     9582     9598     9605     9607 
    9629     9659     9678     9697     9717     9714     9701     9706 
    9713     9715     9734     9749     9749     9769     9807     9825 
    9818     9798     9751     9686     9651     9649     9651     9655 
    9664     9679     9725     9784     9819     9836     9850     9848 
    9813     9760     9713     9659     9614     9605     9601     9599 
    9618     9639     9653     9678     9715     9765     9821     9852 
    9848     9833     9810     9772     9736     9726     9740     9749 
    9753     9751     9730     9714     9729     9753     9765     9760 
    9741     9713     9679     9659     9657     9655     9670     9703 
    9730     9752     9771     9759     9736     9745     9756     9726 
    9672     9624     9579     9571     9612     9640     9649     9680 
    9710     9722     9736     9748     9737     9720     9721     9729 
    9741     9776     9807     9787     9747     9720     9690     9678 
    9698     9715     9724     9736     9741     9756     9805     9860 
    9872     9871     9886     9883     9830     9747     9657     9583 
    9549     9559     9589     9628     9676     9718     9737     9757 
    9787     9807     9811     9795     9759     9715     9670     9612 
    9562     9563     9589     9593     9605     9660     9721     9757 
    9778     9780     9776     9805     9855     9879     9877     9860 
    9819     9771     9741     9726     9702     9680     9680     9682 
    9680     9701     9730     9752     9769     9769     9761     9775 
    9798     9783     9733     9682     9647     9634     9660     9705 
    9730     9742     9767     9788     9809     9829     9821     9783 
    9742     9720     9709     9687     9656     9621     9579     9556 
    9578     9625     9679     9734     9768     9776     9783     9794 
    9795     9791     9782     9765     9760     9768     9759     9736 
    9734     9732     9711     9706     9730     9763     9815     9872 
    9892     9875     9852     9828     9805     9807     9815     9784 
    9730     9684     9643     9612     9614     9622     9617     9629 
    9674     9724     9775     9836     9883     9904     9915     9907 
    9887     9872     9852     9807     9749     9684     9613     9559 
    9567     9628     9691     9736     9776     9807     9821     9825 
    9819     9796     9769     9745     9711     9675     9663     9656 
    9632     9620     9651     9713     9791     9867     9896     9892 
    9892     9880     9849     9821     9796     9763     9733     9722 
    9706     9680     9686     9715     9741     9768     9782     9775 
    9790     9817     9813     9787     9763     9736     9714     9717 
    9738     9760     9768     9756     9726     9707     9713     9729 
    9749     9765     9764     9729     9683     9672     9687     9699 
    9718     9747     9753     9728     9693     9672     9698     9767 
    9822     9838     9852     9872     9877     9865     9846     9807 
    9757     9720     9691     9672     9676     9672     9622     9579 
    9591     9639     9703     9787     9852     9860     9838     9818 
    9788     9755     9738     9733     9729     9730     9721     9680 
    9624     9583     9563     9576     9641     9718     9764     9772 
    9740     9683     9651     9656     9657     9643     9618     9579 
    9537     9533     9568     9606     9647     9706     9747     9759 
    9791     9830     9834     9834     9845     9840     9821     9822 
    9853     9884     9882     9834     9749     9667     9633     9644 
    9683     9749     9813     9846     9852     9819     9771     9765 
    9817     9865     9867     9823     9757     9691     9664     9682 
    9690     9674     9657     9645     9653     9691     9721     9726 
    9740     9775     9806     9821     9822     9818     9818     9815 
    9791     9741     9670     9589     9531     9520     9556     9610 
    9643     9653     9648     9633     9632     9644     9637     9618 
    9628     9663     9684     9686     9701     9729     9760     9809 
    9852     9864     9846     9769     9632     9520     9481     9495 
    9543     9606     9663     9718     9802     9910    10011    10091 
   10135    10115    10034     9931     9817     9701     9603     9506 
    9393     9310     9315     9382     9471     9563     9639     9690 
    9721     9720     9682     9639     9609     9576     9544     9539 
    9567     9617     9684     9763     9850     9945    10018    10019 
    9934     9813     9695     9595     9536     9529     9539     9548 
    9583     9661     9767     9873     9937     9937     9904     9865 
    9806     9761     9757     9757     9763     9826     9937    10034 
   10058     9968     9792     9644     9595     9607     9612     9579 
    9493     9375     9306     9329     9437     9628     9852    10037 
   10130    10088     9894     9612     9370     9273     9333     9498 
    9690     9832     9867     9788     9649     9548     9541     9597 
    9632     9576     9429     9256     9131     9135     9327     9678 
   10081    10411    10546    10465    10278    10087     9910     9741 
    9575     9416     9296     9256     9289     9364     9485     9618 
    9688     9699     9699     9698     9710     9771     9864     9973 
   10108    10204    10165     9994     9765     9531     9346     9270 
    9278     9325     9402     9499     9609     9765     9996    10268 
   10508    10673    10736    10667    10454    10103     9641     9154 
    8764     8540     8490     8599     8846     9197     9607    10000 
   10284    10438    10484    10408    10200     9915     9612     9342 
    9166     9126     9220     9437     9741    10050    10257    10315 
   10250    10089     9877     9698     9599     9585     9626     9671 
    9661     9593     9517     9516     9637     9853    10060    10168 
   10149     9992     9718     9445     9296     9294     9447     9702 
    9913     9967     9895     9784     9690     9656     9730     9879 
   10010    10060     9999     9865     9747     9687     9652     9630 
    9641     9645     9606     9536     9483     9502     9616     9795 
    9976    10091    10118    10075     9968     9826     9666     9487 
    9335     9262     9258     9301     9405     9562     9740     9887 
    9944     9898     9805     9726     9680     9674     9717     9802 
    9887     9917     9867     9753     9606     9444     9288     9192 
    9216     9336     9458     9540     9601     9694     9882    10135 
   10323    10315    10077     9714     9406     9306     9424     9630 
    9818     9973    10084    10134    10127    10073    10000     9946 
    9910     9840     9707     9556     9428     9336     9329     9428 
    9583     9761     9938    10060    10100    10069     9934     9671 
    9364     9161     9140     9324     9679    10085    10407    10577 
   10586    10466    10291    10084     9837     9591     9404     9266 
    9157     9092     9080     9099     9162     9308     9514     9720 
    9876     9952     9965     9945     9875     9771     9699     9710 
    9791     9871     9869     9775     9639     9514     9410     9337 
    9329     9418     9589     9782     9952    10087    10162    10158 
   10102    10029     9975     9973     9996     9954     9810     9599 
    9377     9208     9162     9263     9464     9678     9809     9774 
    9582     9364     9290     9421     9648     9818     9888     9921 
    9977    10085    10219    10296    10234    10044     9844     9709 
    9625     9563     9478     9369     9300     9279     9292     9387 
    9547     9639     9579     9418     9285     9297     9504     9864 
   10235    10461    10484    10343    10142     9967     9801     9613 
    9474     9459     9524     9578     9607     9655     9718     9755 
    9749     9760     9871    10056    10173    10098     9837     9528 
    9328     9319     9471     9676     9855     9995    10092    10118 
   10042     9850     9587     9396     9400     9593     9882    10169 
   10363    10408    10292    10025     9693     9435     9315     9293 
    9315     9325     9267     9167     9138     9255     9529     9926 
   10318    10508    10423    10154     9819     9508     9283     9171 
    9192     9348     9549     9652     9633     9563     9493     9460 
    9518     9659     9811     9910     9919     9855     9801     9845 
    9987    10192    10444    10659    10693    10508    10206     9898 
    9644     9487     9409     9319     9177     9027     8939     9013 
    9283     9624     9906    10138    10369    10552    10566    10322 
    9852     9301     8853     8610     8586     8768     9081     9397 
    9652     9850     9988    10054    10056    10011     9973     9998 
   10053    10041     9950     9855     9768     9668     9548     9410 
    9331     9387     9535     9663     9724     9744     9775     9873 
   10049    10195    10164     9956     9688     9468     9348     9344 
    9416     9475     9452     9331     9159     9072     9189     9464 
    9740     9917    10008    10112    10316    10579    10778    10817 
   10671    10341     9898     9494     9247     9171     9256     9468 
    9705     9890     9995     9994     9911     9837     9821     9830 
    9787     9612     9297     8958     8781     8884     9232     9679 
   10062    10291    10390    10435    10465    10508    10552    10515 
   10322     9988     9578     9154     8789     8598     8640     8892 
    9281     9698    10052    10288    10353    10280    10216    10258 
   10339    10357    10255    10012     9632     9186     8799     8546 
    8425     8395     8457     8698     9178     9794    10342    10705 
   10889    10957    10956    10844    10532    10022     9443     8943 
    8656     8688     8995     9382     9678     9806     9782     9656 
    9501     9408     9418     9526     9709     9922    10134    10316 
   10381    10260    10033     9836     9721     9672     9648     9591 
    9489     9381     9321     9369     9572     9852    10025     9999 
    9857     9764     9828    10025    10226    10319    10262    10060 
    9784     9559     9444     9383     9290     9171     9142     9320 
    9698    10107    10358    10378    10193     9873     9540     9327 
    9294     9406     9567     9680     9679     9605     9594     9709 
    9919    10166    10331    10285    10030     9676     9375     9243 
    9297     9474     9698     9930    10133    10273    10343    10332 
   10191     9948     9724     9598     9553     9553     9589     9645 
    9691     9703     9659     9575     9501     9432     9354     9297 
    9281     9271     9247     9259     9394     9682    10052    10378 
   10565    10594    10458    10166     9841     9630     9562     9558 
    9528     9450     9347     9248     9193     9223     9335     9498 
    9667     9822     9968    10099    10223    10345    10442    10459 
   10322    10014     9616     9228     8945     8806     8764     8802 
    8958     9204     9485     9810    10174    10503    10733    10816 
   10698    10385     9954     9509     9147     8965     8986     9131 
    9300     9431     9528     9655     9861    10127    10426    10700 
   10805    10635    10242     9790     9410     9154     9011     8950 
    8957     9024     9135     9274     9429     9567     9686     9849 
   10106    10423    10692    10805    10732    10524    10270    10033 
    9798     9567     9364     9151     8883     8618     8455     8442 
    8611     8970     9460     9973    10454    10858    11130    11263 
   11264    11134    10910    10620    10269     9869     9432     8986 
    8600     8345     8289     8433     8692     8996     9300     9610 
    9964    10336    10654    10883    11001    10964    10756    10377 
    9867     9327     8884     8618     8532     8591     8745     8937 
    9143     9373     9614     9863    10131    10409    10631    10716 
   10611    10307     9863     9441     9202     9148     9188     9235 
    9224     9150     9088     9140     9389     9833    10338    10702 
   10817    10717    10525    10377    10319    10265    10112     9819 
    9390     8872     8398     8158     8259     8679     9292     9911 
   10380    10639    10708    10636    10467    10251     9998     9698 
    9371     9039     8703     8418     8301     8429     8810     9364 
    9915    10320    10566    10687    10702    10660    10604    10543 
   10481    10374    10149     9798     9393     9045     8881     8989 
    9316     9694     9987    10133    10087     9845     9502     9202 
    9065     9147     9427     9760     9971     9998     9898     9757 
    9664     9674     9753     9840     9875     9799     9614     9387 
    9193     9120     9234     9491     9761     9942    10034    10087 
   10134    10199    10274    10296    10222    10049     9803     9548 
    9359     9243     9127     8993     8927     8973     9113     9348 
    9651     9949    10183    10324    10368    10343    10280    10180 
   10048     9929     9857     9817     9767     9668     9499     9306 
    9166     9116     9162     9302     9513     9767    10065    10365 
   10574    10643    10600    10481    10301    10065     9768     9423 
    9077     8792     8623     8633     8857     9231     9616     9909 
   10089    10168    10169    10154    10161    10179    10177    10116 
    9973     9775     9563     9382     9282     9265     9286     9294 
    9261     9202     9184     9265     9441     9691    10023    10385 
   10632    10678    10550    10319    10072     9871     9729     9617 
    9505     9402     9335     9329     9413     9556     9697     9822 
    9922     9960     9915     9788     9612     9462     9410     9456 
    9539     9629     9736     9860     9981    10052     9999     9801 
    9518     9244     9024     8889     8901     9093     9409     9738 
    9964    10038    10034    10023     9987     9891     9733     9510 
    9263     9072     8995     9074     9300     9590     9823     9934 
    9975    10019    10093    10201    10277    10235    10099     9927 
    9736     9568     9502     9539     9606     9641     9637     9618 
    9625     9672     9730     9787     9861     9942    10010    10068 
   10118    10146    10129    10050     9909     9718     9521     9351 
    9212     9148     9208     9336     9467     9598     9738     9891 
   10037    10107    10056     9911     9752     9643     9637     9744 
    9869     9917     9896     9845     9759     9644     9524     9402 
    9298     9238     9227     9277     9397     9566     9729     9855 
    9949    10022    10076    10108    10096    10010     9887     9779 
    9694     9641     9649     9694     9721     9721     9683     9602 
    9516     9470     9477     9541     9648     9753     9807     9805 
    9772     9747     9769     9859     9957    10002     9984     9902 
    9771     9644     9521     9378     9255     9205     9228     9313 
    9452     9616     9755     9850     9895     9899     9913     9957 
    9976     9918     9805     9676     9555     9470     9454     9485 
    9529     9601     9698     9807     9936    10046    10080    10053 
   10010     9934     9836     9738     9621     9487     9405     9383 
    9381     9412     9512     9652     9819    10007    10157    10227 
   10228    10146     9972     9769     9602     9468     9366     9309 
    9265     9239     9315     9499     9699     9877    10022    10085 
   10049     9936     9767     9580     9433     9348     9309     9308 
    9359     9456     9572     9693     9784     9823     9825     9807 
    9763     9690     9616     9590     9626     9724     9859     9972 
   10034    10058    10039     9991     9936     9855     9713     9536 
    9394     9331     9352     9440     9555     9660     9763     9857 
    9915     9931     9918     9876     9836     9822     9823     9817 
    9792     9734     9643     9556     9520     9521     9535     9547 
    9524     9463     9432     9468     9545     9653     9784     9909 
   10003    10056    10037     9918     9741     9563     9404     9290 
    9252     9248     9243     9266     9331     9428     9593     9815 
   10022    10172    10261    10276    10216    10107     9985     9864 
    9756     9676     9606     9526     9447     9391     9393     9487 
    9657     9848    10041    10226    10338    10323    10207    10029 
    9823     9634     9474     9339     9256     9244     9282     9374 
    9541     9751     9923    10034    10100    10106    10071    10046 
   10026     9976     9896     9787     9666     9593     9598     9645 
    9694     9730     9738     9733     9765     9829     9876     9892 
    9892     9896     9909     9948    10002    10017     9972     9883 
    9737     9558     9385     9232     9132     9127     9201     9336 
    9520     9693     9807     9883     9946     9979     9961     9904 
    9818     9699     9587     9513     9474     9458     9444     9412 
    9386     9416     9487     9560     9618     9649     9659     9678 
    9732     9795     9840     9871     9906     9937     9952     9946 
    9907     9859     9852     9880     9904     9923     9927     9895 
    9852     9832     9819     9798     9784     9790     9780     9741 
    9694     9637     9589     9576     9580     9594     9656     9755 
    9853     9953    10038    10056     9988     9877     9768     9694 
    9670     9675     9659     9621     9601     9599     9613     9655 
    9705     9753     9828     9904     9927     9882     9788     9671 
    9567     9502     9462     9429     9443     9524     9614     9674 
    9736     9811     9884     9933     9918     9836     9748     9697 
    9684     9706     9757     9799     9794     9767     9745     9726 
    9717     9707     9679     9657     9656     9655     9653     9661 
    9661     9643     9647     9695     9749     9787     9821     9822 
    9767     9690     9622     9582     9587     9641     9710     9767 
