Origin Time       2025/01/13 21:19:00
Lat.              31.8
Long.             131.6
Depth. (km)       30
Mag.              6.9
Station Code      TKS008
Station Lat.      33.9341
Station Long.     134.2113
Station Height(m) 337
Record Time       2025/01/13 21:20:57
Sampling Freq(Hz) 100Hz
Duration Time(s)  60
Dir.              U-D
Scale Factor      7845(gal)/8223790
Max. Acc. (gal)   1.093
Last Correction   2025/01/13 21:20:56
Memo.             
[...]
    3862     3815     3800     3817     3840     3842     3802     3738 
    3676     3640     3645     3684     3726     3721     3681     3643 
    3613     3591     3593     3628     3674     3712     3730     3721 
    3705     3700     3719     3757     3778     3785     3808     3827 
    3812     3769     3723     3692     3674     3672     3689     3704 
    3692     3666     3654     3645     3623     3616     3670     3771 
    3851     3879     3863     3801     3727     3689     3700     3721 
    3724     3715     3705     3690     3684     3711     3755     3785 
    3800     3800     3774     3748     3751     3773     3758     3692 
    3616     3566     3557     3582     3593     3549     3477     3429 
    3433     3487     3543     3564     3545     3489     3427     3389 
    3372     3368     3399     3478     3599     3715     3761     3716 
    3643     3600     3599     3639     3715     3794     3852     3874 
    3869     3867     3874     3866     3855     3854     3882     3960 
    4045     4074     4025     3908     3770     3681     3681     3766 
    3875     3939     3927     3863     3797     3758     3754     3793 
    3866     3935     3940     3839     3681     3562     3526     3576 
    3684     3747     3693     3557     3441     3429     3516     3627 
    3690     3677     3612     3550     3524     3543     3577     3609 
    3659     3723     3758     3736     3672     3601     3566     3584 
    3643     3700     3716     3693     3661     3640     3632     3619 
    3605     3600     3600     3619     3678     3759     3804     3777 
    3699     3623     3601     3647     3726     3801     3856     3882 
    3881     3861     3828     3786     3743     3726     3750     3816 
    3893     3928     3894     3816     3732     3674     3655     3672 
    3705     3734     3743     3759     3790     3808     3792     3742 
    3666     3593     3562     3600     3686     3766     3800     3782 
    3740     3704     3662     3608     3559     3537     3569     3672 
    3790     3851     3809     3703     3613     3596     3651     3732 
    3790     3829     3875     3933     3982     3979     3906     3785 
    3681     3676     3770     3889     3971     3979     3896     3775 
    3692     3666     3672     3678     3690     3730     3790     3844 
    3851     3796     3715     3666     3685     3742     3773     3755 
    3716     3685     3672     3658     3623     3562     3504     3487 
    3527     3584     3585     3518     3447     3415     3412     3437 
    3483     3528     3562     3596     3630     3657     3672     3681 
    3685     3670     3639     3609     3586     3585     3628     3700 
    3761     3796     3807     3782     3726     3688     3713     3786 
    3856     3878     3847     3798     3782     3807     3838     3839 
    3801     3728     3638     3578     3585     3645     3711     3734 
    3697     3627     3564     3543     3580     3639     3684     3709 
    3721     3721     3719     3720     3715     3711     3742     3801 
    3836     3821     3784     3761     3762     3784     3823     3856 
    3836     3754     3651     3564     3537     3604     3726     3811 
    3809     3736     3659     3631     3669     3751     3823     3839 
    3820     3809     3811     3805     3794     3813     3859     3892 
    3896     3888     3881     3874     3865     3842     3788     3699 
    3607     3551     3561     3612     3645     3618     3534     3445 
    3404     3416     3457     3507     3554     3592     3631     3676 
    3690     3650     3572     3488     3429     3414     3453     3514 
    3557     3582     3600     3596     3564     3530     3511     3518 
    3566     3643     3705     3709     3649     3562     3504     3488 
    3514     3568     3622     3669     3711     3734     3717     3665 
    3612     3591     3620     3707     3813     3875     3873     3834 
    3788     3739     3704     3708     3766     3843     3900     3913 
    3873     3785     3701     3688     3758     3858     3925     3939 
    3916     3888     3859     3821     3780     3750     3746     3782 
    3848     3913     3946     3932     3867     3785     3740     3739 
    3744     3746     3755     3770     3758     3717     3680     3642 
    3604     3597     3636     3697     3731     3721     3699     3688 
    3703     3751     3798     3789     3727     3673     3677     3750 
    3862     3960     4005     3983     3909     3823     3790     3831 
    3901     3962     3978     3928     3821     3693     3592     3549 
    3559     3604     3646     3655     3642     3623     3603     3573 
    3512     3438     3396     3422     3515     3645     3755     3793 
    3743     3640     3538     3483     3500     3586     3701     3775 
    3782     3743     3713     3728     3769     3785     3762     3727 
    3728     3778     3835     3852     3816     3738     3646     3584 
    3584     3645     3719     3758     3758     3734     3686     3630 
    3604     3634     3701     3758     3777     3755     3703     3657 
    3653     3697     3750     3746     3678     3597     3551     3550 
    3573     3608     3653     3694     3727     3757     3782     3797 
    3816     3838     3836     3808     3757     3699     3672     3694 
    3743     3778     3775     3750     3730     3719     3711     3708 
    3704     3688     3690     3727     3743     3717     3689     3689 
    3712     3747     3777     3784     3742     3665     3622     3657 
    3742     3813     3828     3788     3723     3667     3653     3662 
    3657     3632     3619     3642     3703     3770     3796     3753 
    3670     3600     3572     3588     3623     3642     3628     3591 
    3557     3541     3538     3534     3535     3534     3514     3487 
    3483     3504     3543     3605     3659     3655     3584     3501 
    3491     3562     3658     3736     3784     3773     3712     3658 
    3646     3665     3709     3781     3866     3925     3925     3874 
    3805     3757     3751     3774     3781     3740     3673     3632 
    3642     3665     3662     3631     3607     3615     3655     3705 
    3723     3694     3650     3639     3680     3757     3838     3871 
    3838     3781     3766     3812     3871     3900     3897     3892 
    3912     3952     3969     3919     3819     3735     3721     3780 
    3867     3929     3923     3856     3773     3712     3696     3717 
    3767     3836     3890     3882     3802     3688     3588     3543 
    3558     3618     3696     3748     3761     3744     3700     3627 
    3553     3520     3535     3585     3645     3689     3709     3701 
    3666     3638     3645     3693     3769     3829     3839     3808 
    3774     3748     3724     3724     3742     3744     3724     3678 
    3631     3605     3601     3628     3680     3728     3753     3738 
    3705     3674     3628     3573     3539     3545     3574     3600 
    3628     3670     3689     3659     3638     3666     3700     3716 
    3740     3763     3746     3677     3605     3611     3696     3797 
    3863     3867     3797     3692     3642     3682     3769     3847 
    3892     3881     3819     3761     3750     3775     3805     3813 
    3797     3755     3684     3619     3595     3616     3685     3762 
    3778     3727     3649     3591     3592     3661     3742     3771 
    3736     3661     3569     3492     3460     3481     3542     3609 
    3657     3669     3642     3595     3562     3568     3613     3699 
    3827     3954     4027     4021     3925     3767     3646     3639 
    3734     3835     3852     3774     3659     3566     3543     3592 
    3666     3720     3711     3654     3631     3663     3690     3666 
    3595     3516     3508     3597     3704     3720     3609     3454 
    3387     3454     3597     3730     3788     3774     3731     3692 
    3681     3711     3775     3859     3933     3960     3908     3784 
    3653     3605     3669     3797     3916     3975     3944     3821 
    3685     3630     3678     3782     3866     3870     3786     3689 
    3665     3713     3750     3707     3611     3527     3504     3561 
    3685     3797     3794     3686     3554     3454     3430     3510 
    3636     3713     3707     3640     3568     3541     3577     3638 
    3674     3684     3709     3748     3732     3657     3595     3580 
    3607     3661     3728     3766     3727     3646     3599     3592 
    3592     3596     3609     3627     3653     3703     3750     3740 
    3665     3582     3545     3539     3518     3469     3443     3499 
    3632     3767     3816     3736     3573     3472     3547     3762 
    3981     4081     4013     3817     3613     3516     3555     3688 
    3825     3877     3815     3712     3658     3694     3761     3763 
    3705     3654     3642     3693     3800     3873     3832     3723 
    3667     3712     3809     3897     3931     3889     3784     3693 
    3694     3796     3924     3987     3939     3809     3689     3677 
    3790     3929     3991     3942     3815     3704     3680     3724 
    3811     3915     4000     4036     4002     3904     3796     3719 
    3696     3746     3827     3865     3825     3742     3694     3712 
    3734     3740     3761     3798     3858     3915     3893     3753 
    3547     3438     3543     3778     3944     3916     3716     3492 
    3434     3597     3821     3897     3762     3527     3331     3265 
    3352     3543     3711     3744     3654     3542     3496     3532 
    3612     3681     3684     3607     3487     3392     3396     3524 
    3694     3770     3694     3534     3397     3370     3466     3623 
    3727     3693     3588     3568     3665     3769     3785     3717 
    3638     3618     3689     3800     3835     3726     3519     3352 
    3318     3415     3596     3780     3856     3782     3636     3577 
    3694     3921     4087     4071     3908     3747     3732     3870 
    4004     3963     3738     3481     3377     3496     3740     3954 
    4043     3989     3823     3666     3658     3811     4008     4099 
    3997     3743     3496     3411     3514     3674     3742     3703 
    3631     3586     3623     3769     3937     3994     3897     3728 
    3630     3686     3832     3932     3915     3800     3665     3581 
    3539     3484     3426     3447     3569     3700     3757     3715 
    3609     3515     3461     3464     3578     3809     4039     4136 
    4083     3963     3882     3873     3893     3900     3879     3844 
    3809     3746     3653     3582     3550     3551     3593     3638 
    3661     3681     3682     3627     3558     3562     3630     3670 
    3646     3580     3491     3435     3465     3546     3619     3646 
    3612     3577     3599     3640     3681     3746     3832     3892 
    3832     3639     3464     3447     3595     3813     3981     4029 
    3966     3844     3761     3744     3758     3817     3933     4009 
    3916     3669     3437     3368     3484     3693     3858     3882 
    3773     3640     3569     3542     3539     3593     3707     3809 
    3846     3836     3805     3763     3755     3834     3997     4171 
    4243     4144     3886     3558     3308     3225     3235     3258 
    3319     3441     3599     3750     3829     3819     3762     3717 
    3747     3832     3916     3971     3974     3875     3708     3566 
    3530     3634     3811     3915     3829     3551     3246     3142 
    3312     3670     4051     4239     4132     3874     3709     3753 
    3939     4109     4121     3939     3659     3460     3424     3497 
    3627     3782     3848     3735     3531     3402     3442     3639 
    3898     4081     4035     3751     3434     3294     3375     3605 
    3824     3847     3635     3338     3159     3188     3375     3616 
    3820     3886     3778     3616     3589     3734     3948     4108 
    4114     3952     3717     3557     3584     3758     3904     3894 
    3744     3547     3430     3477     3655     3842     3948     3935 
    3802     3636     3543     3549     3632     3759     3856     3870 
    3823     3742     3636     3542     3489     3480     3497     3508 
    3477     3429     3458     3597     3774     3885     3862     3767 
    3751     3854     3996     4066     3983     3793     3661     3686 
    3821     3958     3974     3798     3500     3238     3165     3333 
    3619     3850     3931     3862     3699     3539     3492     3576 
    3723     3877     3996     4004     3821     3510     3304     3369 
    3667     4033     4221     4058     3659     3296     3144     3221 
    3451     3740     3975     4048     3964     3832     3720     3657 
    3647     3620     3484     3265     3129     3241     3591     3981 
    4176     4083     3816     3573     3489     3564     3670     3688 
    3630     3591     3626     3734     3866     3933     3862     3676 
    3470     3343     3384     3597     3852     4009     4001     3839 
    3646     3577     3636     3690     3674     3654     3694     3774 
    3827     3800     3682     3557     3561     3731     3931     3991 
    3885     3711     3577     3531     3547     3613     3751     3942 
    4086     4089     3956     3798     3703     3651     3574     3450 
    3343     3354     3516     3734     3850     3762     3504     3262 
    3273     3597     4028     4282     4243     3942     3465     3041 
    3009     3488     4229     4799     4851     4333     3508     2851 
    2794     3352     4072     4452     4307     3804     3271     3018 
    3194     3647     4040     4159     4036     3817     3584     3424 
    3464     3689     3950     4109     4064     3766     3335     3069 
    3165     3500     3808     3933     3888     3800     3820     4018 
    4276     4348     4143     3788     3480     3392     3511     3604 
    3547     3446     3431     3558     3817     4091     4218     4155 
    3973     3763     3616     3603     3688     3782     3819     3784 
    3708     3586     3433     3330     3356     3542     3871     4206 
    4352     4251     4021     3842     3809     3840     3798     3673 
    3511     3391     3410     3543     3715     3878     3904     3699 
    3402     3294     3530     3937     4178     4122     3879     3643 
    3599     3771     3956     3962     3801     3631     3545     3485 
    3393     3337     3438     3712     4036     4197     4043     3605 
    3092     2806     2921     3337     3804     4112     4136     3865 
    3481     3318     3557     4036     4417     4425     4006     3372 
    2876     2793     3138     3643     3969     3981     3746     3416 
    3179     3157     3310     3449     3433     3338     3358     3561 
    3846     4074     4140     4001     3730     3508     3480     3607 
    3773     3900     3923     3823     3699     3622     3564     3491 
    3445     3526     3735     3894     3866     3708     3557     3518 
    3608     3754     3883     3952     3932     3881     3835     3708 
    3480     3298     3315     3551     3875     4095     4097     3893 
    3662     3643     3906     4257     4422     4279     3906     3492 
    3231     3287     3666     4137     4384     4260     3863     3473 
    3348     3510     3750     3813     3609     3299     3157     3304 
    3626     3881     3883     3640     3368     3299     3480     3762 
    3978     4024     3905     3736     3626     3632     3757     3892 
    3912     3785     3576     3415     3419     3554     3700     3780 
    3751     3599     3422     3341     3341     3380     3488     3696 
    3966     4195     4260     4104     3828     3630     3613     3767 
    3985     4113     4056     3848     3609     3458     3441     3537 
    3669     3744     3712     3554     3316     3168     3277     3640 
    4082     4364     4299     3902     3434     3175     3226     3515 
    3879     4114     4098     3905     3701     3626     3694     3785 
    3792     3715     3626     3591     3632     3727     3815     3871 
    3912     3916     3852     3750     3688     3730     3831     3852 
    3715     3465     3233     3160     3304     3593     3870     3956 
    3789     3483     3214     3164     3403     3801     4126     4226 
    4087     3800     3508     3387     3503     3743     3929     3966 
    3862     3705     3622     3699     3882     4031     4021     3856 
    3688     3643     3707     3753     3667     3485     3339     3312 
    3420     3601     3751     3819     3802     3723     3666     3728 
    3898     4052     4072     3959     3808     3716     3703     3697 
    3667     3667     3712     3784     3897     4033     4122     4067 
    3847     3570     3381     3372     3562     3854     4064     4106 
    4016     3878     3794     3819     3919     3997     3963     3840 
    3693     3576     3569     3686     3829     3883     3831     3742 
    3690     3692     3707     3693     3654     3647     3712     3805 
    3824     3735     3613     3542     3551     3636     3732     3754 
    3690     3613     3581     3569     3559     3584     3634     3646 
    3576     3485     3485     3608     3788     3920     3900     3703 
    3457     3372     3547     3858     4062     4023     3796     3535 
    3407     3507     3765     3991     4055     3966     3809     3662 
    3551     3503     3561     3726     3905     3989     3937     3800 
    3663     3613     3657     3708     3682     3592     3538     3589 
    3685     3738     3751     3755     3751     3748     3743     3716 
    3684     3690     3767     3850     3802     3631     3501     3554 
    3780     4018     4102     3973     3690     3435     3357     3431 
    3557     3667     3744     3782     3755     3674     3570     3460 
    3379     3364     3422     3541     3682     3801     3867     3832 
    3694     3554     3524     3635     3835     4005     4014     3851 
    3635     3538     3612     3767     3874     3834     3657     3454 
    3318     3299     3427     3638     3784     3794     3732     3684 
    3688     3723     3734     3699     3636     3576     3558     3608 
    3699     3770     3789     3766     3719     3693     3740     3821 
    3823     3721     3618     3592     3654     3763     3838     3839 
    3800     3738     3657     3581     3541     3543     3612     3755 
    3893     3920     3825     3696     3607     3592     3655     3757 
    3829     3858     3871     3878     3869     3828     3755     3676 
    3619     3608     3650     3690     3654     3526     3393     3358 
    3441     3589     3731     3800     3751     3628     3519     3480 
    3522     3628     3753     3850     3888     3838     3705     3538 
    3423     3408     3476     3620     3773     3820     3774     3717 
    3715     3800     3923     3977     3931     3809     3650     3530 
    3507     3565     3645     3694     3688     3655     3640     3642 
    3658     3707     3763     3789     3778     3754     3740     3739 
    3755     3816     3901     3925     3836     3697     3608     3591 
    3608     3626     3646     3681     3731     3781     3801     3754 
    3640     3526     3473     3493     3554     3635     3736     3821 
    3850     3825     3788     3750     3721     3736     3789     3840 
