Origin Time       2025/01/13 21:19:00
Lat.              31.8
Long.             131.6
Depth. (km)       30
Mag.              6.9
Station Code      TKS001
Station Lat.      34.2034
Station Long.     134.6096
Station Height(m) 2
Record Time       2025/01/13 21:21:31
Sampling Freq(Hz) 100Hz
Duration Time(s)  60
Dir.              N-S
Scale Factor      7845(gal)/8223790
Max. Acc. (gal)   1.979
Last Correction   2025/01/13 21:21:30
Memo.             
[...]
    2717     2717     2720     2731     2736     2732     2718     2705 
    2702     2710     2728     2755     2789     2820     2845     2867 
    2879     2870     2837     2797     2766     2758     2771     2781 
    2778     2781     2793     2806     2816     2814     2801     2791 
    2799     2818     2824     2816     2810     2816     2826     2839 
    2841     2840     2832     2803     2764     2732     2705     2683 
    2678     2685     2700     2721     2735     2727     2698     2662 
    2623     2578     2542     2528     2527     2520     2517     2517 
    2527     2550     2567     2565     2555     2555     2571     2612 
    2658     2686     2704     2725     2752     2776     2801     2835 
    2867     2890     2911     2936     2970     3017     3063     3092 
    3111     3119     3111     3090     3061     3014     2948     2882 
    2832     2799     2791     2806     2829     2849     2857     2843 
    2808     2768     2736     2713     2694     2668     2637     2616 
    2594     2571     2569     2581     2586     2587     2597     2621 
    2654     2685     2716     2756     2798     2821     2817     2805 
    2802     2801     2790     2776     2771     2782     2818     2871 
    2926     2968     2988     2995     3003     3006     2992     2970 
    2953     2955     2960     2959     2961     2967     2961     2948 
    2928     2897     2849     2793     2737     2690     2663     2650 
    2647     2658     2670     2677     2677     2662     2629     2594 
    2574     2569     2567     2566     2573     2594     2627     2655 
    2670     2675     2674     2667     2654     2644     2647     2660 
    2667     2664     2659     2656     2654     2652     2662     2679 
    2693     2695     2690     2695     2718     2743     2762     2793 
    2833     2856     2863     2856     2832     2802     2779     2747 
    2708     2694     2710     2741     2775     2818     2862     2895 
    2918     2918     2903     2898     2894     2874     2848     2835 
    2829     2813     2795     2795     2802     2802     2799     2795 
    2778     2745     2716     2690     2667     2652     2641     2639 
    2647     2660     2674     2691     2713     2737     2752     2759 
    2779     2803     2817     2829     2849     2874     2893     2909 
    2933     2979     3032     3067     3086     3090     3068     3028 
    2979     2936     2910     2907     2914     2920     2917     2907 
    2887     2852     2812     2774     2733     2682     2623     2566 
    2508     2446     2381     2322     2269     2232     2211     2203 
    2219     2247     2278     2313     2346     2371     2400     2440 
    2493     2546     2585     2613     2637     2658     2681     2721 
    2776     2845     2929     3006     3065     3111     3137     3138 
    3123     3113     3103     3087     3079     3094     3125     3184 
    3268     3331     3356     3356     3346     3325     3283     3231 
    3192     3164     3138     3121     3100     3073     3041     2988 
    2913     2833     2758     2686     2619     2542     2465     2401 
    2351     2297     2239     2191     2155     2130     2110     2092 
    2074     2069     2072     2087     2114     2158     2211     2262 
    2308     2361     2419     2474     2528     2589     2654     2718 
    2791     2867     2945     3034     3138     3244     3334     3397 
    3438     3477     3519     3564     3595     3611     3619     3616 
    3585     3528     3470     3431     3400     3362     3314     3260 
    3200     3134     3072     3022     2983     2940     2890     2852 
    2825     2801     2775     2736     2687     2641     2608     2596 
    2605     2619     2632     2652     2670     2681     2691     2706 
    2736     2771     2806     2832     2837     2835     2832     2826 
    2837     2866     2884     2889     2897     2905     2901     2889 
    2868     2848     2839     2830     2818     2806     2799     2790 
    2767     2725     2675     2633     2604     2586     2579     2577 
    2567     2554     2544     2533     2531     2535     2538     2548 
    2562     2556     2538     2520     2513     2509     2515     2524 
    2528     2533     2558     2600     2647     2700     2755     2814 
    2876     2934     2983     3024     3053     3075     3092     3099 
    3099     3106     3121     3141     3169     3198     3222     3241 
    3238     3210     3173     3142     3110     3071     3017     2948 
    2882     2828     2785     2744     2694     2636     2575     2512 
    2458     2427     2405     2388     2374     2366     2365     2371 
    2384     2401     2413     2425     2435     2444     2465     2494 
    2532     2590     2660     2731     2801     2867     2930     3003 
    3075     3132     3187     3256     3321     3380     3443     3507 
    3558     3593     3609     3611     3608     3603     3591     3569 
    3541     3500     3447     3388     3325     3257     3188     3121 
    3044     2949     2856     2781     2728     2704     2700     2698 
    2689     2671     2643     2609     2571     2529     2490     2457 
    2427     2400     2377     2370     2380     2394     2407     2415 
    2425     2444     2462     2473     2489     2517     2550     2594 
    2650     2704     2749     2785     2821     2871     2926     2971 
    3014     3065     3114     3157     3195     3214     3204     3187 
    3169     3141     3110     3086     3061     3042     3028     3013 
    2994     2974     2956     2949     2928     2875     2810     2739 
    2650     2558     2481     2412     2351     2309     2295     2304 
    2328     2363     2411     2467     2523     2583     2651     2705 
    2747     2779     2806     2836     2872     2911     2949     2987 
    3028     3065     3092     3106     3113     3111     3111     3126 
    3138     3144     3149     3149     3136     3115     3094     3069 
    3037     3006     2983     2956     2929     2905     2864     2803 
    2731     2662     2598     2539     2481     2420     2363     2323 
    2292     2270     2274     2295     2319     2347     2365     2367 
    2370     2380     2393     2416     2458     2501     2544     2604 
    2678     2741     2787     2814     2824     2821     2818     2829 
    2853     2891     2951     3015     3067     3115     3167     3221 
    3280     3335     3381     3415     3438     3456     3465     3466 
    3468     3465     3442     3403     3368     3322     3256     3186 
    3114     3036     2955     2874     2795     2718     2633     2535 
    2419     2299     2191     2089     2007     1949     1903     1860 
    1827     1811     1799     1777     1756     1742     1742     1752 
    1771     1807     1865     1935     2008     2084     2176     2278 
    2390     2509     2632     2770     2920     3067     3214     3365 
    3514     3650     3777     3900     4004     4079     4141     4194 
    4234     4267     4288     4287     4249     4186     4110     4018 
    3913     3796     3670     3538     3393     3240     3080     2916 
    2744     2566     2381     2205     2039     1884     1753     1648 
    1568     1505     1455     1421     1406     1397     1387     1395 
    1422     1462     1505     1556     1611     1665     1734     1833 
    1942     2043     2135     2226     2317     2403     2497     2608 
    2721     2836     2959     3079     3188     3296     3408     3524 
    3638     3735     3817     3888     3947     4008     4060     4091 
    4106     4112     4101     4079     4052     4016     3973     3924 
    3856     3770     3689     3616     3542     3462     3368     3253 
    3142     3045     2947     2849     2758     2651     2520     2393 
    2281     2165     2052     1953     1863     1780     1721     1678 
    1649     1630     1602     1563     1536     1534     1547     1582 
    1655     1759     1879     2012     2158     2305     2465     2639 
    2813     2984     3154     3314     3464     3620     3784     3942 
    4081     4195     4283     4347     4394     4429     4448     4448 
    4437     4419     4403     4387     4355     4288     4198     4089 
    3950     3781     3613     3453     3288     3132     2988     2851 
    2720     2596     2477     2359     2234     2103     1977     1864 
    1765     1680     1605     1545     1502     1470     1459     1467 
    1479     1493     1509     1534     1579     1637     1702     1775 
    1852     1919     1976     2037     2101     2166     2238     2312 
    2380     2455     2542     2631     2722     2813     2899     2990 
    3065     3118     3164     3215     3271     3325     3373     3416 
    3451     3469     3469     3458     3441     3419     3389     3353 
    3323     3291     3245     3191     3134     3064     2975     2872 
    2762     2655     2552     2447     2349     2258     2177     2115 
    2064     2008     1949     1892     1844     1806     1780     1769 
    1764     1773     1803     1844     1891     1957     2030     2104 
    2189     2286     2390     2505     2625     2756     2902     3056 
    3210     3352     3477     3603     3726     3843     3956     4056 
    4133     4201     4261     4299     4321     4333     4320     4282 
    4228     4164     4104     4047     3990     3929     3858     3766 
    3662     3545     3416     3287     3159     3030     2907     2802 
    2706     2612     2524     2436     2346     2258     2177     2106 
    2046     1992     1939     1894     1853     1819     1798     1794 
    1799     1817     1856     1912     1976     2050     2128     2208 
    2293     2377     2440     2479     2527     2581     2617     2643 
    2659     2660     2671     2710     2762     2808     2852     2906 
    2957     2999     3046     3088     3109     3130     3160     3181 
    3200     3223     3234     3231     3227     3221     3204     3184 
    3163     3134     3102     3068     3032     2987     2937     2891 
    2843     2779     2709     2647     2592     2540     2497     2458 
    2417     2384     2365     2357     2351     2354     2365     2370 
    2363     2357     2357     2365     2378     2393     2409     2420 
    2421     2421     2415     2400     2393     2393     2382     2378 
    2390     2404     2419     2439     2455     2466     2482     2505 
    2523     2539     2577     2637     2702     2763     2829     2899 
    2956     3007     3067     3121     3161     3195     3215     3214 
    3211     3225     3238     3240     3245     3260     3265     3265 
    3273     3277     3272     3265     3252     3227     3199     3172 
    3136     3091     3046     3002     2952     2903     2859     2820 
    2787     2752     2713     2666     2616     2571     2521     2461 
    2407     2370     2346     2328     2316     2309     2307     2309 
    2328     2355     2380     2408     2439     2461     2482     2506 
    2521     2532     2546     2550     2529     2505     2485     2455 
    2421     2403     2398     2401     2413     2432     2450     2465 
    2481     2501     2527     2556     2587     2620     2655     2690 
    2720     2752     2793     2830     2866     2903     2943     2982 
    3021     3059     3096     3142     3188     3225     3261     3292 
    3307     3307     3302     3291     3269     3242     3218     3191 
    3167     3153     3146     3129     3092     3042     2984     2920 
    2856     2799     2749     2702     2652     2605     2570     2542 
    2527     2524     2519     2516     2524     2542     2567     2598 
    2636     2682     2724     2755     2779     2791     2790     2782 
    2775     2771     2766     2763     2767     2778     2785     2794 
    2803     2794     2775     2760     2745     2733     2737     2749 
    2763     2775     2781     2779     2783     2793     2797     2795 
    2786     2779     2787     2806     2828     2856     2886     2910 
    2932     2947     2945     2934     2920     2895     2876     2876 
    2886     2890     2895     2905     2911     2920     2924     2903 
    2867     2837     2812     2790     2781     2785     2794     2805 
    2818     2840     2860     2868     2889     2917     2949     2991 
    3046     3113     3199     3298     3395     3487     3576     3653 
    3707     3751     3794     3823     3835     3846     3852     3846 
    3824     3784     3723     3646     3550     3430     3295     3159 
    3028     2898     2771     2662     2563     2473     2384     2292 
    2199     2107     2012     1918     1823     1728     1630     1539 
    1456     1383     1314     1252     1204     1165     1138     1144 
    1193     1263     1344     1444     1560     1686     1827     1977 
    2115     2246     2398     2565     2731     2907     3095     3272 
    3437     3604     3771     3916     4037     4140     4218     4279 
    4325     4351     4360     4352     4332     4301     4255     4198 
    4136     4062     3975     3883     3785     3677     3557     3427 
    3295     3160     3013     2851     2679     2509     2347     2193 
    2043     1903     1769     1641     1521     1413     1305     1193 
    1086      992      911      858      824      797      789      807 
     843      899      969     1054     1155     1263     1383     1525 
    1684     1857     2046     2241     2421     2597     2776     2952 
    3119     3281     3437     3593     3757     3916     4064     4197 
    4318     4438     4558     4662     4741     4801     4846     4862 
    4854     4830     4791     4741     4680     4607     4515     4396 
    4255     4098     3936     3777     3619     3457     3295     3136 
    2979     2822     2660     2501     2343     2181     2030     1899 
    1791     1711     1653     1599     1543     1491     1451     1431 
    1432     1460     1503     1543     1580     1632     1688     1745 
    1818     1898     1979     2070     2173     2273     2371     2477 
    2579     2666     2744     2820     2901     2998     3095     3177 
    3257     3341     3420     3495     3570     3643     3716     3792 
    3871     3948     4002     4027     4029     4014     3997     3981 
    3948     3900     3843     3761     3646     3522     3388     3249 
    3109     2975     2853     2739     2625     2524     2430     2330 
    2235     2154     2074     1996     1933     1887     1853     1826 
    1795     1765     1749     1753     1775     1806     1840     1871 
    1898     1927     1960     1993     2041     2096     2155     2224 
    2300     2388     2492     2597     2701     2816     2929     3045 
    3172     3289     3383     3464     3534     3588     3630     3680 
    3728     3755     3765     3759     3738     3707     3669     3607 
    3520     3419     3306     3192     3080     2965     2862     2771 
    2685     2606     2525     2439     2358     2281     2199     2116 
    2039     1969     1903     1840     1784     1732     1675     1622 
    1576     1543     1530     1529     1533     1545     1564     1595 
    1644     1699     1760     1834     1911     1998     2107     2228 
    2359     2500     2651     2818     2990     3146     3285     3403 
    3499     3584     3647     3680     3703     3727     3746     3763 
    3782     3792     3789     3786     3774     3742     3705     3669 
    3630     3596     3561     3511     3458     3410     3357     3303 
    3246     3188     3132     3073     3015     2965     2916     2863 
    2809     2754     2694     2631     2569     2502     2424     2340 
    2262     2200     2151     2122     2107     2103     2100     2096 
    2088     2080     2074     2069     2061     2064     2073     2083 
    2104     2137     2170     2205     2230     2246     2266     2290 
    2315     2336     2362     2397     2450     2516     2589     2664 
    2740     2820     2893     2956     3021     3091     3154     3211 
    3273     3337     3392     3447     3503     3549     3582     3612 
    3634     3639     3630     3622     3618     3611     3607     3600 
    3582     3558     3530     3496     3458     3418     3383     3356 
    3329     3296     3256     3214     3177     3146     3118     3084 
    3046     3001     2948     2890     2833     2782     2729     2673 
    2623     2571     2508     2435     2365     2297     2231     2174 
    2119     2061     2010     1975     1954     1944     1944     1957 
    1980     2006     2037     2080     2142     2214     2280     2346 
    2411     2475     2551     2636     2727     2826     2936     3046 
    3161     3283     3406     3519     3623     3719     3800     3869 
    3923     3954     3967     3966     3947     3908     3859     3800 
    3724     3640     3551     3465     3385     3294     3180     3057 
    2928     2791     2655     2524     2404     2289     2180     2084 
    2002     1930     1873     1826     1776     1730     1688     1640 
    1586     1540     1505     1476     1459     1452     1449     1447 
    1466     1498     1524     1563     1615     1668     1726     1792 
    1861     1944     2039     2137     2228     2320     2421     2532 
    2652     2774     2890     3013     3146     3276     3403     3537 
    3666     3782     3885     3971     4051     4129     4198     4248 
    4287     4322     4345     4355     4356     4342     4309     4260 
    4193     4106     4000     3882     3763     3635     3495     3348 
    3195     3041     2893     2740     2575     2413     2258     2103 
    1961     1842     1736     1648     1575     1505     1451     1418 
    1391     1371     1370     1377     1386     1409     1443     1487 
    1557     1647     1741     1836     1934     2041     2146     2246 
    2350     2462     2582     2695     2789     2876     2972     3069 
    3165     3261     3345     3418     3484     3549     3601     3640 
    3672     3696     3696     3673     3649     3622     3584     3538 
    3480     3411     3343     3291     3237     3169     3102     3036 
    2972     2916     2859     2798     2733     2660     2582     2504 
    2431     2366     2308     2254     2197     2143     2100     2073 
    2054     2030     2000     1983     1972     1958     1945     1942 
    1944     1954     1979     2007     2038     2081     2128     2170 
    2215     2262     2307     2346     2381     2417     2463     2523 
    2596     2677     2754     2820     2884     2957     3029     3092 
    3169     3256     3333     3412     3504     3586     3650     3708 
    3763     3811     3847     3881     3906     3917     3920     3921 
    3908     3878     3855     3834     3802     3763     3723     3685 
    3645     3593     3526     3443     3358     3280     3192     3094 
    2991     2886     2779     2674     2565     2457     2363     2269 
    2165     2058     1949     1840     1748     1672     1588     1501 
    1432     1387     1356     1333     1317     1308     1304     1310 
    1335     1362     1397     1464     1553     1640     1723     1821 
    1923     2014     2103     2199     2290     2382     2484     2590 
    2690     2783     2882     2982     3064     3145     3229     3302 
    3372     3443     3503     3551     3600     3645     3674     3703 
    3735     3753     3755     3755     3740     3709     3673     3638 
