Origin Time       2025/01/13 21:19:00
Lat.              31.8
Long.             131.6
Depth. (km)       30
Mag.              6.9
Station Code      TKS001
Station Lat.      34.2034
Station Long.     134.6096
Station Height(m) 2
Record Time       2025/01/13 21:21:31
Sampling Freq(Hz) 100Hz
Duration Time(s)  60
Dir.              U-D
Scale Factor      7845(gal)/8223790
Max. Acc. (gal)   0.486
Last Correction   2025/01/13 21:21:30
Memo.             
[...]
   19766    19765    19768    19776    19785    19792    19799    19809 
   19831    19853    19861    19858    19853    19849    19847    19855 
   19870    19893    19917    19936    19944    19940    19928    19911 
   19886    19863    19847    19830    19811    19796    19781    19757 
   19724    19693    19662    19630    19600    19576    19560    19556 
   19566    19588    19614    19641    19670    19708    19747    19778 
   19799    19813    19822    19822    19816    19809    19808    19812 
   19809    19799    19792    19791    19781    19774    19782    19796 
   19803    19796    19780    19759    19738    19720    19716    19727 
   19746    19762    19772    19785    19805    19824    19839    19854 
   19865    19867    19863    19861    19861    19862    19858    19851 
   19842    19830    19819    19812    19804    19797    19796    19804 
   19822    19842    19862    19888    19913    19931    19940    19936 
   19916    19896    19884    19877    19876    19880    19886    19886 
   19876    19867    19858    19838    19813    19799    19793    19799 
   19822    19847    19861    19866    19872    19876    19876    19878 
   19882    19886    19890    19889    19880    19867    19854    19838 
   19832    19845    19863    19878    19894    19913    19926    19923 
   19907    19886    19861    19823    19785    19754    19730    19718 
   19715    19715    19722    19741    19761    19777    19795    19813 
   19822    19816    19811    19807    19804    19811    19823    19836 
   19849    19853    19842    19826    19816    19818    19820    19828 
   19840    19845    19839    19831    19819    19800    19784    19776 
   19770    19759    19747    19734    19719    19703    19692    19683 
   19670    19668    19672    19673    19672    19664    19654    19657 
   19672    19692    19714    19735    19764    19789    19807    19823 
   19835    19835    19827    19819    19811    19811    19816    19816 
   19804    19782    19757    19737    19722    19705    19684    19674 
   19678    19685    19692    19701    19707    19703    19695    19693 
   19697    19701    19710    19728    19757    19788    19818    19850 
   19881    19905    19924    19932    19930    19927    19932    19938 
   19943    19948    19953    19955    19954    19944    19934    19927 
   19926    19920    19915    19915    19917    19920    19921    19927 
   19930    19924    19915    19901    19886    19867    19847    19834 
   19832    19835    19826    19807    19778    19741    19697    19658 
   19619    19585    19564    19557    19560    19573    19592    19618 
   19651    19692    19731    19768    19801    19834    19866    19893 
   19915    19938    19966    19990    20002    20001    19994    19982 
   19963    19938    19904    19870    19838    19807    19778    19755 
   19731    19707    19685    19670    19664    19670    19691    19718 
   19743    19762    19776    19782    19785    19792    19799    19796 
   19788    19777    19768    19757    19743    19728    19714    19710 
   19710    19695    19673    19664    19662    19669    19691    19716 
   19741    19759    19780    19797    19808    19811    19804    19796 
   19792    19796    19804    19812    19822    19828    19831    19831 
   19830    19822    19804    19782    19755    19724    19699    19680 
   19678    19699    19726    19749    19768    19772    19757    19737 
   19715    19689    19668    19647    19626    19611    19606    19603 
   19603    19610    19616    19618    19622    19626    19627    19634 
   19649    19668    19689    19715    19745    19770    19786    19807 
   19836    19873    19911    19940    19955    19961    19961    19959 
   19959    19965    19975    19988    19997    20007    20012    20012 
   20002    19982    19954    19917    19872    19827    19789    19757 
   19737    19724    19710    19700    19696    19689    19683    19678 
   19674    19670    19662    19653    19650    19653    19664    19678 
   19691    19701    19712    19722    19735    19743    19745    19750 
   19762    19773    19784    19800    19823    19846    19862    19884 
   19904    19912    19912    19909    19909    19913    19916    19913 
   19905    19903    19908    19916    19921    19920    19911    19901 
   19894    19885    19882    19882    19872    19850    19815    19770 
   19728    19696    19668    19649    19639    19629    19622    19626 
   19629    19630    19637    19646    19651    19650    19653    19662 
   19673    19684    19695    19707    19728    19755    19781    19809 
   19840    19867    19890    19915    19940    19963    19992    20017 
   20034    20048    20062    20071    20075    20070    20066    20063 
   20052    20035    20017    19994    19965    19931    19897    19876 
   19858    19828    19797    19770    19742    19716    19697    19674 
   19649    19624    19596    19566    19539    19514    19485    19462 
   19445    19430    19422    19427    19440    19456    19480    19516 
   19556    19591    19630    19674    19718    19757    19796    19832 
   19863    19892    19924    19961    19998    20029    20054    20067 
   20067    20066    20067    20067    20065    20059    20042    20017 
   19989    19947    19901    19859    19822    19785    19755    19728 
   19703    19678    19651    19626    19610    19599    19589    19585 
   19584    19584    19576    19570    19576    19589    19607    19629 
   19650    19669    19693    19722    19747    19770    19789    19800 
   19805    19816    19822    19824    19831    19836    19840    19845 
   19842    19831    19818    19803    19799    19805    19807    19800 
   19791    19780    19769    19764    19766    19772    19772    19769 
   19768    19764    19755    19749    19745    19738    19730    19724 
   19728    19731    19719    19700    19685    19670    19645    19610 
   19577    19556    19548    19552    19560    19566    19581    19593 
   19599    19600    19602    19602    19603    19607    19611    19616 
   19623    19630    19639    19651    19665    19684    19710    19739 
   19770    19808    19845    19877    19905    19928    19947    19966 
   19982    19990    19986    19973    19953    19932    19909    19881 
   19846    19805    19758    19707    19658    19614    19573    19539 
   19507    19480    19460    19437    19415    19395    19381    19377 
   19381    19392    19415    19454    19500    19549    19600    19656 
   19705    19749    19791    19832    19876    19926    19974    20015 
   20048    20078    20102    20124    20137    20140    20139    20131 
   20113    20086    20059    20034    20011    19990    19967    19940 
   19905    19870    19843    19819    19789    19761    19739    19716 
   19699    19692    19688    19688    19695    19704    19712    19719 
   19731    19746    19759    19769    19781    19800    19820    19835 
   19853    19872    19886    19897    19899    19905    19928    19957 
   19980    20004    20028    20040    20040    20039    20038    20040 
   20043    20040    20039    20034    20027    20020    20008    19994 
   19982    19970    19966    19963    19961    19963    19966    19963 
   19954    19940    19931    19924    19913    19899    19893    19889 
   19881    19876    19876    19877    19872    19861    19847    19828 
   19807    19782    19757    19730    19703    19678    19662    19647 
   19633    19615    19597    19585    19576    19572    19569    19566 
   19566    19573    19581    19588    19595    19602    19603    19606 
   19607    19602    19599    19602    19602    19603    19606    19611 
   19624    19639    19661    19687    19701    19705    19708    19708 
   19703    19699    19699    19704    19714    19720    19724    19728 
   19737    19742    19739    19720    19689    19654    19618    19580 
   19548    19522    19498    19480    19468    19452    19435    19421 
   19410    19404    19417    19440    19464    19492    19527    19560 
   19587    19616    19653    19688    19712    19742    19778    19818 
   19859    19899    19924    19932    19926    19913    19899    19873 
   19838    19801    19766    19731    19700    19681    19670    19660 
   19646    19631    19616    19608    19611    19627    19649    19674 
   19708    19747    19792    19834    19866    19894    19916    19924 
   19931    19936    19938    19940    19943    19940    19938    19936 
   19938    19939    19932    19923    19913    19900    19892    19892 
   19894    19901    19908    19911    19908    19894    19882    19882 
   19885    19884    19884    19885    19884    19878    19867    19851 
   19830    19808    19778    19743    19715    19696    19676    19653 
   19635    19627    19624    19629    19635    19646    19660    19681 
   19718    19766    19813    19859    19905    19951    20000    20051 
   20098    20140    20175    20206    20233    20254    20266    20266 
   20260    20254    20240    20216    20186    20150    20116    20086 
   20048    20007    19967    19932    19904    19876    19843    19813 
   19792    19770    19757    19753    19745    19735    19726    19714 
   19703    19697    19691    19689    19687    19668    19645    19629 
   19622    19622    19633    19651    19683    19719    19757    19793 
   19828    19862    19893    19919    19944    19970    19989    20004 
   20011    20011    20008    19993    19969    19946    19919    19882 
   19850    19826    19805    19793    19789    19789    19786    19770 
   19750    19735    19719    19704    19691    19678    19666    19650 
   19633    19623    19619    19614    19610    19604    19600    19600 
   19602    19607    19619    19627    19633    19638    19646    19664 
   19689    19716    19746    19776    19795    19812    19835    19855 
   19870    19880    19885    19885    19878    19865    19855    19851 
   19846    19842    19845    19855    19869    19880    19886    19884 
   19866    19850    19838    19826    19816    19812    19809    19808 
   19805    19803    19801    19795    19786    19786    19789    19796 
   19801    19804    19805    19803    19795    19785    19777    19764 
   19746    19728    19707    19680    19657    19638    19622    19610 
   19603    19595    19595    19599    19599    19600    19615    19630 
   19641    19660    19681    19697    19720    19746    19770    19796 
   19819    19843    19869    19888    19900    19908    19911    19915 
   19920    19923    19927    19930    19927    19923    19920    19915 
   19905    19897    19893    19885    19878    19867    19853    19843 
   19845    19845    19839    19828    19818    19805    19797    19789 
   19774    19758    19739    19715    19689    19665    19639    19616 
   19593    19570    19552    19534    19514    19498    19489    19477 
   19462    19450    19442    19440    19445    19450    19460    19480 
   19508    19541    19573    19607    19646    19691    19734    19768 
   19792    19808    19823    19836    19849    19861    19873    19882 
   19884    19885    19885    19884    19884    19882    19878    19870 
   19861    19858    19857    19854    19858    19869    19882    19899 
   19911    19917    19923    19923    19915    19903    19889    19876 
   19854    19834    19818    19803    19785    19766    19745    19726 
   19708    19691    19676    19668    19662    19656    19651    19657 
   19670    19692    19724    19758    19791    19823    19851    19874 
   19899    19927    19959    19992    20013    20029    20047    20055 
   20058    20058    20056    20054    20044    20024    19997    19957 
   19909    19855    19796    19735    19680    19639    19615    19596 
   19581    19568    19550    19530    19512    19499    19491    19491 
   19502    19511    19519    19526    19535    19553    19577    19608 
   19643    19676    19707    19737    19768    19799    19831    19865 
   19892    19912    19931    19951    19965    19966    19963    19961 
   19955    19955    19959    19953    19944    19938    19920    19896 
   19874    19855    19839    19822    19811    19805    19797    19784 
   19765    19754    19743    19726    19711    19705    19704    19703 
   19703    19710    19720    19730    19737    19739    19732    19720 
   19707    19699    19695    19693    19700    19711    19720    19726 
   19732    19742    19750    19757    19762    19759    19750    19741 
   19727    19714    19701    19693    19684    19678    19680    19681 
   19677    19672    19673    19674    19670    19676    19688    19697 
   19704    19705    19704    19708    19712    19718    19731    19747 
   19766    19784    19793    19804    19819    19828    19838    19850 
   19859    19869    19877    19885    19897    19903    19905    19908 
   19911    19921    19939    19950    19953    19953    19944    19934 
   19928    19928    19921    19907    19888    19869    19850    19830 
   19812    19797    19782    19768    19757    19755    19761    19773 
   19789    19800    19807    19813    19820    19827    19847    19867 
   19881    19893    19899    19894    19884    19872    19855    19835 
   19813    19791    19768    19747    19731    19716    19704    19699 
   19697    19696    19705    19720    19731    19741    19751    19770 
   19791    19804    19815    19823    19827    19831    19834    19836 
   19828    19809    19788    19769    19745    19723    19703    19676 
   19641    19604    19560    19512    19468    19430    19396    19360 
   19326    19298    19278    19273    19286    19305    19330    19365 
   19407    19458    19518    19573    19622    19666    19699    19716 
   19734    19754    19768    19777    19789    19796    19804    19812 
   19818    19820    19815    19797    19780    19766    19755    19743 
   19735    19730    19723    19720    19722    19716    19710    19703 
   19692    19689    19704    19730    19761    19799    19840    19880 
   19909    19936    19965    19992    20015    20038    20052    20062 
   20073    20085    20097    20102    20102    20100    20094    20083 
   20069    20046    20016    19985    19955    19924    19896    19876 
   19855    19835    19823    19815    19803    19799    19805    19815 
   19824    19840    19859    19878    19901    19917    19923    19924 
   19920    19911    19900    19892    19889    19894    19907    19919 
   19930    19936    19943    19942    19934    19924    19908    19889 
   19876    19863    19847    19839    19836    19835    19838    19842 
   19839    19843    19854    19858    19858    19859    19857    19849 
   19846    19840    19831    19824    19820    19811    19795    19772 
   19750    19734    19723    19715    19705    19700    19691    19672 
   19651    19634    19615    19596    19576    19554    19535    19518 
   19506    19502    19499    19496    19494    19496    19510    19530 
   19552    19575    19593    19610    19629    19647    19658    19666 
   19677    19685    19692    19701    19712    19728    19741    19746 
   19754    19769    19788    19807    19820    19834    19850    19862 
   19880    19904    19926    19946    19966    19977    19981    19986 
   19986    19975    19958    19938    19913    19888    19862    19832 
   19795    19755    19716    19677    19639    19611    19588    19566 
   19552    19548    19545    19542    19545    19552    19561    19575 
   19585    19597    19615    19638    19661    19685    19701    19718 
   19738    19754    19764    19766    19773    19780    19781    19776 
   19769    19759    19745    19731    19722    19712    19703    19699 
   19695    19678    19670    19674    19680    19688    19697    19704 
   19710    19716    19722    19734    19742    19746    19751    19758 
   19764    19766    19762    19758    19755    19750    19739    19727 
   19716    19703    19687    19672    19661    19642    19624    19610 
   19597    19592    19592    19595    19604    19618    19637    19664 
   19692    19723    19758    19795    19827    19859    19892    19920 
   19946    19965    19971    19975    19978    19969    19947    19930 
   19913    19890    19867    19840    19812    19791    19772    19757 
   19753    19754    19762    19778    19800    19827    19853    19877 
   19908    19934    19950    19970    19989    20008    20029    20043 
   20050    20052    20052    20050    20046    20040    20031    20019 
   20000    19981    19967    19957    19946    19939    19931    19921 
   19909    19894    19886    19888    19890    19892    19892    19896 
   19903    19916    19936    19958    19975    19990    20002    20011 
   20012    20008    20005    20005    20001    19994    19986    19975 
   19961    19948    19938    19921    19912    19904    19892    19881 
   19873    19857    19838    19819    19799    19776    19751    19724 
   19699    19673    19645    19620    19606    19592    19584    19584 
   19583    19580    19580    19585    19593    19607    19623    19643 
   19664    19678    19687    19685    19680    19674    19666    19651 
   19627    19599    19577    19565    19560    19557    19553    19554 
   19562    19576    19592    19616    19642    19664    19689    19715 
   19735    19753    19765    19773    19777    19773    19764    19759 
   19761    19757    19745    19732    19719    19700    19684    19673 
   19662    19650    19639    19629    19612    19592    19572    19552 
   19527    19500    19480    19461    19445    19431    19426    19423 
   19425    19435    19458    19487    19516    19541    19560    19576 
   19597    19620    19645    19676    19707    19732    19757    19778 
   19799    19822    19842    19857    19874    19896    19912    19927 
   19942    19951    19963    19978    19990    19997    20004    20013 
   20025    20028    20023    20016    20009    20005    19998    19993 
   19992    19994    19998    20005    20015    20024    20034    20042 
   20042    20031    20015    20004    19998    19990    19982    19971 
   19954    19935    19924    19911    19893    19884    19880    19874 
   19873    19870    19866    19873    19878    19876    19873    19873 
   19866    19859    19858    19857    19854    19854    19859    19865 
   19872    19881    19897    19923    19944    19955    19967    19980 
   19985    19993    20000    19997    19994    19985    19965    19942 
   19917    19893    19870    19846    19823    19803    19785    19769 
   19758    19739    19714    19693    19678    19657    19627    19603 
   19583    19564    19546    19534    19530    19541    19557    19576 
   19602    19627    19654    19689    19732    19773    19808    19842 
   19872    19894    19909    19913    19909    19904    19890    19866 
   19836    19801    19761    19722    19683    19634    19577    19522 
   19471    19423    19383    19348    19322    19309    19300    19295 
   19291    19295    19305    19318    19340    19367    19400    19446 
   19500    19554    19607    19657    19704    19750    19793    19831 
   19865    19897    19927    19953    19971    19986    20005    20021 
   20028    20023    20013    20002    19986    19967    19947    19921 
   19896    19877    19858    19834    19807    19780    19746    19712 
   19677    19647    19633    19624    19620    19622    19622    19624 
   19637    19646    19651    19664    19676    19689    19701    19716 
