Origin Time       2025/01/13 21:19:00
Lat.              31.8
Long.             131.6
Depth. (km)       30
Mag.              6.9
Station Code      TTR002
Station Lat.      35.4859
Station Long.     134.2201
Station Height(m) 6
Record Time       2025/01/13 21:21:52
Sampling Freq(Hz) 100Hz
Duration Time(s)  81
Dir.              E-W
Scale Factor      7845(gal)/8223790
Max. Acc. (gal)   2.599
Last Correction   2025/01/13 21:21:53
Memo.             
[...]
   -6237    -6238    -6227    -6216    -6224    -6219    -6193    -6170 
   -6143    -6110    -6084    -6064    -6048    -6042    -6042    -6034 
   -6014    -5989    -5981    -5968    -5929    -5913    -5917    -5896 
   -5861    -5830    -5799    -5776    -5757    -5740    -5730    -5715 
   -5711    -5721    -5724    -5719    -5715    -5714    -5719    -5729 
   -5725    -5715    -5715    -5736    -5760    -5768    -5778    -5800 
   -5818    -5826    -5840    -5861    -5880    -5896    -5911    -5921 
   -5941    -5976    -6008    -6029    -6049    -6080    -6118    -6142 
   -6157    -6165    -6165    -6169    -6161    -6129    -6107    -6108 
   -6116    -6114    -6099    -6104    -6153    -6197    -6207    -6197 
   -6183    -6180    -6200    -6216    -6211    -6204    -6215    -6241 
   -6257    -6250    -6245    -6253    -6280    -6305    -6291    -6257 
   -6253    -6269    -6282    -6284    -6281    -6311    -6359    -6390 
   -6399    -6397    -6411    -6438    -6444    -6411    -6349    -6282 
   -6245    -6226    -6188    -6142    -6110    -6093    -6080    -6048 
   -6015    -6012    -6007    -5987    -5960    -5929    -5899    -5875 
   -5869    -5869    -5848    -5829    -5832    -5823    -5807    -5800 
   -5778    -5749    -5752    -5771    -5787    -5806    -5800    -5796 
   -5830    -5861    -5871    -5872    -5881    -5915    -5950    -5946 
   -5926    -5922    -5933    -5953    -5973    -5991    -5996    -6007 
   -6049    -6100    -6130    -6137    -6147    -6181    -6228    -6266 
   -6303    -6353    -6392    -6392    -6401    -6440    -6462    -6463 
   -6480    -6505    -6538    -6582    -6623    -6642    -6644    -6640 
   -6633    -6623    -6610    -6598    -6571    -6538    -6498    -6459 
   -6417    -6372    -6342    -6331    -6301    -6238    -6181    -6151 
   -6141    -6112    -6060    -6027    -6019    -5988    -5952    -5934 
   -5906    -5853    -5795    -5755    -5715    -5645    -5574    -5539 
   -5513    -5481    -5448    -5412    -5379    -5367    -5356    -5339 
   -5346    -5368    -5374    -5368    -5387    -5422    -5439    -5444 
   -5464    -5495    -5535    -5574    -5595    -5626    -5686    -5741 
   -5784    -5821    -5850    -5881    -5913    -5952    -5988    -6012 
   -6053    -6106    -6151    -6204    -6254    -6286    -6324    -6377 
   -6427    -6465    -6492    -6508    -6515    -6515    -6523    -6546 
   -6563    -6563    -6558    -6563    -6589    -6617    -6628    -6632 
   -6629    -6628    -6644    -6662    -6674    -6683    -6675    -6663 
   -6678    -6689    -6683    -6686    -6678    -6643    -6608    -6585 
   -6583    -6593    -6586    -6575    -6574    -6573    -6571    -6575 
   -6571    -6562    -6556    -6566    -6581    -6575    -6562    -6546 
   -6519    -6497    -6480    -6427    -6365    -6326    -6285    -6226 
   -6156    -6100    -6062    -6011    -5948    -5894    -5838    -5782 
   -5742    -5702    -5643    -5584    -5539    -5502    -5472    -5449 
   -5440    -5435    -5425    -5424    -5425    -5421    -5427    -5422 
   -5400    -5381    -5371    -5373    -5391    -5417    -5443    -5471 
   -5503    -5540    -5555    -5548    -5560    -5597    -5648    -5707 
   -5748    -5780    -5837    -5907    -5981    -6072    -6162    -6224 
   -6253    -6278    -6315    -6346    -6363    -6385    -6415    -6439 
   -6458    -6473    -6496    -6505    -6501    -6536    -6596    -6619 
   -6610    -6592    -6566    -6550    -6539    -6520    -6502    -6481 
   -6447    -6424    -6403    -6358    -6311    -6280    -6259    -6228 
   -6176    -6133    -6106    -6072    -6031    -6004    -5996    -6003 
   -5996    -5972    -5971    -5985    -5991    -5996    -5996    -5980 
   -5976    -6003    -6029    -6023    -6016    -6043    -6084    -6100 
   -6102    -6110    -6131    -6168    -6208    -6224    -6212    -6212 
   -6262    -6316    -6319    -6304    -6303    -6300    -6300    -6308 
   -6307    -6300    -6292    -6273    -6245    -6222    -6205    -6185 
   -6160    -6135    -6119    -6100    -6073    -6049    -6027    -6016 
   -6016    -5998    -5961    -5953    -5975    -5991    -5987    -5980 
   -5973    -5961    -5949    -5948    -5937    -5914    -5907    -5906 
   -5891    -5883    -5908    -5960    -5980    -5964    -5964    -5995 
   -6033    -6073    -6110    -6137    -6154    -6172    -6197    -6216 
   -6216    -6215    -6235    -6261    -6281    -6285    -6276    -6299 
   -6358    -6396    -6405    -6413    -6432    -6465    -6496    -6523 
   -6550    -6548    -6546    -6581    -6596    -6554    -6527    -6538 
   -6516    -6458    -6419    -6400    -6377    -6365    -6353    -6320 
   -6284    -6261    -6249    -6232    -6184    -6116    -6083    -6076 
   -6049    -6014    -5979    -5942    -5927    -5921    -5879    -5821 
   -5778    -5741    -5699    -5652    -5617    -5609    -5603    -5583 
   -5574    -5578    -5587    -5609    -5637    -5638    -5609    -5610 
   -5643    -5632    -5597    -5595    -5617    -5649    -5680    -5706 
   -5733    -5751    -5768    -5805    -5830    -5833    -5829    -5819 
   -5806    -5810    -5818    -5827    -5860    -5899    -5917    -5942 
   -5988    -6018    -6029    -6031    -6026    -6029    -6038    -6026 
   -5994    -5977    -5995    -6011    -6002    -5977    -5960    -5969 
   -6006    -6034    -6025    -5999    -5992    -6007    -6022    -6016 
   -5994    -5973    -5969    -5973    -5972    -5952    -5931    -5941 
   -5962    -5960    -5933    -5886    -5841    -5844    -5869    -5863 
   -5825    -5780    -5749    -5748    -5752    -5736    -5722    -5722 
   -5719    -5714    -5729    -5757    -5757    -5733    -5752    -5814 
   -5845    -5833    -5838    -5865    -5888    -5922    -5968    -5983 
   -5981    -6010    -6060    -6091    -6103    -6134    -6181    -6197 
   -6191    -6207    -6232    -6254    -6274    -6281    -6262    -6238 
   -6242    -6249    -6223    -6185    -6147    -6108    -6079    -6048 
   -6004    -5973    -5972    -5975    -5946    -5906    -5881    -5872 
   -5873    -5863    -5827    -5796    -5802    -5830    -5844    -5848 
   -5859    -5871    -5892    -5921    -5935    -5954    -5988    -6011 
   -6029    -6081    -6168    -6259    -6335    -6390    -6461    -6567 
   -6671    -6732    -6781    -6862    -6975    -7076    -7138    -7160 
   -7169    -7209    -7291    -7371    -7402    -7412    -7430    -7443 
   -7461    -7480    -7487    -7474    -7433    -7399    -7395    -7383 
   -7341    -7291    -7260    -7244    -7207    -7138    -7047    -6949 
   -6863    -6781    -6705    -6635    -6532    -6401    -6289    -6207 
   -6122    -6021    -5944    -5896    -5837    -5764    -5707    -5659 
   -5603    -5552    -5509    -5468    -5429    -5390    -5344    -5290 
   -5246    -5215    -5193    -5184    -5181    -5171    -5179    -5213 
   -5247    -5287    -5348    -5398    -5425    -5460    -5516    -5579 
   -5643    -5698    -5755    -5813    -5869    -5933    -5999    -6048 
   -6084    -6142    -6216    -6273    -6303    -6331    -6386    -6454 
   -6519    -6596    -6662    -6694    -6718    -6751    -6786    -6802 
   -6798    -6808    -6813    -6797    -6772    -6743    -6700    -6650 
   -6604    -6575    -6559    -6538    -6502    -6465    -6444    -6432 
   -6415    -6403    -6380    -6330    -6301    -6316    -6323    -6286 
   -6253    -6254    -6254    -6234    -6207    -6173    -6131    -6107 
   -6107    -6100    -6076    -6056    -6054    -6066    -6093    -6122 
   -6138    -6161    -6178    -6174    -6177    -6195    -6205    -6211 
   -6224    -6239    -6247    -6259    -6270    -6269    -6266    -6284 
   -6305    -6312    -6309    -6319    -6331    -6311    -6286    -6304 
   -6335    -6345    -6362    -6386    -6390    -6390    -6376    -6331 
   -6292    -6266    -6224    -6165    -6104    -6045    -5977    -5915 
   -5879    -5840    -5796    -5769    -5740    -5690    -5640    -5597 
   -5556    -5524    -5494    -5472    -5468    -5476    -5481    -5475 
   -5472    -5493    -5510    -5506    -5516    -5540    -5545    -5545 
   -5560    -5563    -5555    -5578    -5618    -5637    -5647    -5678 
   -5715    -5745    -5782    -5818    -5833    -5848    -5890    -5930 
   -5965    -6016    -6070    -6120    -6178    -6238    -6286    -6323 
   -6357    -6394    -6426    -6448    -6465    -6470    -6474    -6489 
   -6500    -6505    -6524    -6529    -6524    -6531    -6535    -6520 
   -6500    -6490    -6498    -6512    -6519    -6527    -6534    -6540 
   -6559    -6574    -6573    -6569    -6575    -6586    -6577    -6550 
   -6517    -6488    -6462    -6447    -6431    -6416    -6411    -6407 
   -6392    -6372    -6347    -6318    -6295    -6282    -6259    -6215 
   -6178    -6158    -6122    -6065    -6007    -5946    -5890    -5842 
   -5780    -5710    -5655    -5599    -5539    -5487    -5448    -5417 
   -5387    -5362    -5337    -5309    -5274    -5242    -5202    -5144 
   -5092    -5054    -5036    -5036    -5028    -5016    -5020    -5032 
   -5050    -5061    -5065    -5092    -5121    -5131    -5147    -5175 
   -5200    -5231    -5275    -5321    -5377    -5432    -5467    -5506 
   -5560    -5611    -5659    -5713    -5786    -5859    -5918    -5981 
   -6058    -6129    -6193    -6270    -6345    -6419    -6492    -6548 
   -6598    -6658    -6717    -6777    -6837    -6902    -6983    -7064 
   -7128    -7194    -7267    -7341    -7416    -7481    -7530    -7570 
   -7607    -7635    -7653    -7666    -7678    -7680    -7672    -7658 
   -7624    -7569    -7511    -7452    -7384    -7307    -7217    -7119 
   -7030    -6955    -6879    -6787    -6701    -6635    -6570    -6496 
   -6417    -6336    -6266    -6205    -6139    -6068    -5994    -5923 
   -5860    -5799    -5737    -5670    -5606    -5549    -5487    -5416 
   -5351    -5286    -5228    -5188    -5136    -5070    -5020    -4985 
   -4949    -4916    -4882    -4850    -4833    -4812    -4793    -4803 
   -4826    -4853    -4892    -4931    -4973    -5042    -5123    -5204 
   -5283    -5366    -5459    -5555    -5645    -5744    -5838    -5931 
   -6048    -6150    -6237    -6336    -6426    -6501    -6582    -6650 
   -6708    -6770    -6821    -6878    -6948    -7009    -7068    -7125 
   -7171    -7222    -7265    -7296    -7326    -7342    -7352    -7372 
   -7383    -7379    -7377    -7373    -7368    -7360    -7334    -7300 
   -7265    -7225    -7190    -7140    -7067    -6997    -6924    -6835 
   -6754    -6679    -6616    -6571    -6509    -6430    -6358    -6291 
   -6230    -6169    -6102    -6037    -5969    -5896    -5841    -5799 
   -5737    -5663    -5597    -5540    -5486    -5432    -5383    -5331 
   -5277    -5225    -5171    -5113    -5061    -5012    -4963    -4918 
   -4869    -4820    -4779    -4739    -4700    -4665    -4633    -4608 
   -4584    -4548    -4504    -4484    -4510    -4541    -4529    -4519 
   -4560    -4610    -4644    -4680    -4718    -4762    -4814    -4869 
   -4935    -4997    -5049    -5112    -5179    -5243    -5329    -5424 
   -5517    -5614    -5703    -5792    -5900    -6014    -6123    -6224 
   -6322    -6432    -6547    -6647    -6748    -6847    -6932    -7022 
   -7111    -7190    -7265    -7334    -7398    -7470    -7534    -7591 
   -7650    -7700    -7750    -7803    -7834    -7854    -7881    -7896 
   -7898    -7902    -7886    -7851    -7812    -7769    -7719    -7655 
   -7584    -7515    -7427    -7322    -7227    -7129    -7021    -6917 
   -6805    -6693    -6597    -6505    -6401    -6295    -6187    -6079 
   -5965    -5846    -5726    -5601    -5476    -5367    -5259    -5157 
   -5076    -5004    -4934    -4878    -4835    -4799    -4769    -4746 
   -4729    -4720    -4722    -4737    -4760    -4780    -4808    -4847 
   -4884    -4919    -4955    -4996    -5044    -5105    -5167    -5228 
   -5292    -5362    -5440    -5518    -5594    -5664    -5733    -5802 
   -5869    -5933    -5991    -6043    -6089    -6126    -6160    -6192 
   -6215    -6241    -6281    -6308    -6323    -6343    -6366    -6392 
   -6420    -6444    -6465    -6484    -6494    -6500    -6502    -6504 
   -6501    -6484    -6459    -6446    -6430    -6407    -6397    -6390 
   -6377    -6376    -6386    -6403    -6421    -6439    -6467    -6509 
   -6547    -6588    -6632    -6675    -6731    -6793    -6847    -6906 
   -6960    -7001    -7042    -7076    -7098    -7123    -7150    -7172 
   -7183    -7176    -7165    -7145    -7101    -7048    -6988    -6902 
   -6802    -6698    -6567    -6426    -6291    -6153    -6010    -5856 
   -5701    -5560    -5424    -5286    -5162    -5040    -4928    -4837 
   -4739    -4634    -4540    -4459    -4387    -4318    -4256    -4222 
   -4216    -4191    -4155    -4152    -4185    -4217    -4249    -4302 
   -4365    -4440    -4534    -4633    -4725    -4826    -4949    -5077 
   -5202    -5340    -5482    -5624    -5782    -5945    -6107    -6261 
   -6412    -6573    -6731    -6879    -7030    -7182    -7325    -7465 
   -7605    -7735    -7852    -7974    -8101    -8214    -8313    -8398 
   -8468    -8534    -8596    -8640    -8658    -8669    -8684    -8676 
   -8638    -8596    -8552    -8486    -8399    -8301    -8181    -8043 
   -7897    -7735    -7553    -7361    -7159    -6948    -6745    -6544 
   -6335    -6116    -5906    -5709    -5514    -5320    -5134    -4950 
   -4768    -4590    -4418    -4263    -4126    -3993    -3863    -3758 
   -3667    -3588    -3520    -3466    -3430    -3404    -3384    -3379 
   -3377    -3387    -3419    -3460    -3508    -3580    -3658    -3739 
   -3829    -3924    -4020    -4117    -4207    -4314    -4433    -4546 
   -4672    -4804    -4924    -5050    -5181    -5308    -5452    -5613 
   -5764    -5910    -6057    -6207    -6359    -6507    -6656    -6798 
   -6924    -7053    -7180    -7285    -7388    -7492    -7578    -7658 
   -7738    -7809    -7871    -7931    -7987    -8036    -8077    -8118 
   -8163    -8195    -8212    -8214    -8216    -8214    -8201    -8178 
   -8152    -8135    -8117    -8089    -8059    -8037    -8014    -7983 
   -7939    -7886    -7834    -7789    -7742    -7670    -7588    -7514 
   -7446    -7380    -7302    -7218    -7136    -7051    -6971    -6883 
   -6775    -6669    -6573    -6473    -6369    -6261    -6149    -6046 
   -5948    -5850    -5756    -5657    -5557    -5460    -5367    -5283 
   -5202    -5116    -5046    -4986    -4931    -4888    -4847    -4803 
   -4756    -4711    -4675    -4637    -4598    -4568    -4537    -4495 
   -4465    -4450    -4428    -4402    -4384    -4368    -4367    -4375 
   -4380    -4386    -4390    -4403    -4432    -4445    -4453    -4487 
   -4521    -4561    -4615    -4654    -4699    -4760    -4806    -4845 
   -4901    -4963    -5028    -5096    -5173    -5256    -5340    -5429 
   -5514    -5586    -5671    -5773    -5857    -5940    -6035    -6120 
   -6201    -6301    -6389    -6465    -6544    -6623    -6701    -6774 
   -6829    -6887    -6949    -6995    -7038    -7086    -7128    -7173 
   -7226    -7273    -7314    -7353    -7391    -7430    -7466    -7496 
   -7522    -7549    -7568    -7578    -7597    -7623    -7636    -7628 
   -7619    -7608    -7572    -7527    -7487    -7425    -7349    -7281 
   -7211    -7133    -7053    -6970    -6875    -6779    -6686    -6588 
   -6481    -6378    -6284    -6184    -6080    -5980    -5886    -5794 
   -5711    -5633    -5552    -5483    -5435    -5386    -5335    -5292 
   -5254    -5224    -5198    -5167    -5140    -5115    -5097    -5094 
   -5086    -5074    -5081    -5097    -5112    -5136    -5170    -5202 
   -5244    -5302    -5362    -5414    -5466    -5522    -5578    -5624 
   -5672    -5718    -5759    -5810    -5856    -5887    -5931    -5980 
   -6012    -6043    -6077    -6100    -6120    -6153    -6188    -6226 
   -6284    -6346    -6369    -6377    -6450    -6559    -6592    -6593 
   -6648    -6712    -6740    -6774    -6822    -6853    -6876    -6902 
   -6920    -6932    -6947    -6963    -6967    -6961    -6955    -6936 
   -6912    -6899    -6883    -6856    -6835    -6813    -6783    -6751 
   -6731    -6708    -6673    -6642    -6619    -6592    -6555    -6516 
   -6482    -6447    -6408    -6370    -6328    -6281    -6241    -6203 
   -6158    -6111    -6058    -6003    -5952    -5899    -5845    -5796 
   -5746    -5695    -5637    -5584    -5551    -5516    -5466    -5421 
   -5383    -5344    -5306    -5273    -5244    -5224    -5202    -5178 
   -5162    -5155    -5157    -5162    -5171    -5192    -5219    -5242 
   -5275    -5317    -5355    -5397    -5448    -5498    -5555    -5614 
   -5671    -5718    -5761    -5807    -5853    -5883    -5911    -5935 
   -5948    -5965    -5983    -5979    -5983    -6003    -6012    -6011 
   -6012    -6023    -6054    -6084    -6103    -6130    -6160    -6187 
   -6224    -6258    -6280    -6309    -6350    -6392    -6435    -6471 
   -6511    -6562    -6613    -6666    -6713    -6758    -6813    -6872 
   -6922    -6968    -7011    -7052    -7094    -7128    -7146    -7169 
   -7192    -7204    -7219    -7229    -7221    -7211    -7203    -7190 
   -7163    -7126    -7088    -7047    -6995    -6941    -6890    -6835 
   -6782    -6732    -6679    -6628    -6578    -6519    -6450    -6385 
   -6322    -6258    -6188    -6114    -6041    -5972    -5902    -5809 
   -5710    -5649    -5601    -5522    -5437    -5385    -5333    -5256 
   -5196    -5150    -5097    -5053    -5012    -4963    -4927    -4897 
   -4874    -4865    -4865    -4878    -4899    -4914    -4934    -4968 
   -5003    -5042    -5080    -5112    -5154    -5216    -5282    -5341 
   -5405    -5485    -5575    -5659    -5738    -5821    -5898    -5976 
   -6052    -6119    -6195    -6280    -6355    -6428    -6504    -6582 
   -6663    -6731    -6790    -6864    -6941    -6984    -7007    -7059 
   -7142    -7186    -7164    -7153    -7195    -7225    -7203    -7180 
   -7165    -7138    -7111    -7065    -7007    -6953    -6886    -6817 
   -6745    -6662    -6588    -6519    -6439    -6362    -6284    -6193 
   -6108    -6025    -5933    -5850    -5780    -5701    -5621    -5547 
   -5471    -5397    -5324    -5246    -5179    -5124    -5071    -5027 
   -4981    -4934    -4899    -4868    -4838    -4828    -4820    -4795 
   -4776    -4791    -4830    -4861    -4874    -4901    -4955    -5016 
   -5077    -5132    -5197    -5296    -5401    -5503    -5618    -5736 
   -5854    -5976    -6100    -6224    -6342    -6459    -6577    -6681 
   -6775    -6874    -6967    -7038    -7091    -7144    -7196    -7248 
   -7295    -7323    -7338    -7352    -7353    -7342    -7327    -7304 
   -7271    -7229    -7180    -7122    -7061    -6991    -6912    -6825 
   -6732    -6635    -6535    -6434    -6336    -6239    -6142    -6054 
   -5976    -5895    -5814    -5746    -5701    -5660    -5576    -5472 
   -5466    -5532    -5495    -5386    -5375    -5425    -5431    -5445 
   -5474    -5479    -5510    -5580    -5638    -5671    -5705    -5748 
   -5799    -5846    -5879    -5915    -5958    -5994    -6026    -6065 
   -6100    -6135    -6172    -6205    -6234    -6254    -6273    -6296 
   -6311    -6322    -6342    -6359    -6372    -6390    -6397    -6389 
   -6390    -6400    -6396    -6388    -6380    -6367    -6350    -6330 
   -6303    -6266    -6228    -6193    -6146    -6089    -6045    -6003 
