Origin Time       2025/01/13 21:19:00
Lat.              31.8
Long.             131.6
Depth. (km)       30
Mag.              6.9
Station Code      TTR002
Station Lat.      35.4859
Station Long.     134.2201
Station Height(m) 6
Record Time       2025/01/13 21:21:52
Sampling Freq(Hz) 100Hz
Duration Time(s)  81
Dir.              N-S
Scale Factor      7845(gal)/8223790
Max. Acc. (gal)   2.172
Last Correction   2025/01/13 21:21:53
Memo.             
[...]
    1425     1441     1482     1514     1526     1525     1514     1514 
    1525     1518     1494     1478     1489     1495     1453     1393 
    1374     1370     1332     1291     1270     1243     1200     1156 
    1129     1125     1131     1124     1111     1094     1082     1080 
    1074     1051     1020     1009     1042     1084     1084     1077 
    1101     1125     1148     1196     1232     1223     1223     1263 
    1308     1331     1336     1348     1390     1467     1541     1588 
    1632     1674     1701     1714     1728     1738     1733     1730 
    1759     1792     1790     1773     1784     1822     1850     1844 
    1833     1838     1831     1807     1788     1767     1736     1710 
    1690     1665     1638     1593     1537     1514     1503     1449 
    1378     1337     1318     1289     1250     1223     1208     1204 
    1217     1227     1216     1210     1229     1251     1254     1252 
    1264     1274     1267     1260     1274     1293     1289     1262 
    1252     1274     1301     1308     1298     1302     1321     1318 
    1306     1310     1309     1312     1339     1360     1358     1351 
    1354     1364     1366     1356     1347     1345     1358     1375 
    1382     1377     1375     1386     1405     1417     1398     1378 
    1394     1424     1431     1421     1426     1443     1463     1483 
    1499     1509     1505     1499     1505     1506     1499     1499 
    1512     1521     1517     1520     1540     1528     1480     1462 
    1480     1478     1433     1395     1395     1406     1401     1381 
    1350     1340     1372     1398     1389     1383     1385     1386 
    1414     1431     1405     1399     1431     1441     1418     1401 
    1413     1435     1451     1456     1444     1436     1443     1439 
    1435     1449     1460     1472     1497     1521     1555     1598 
    1624     1651     1688     1706     1695     1687     1690     1684 
    1679     1680     1674     1668     1686     1729     1757     1755 
    1738     1744     1769     1775     1755     1749     1750     1753 
    1777     1799     1786     1763     1755     1761     1764     1733 
    1687     1657     1633     1605     1588     1561     1517     1482 
    1466     1449     1429     1417     1408     1393     1374     1344 
    1308     1293     1281     1231     1185     1161     1128     1101 
    1093     1074     1046     1030     1020     1023     1030     1023 
    1015     1027     1062     1086     1077     1061     1074     1112 
    1143     1167     1182     1175     1158     1162     1192     1221 
    1224     1209     1217     1236     1229     1209     1198     1185 
    1159     1146     1144     1140     1136     1136     1136     1136 
    1140     1150     1159     1173     1192     1208     1232     1282 
    1324     1336     1347     1375     1408     1431     1435     1432 
    1440     1453     1467     1483     1485     1476     1480     1493 
    1509     1525     1521     1503     1490     1490     1499     1487 
    1460     1471     1507     1521     1513     1505     1516     1559 
    1595     1586     1572     1597     1624     1622     1609     1606 
    1613     1614     1624     1644     1638     1622     1638     1676 
    1692     1682     1675     1696     1722     1721     1709     1699 
    1679     1656     1661     1678     1665     1645     1648     1649 
    1632     1629     1651     1664     1656     1647     1645     1647 
    1644     1636     1636     1636     1613     1582     1559     1556 
    1560     1540     1502     1471     1459     1456     1443     1418 
    1399     1383     1372     1366     1351     1328     1305     1302 
    1317     1314     1283     1264     1282     1298     1282     1258 
    1255     1264     1256     1244     1248     1263     1289     1324 
    1344     1352     1352     1358     1382     1401     1408     1408 
    1409     1420     1435     1436     1440     1462     1479     1487 
    1487     1476     1483     1501     1509     1505     1502     1506 
    1505     1498     1494     1486     1464     1443     1428     1399 
    1363     1333     1313     1290     1248     1204     1186     1178 
    1162     1144     1127     1113     1113     1109     1089     1062 
    1043     1057     1085     1074     1047     1069     1124     1155 
    1152     1154     1182     1244     1306     1333     1337     1364 
    1429     1497     1532     1533     1543     1590     1657     1709 
    1723     1721     1740     1783     1817     1831     1857     1896 
    1931     1961     1977     1979     1998     2039     2069     2061 
    2035     2035     2037     2012     1973     1939     1912     1892 
    1857     1814     1788     1760     1703     1645     1588     1522 
    1458     1394     1333     1273     1217     1174     1124     1057 
     993      947      920      892      857      841      846      859 
     866      861      859      877      893      896      905      924 
     951      980      993     1005     1031     1066     1115     1166 
    1202     1239     1283     1335     1385     1426     1474     1532 
    1580     1605     1633     1679     1710     1719     1749     1800 
    1818     1802     1795     1810     1830     1848     1853     1861 
    1879     1885     1883     1885     1880     1872     1872     1860 
    1826     1791     1786     1802     1786     1732     1717     1750 
    1752     1706     1671     1672     1686     1674     1641     1611 
    1594     1593     1601     1602     1591     1572     1555     1559 
    1574     1566     1548     1549     1559     1560     1543     1512 
    1491     1471     1441     1425     1425     1412     1372     1324 
    1300     1305     1300     1266     1232     1208     1179     1150 
    1125     1086     1043     1026     1015      976      919      886 
     888      869      816      761      716      679      641      596 
     561      538      518      502      506      519      527      537 
     546      540      540      567      596      608      626      673 
     735      762      757      778      843      909      953      962 
     962      993     1062     1144     1197     1220     1270     1366 
    1459     1505     1541     1610     1682     1733     1777     1819 
    1861     1919     1988     2049     2096     2135     2165     2207 
    2259     2299     2317     2320     2327     2347     2354     2332 
    2323     2330     2317     2297     2282     2261     2227     2193 
    2166     2126     2081     2038     1988     1937     1881     1803 
    1726     1672     1613     1539     1466     1404     1336     1252 
    1166     1084     1008      959      930      891      849      841 
     862      870      850      832      855      900      905      873 
     861      892      936      962      973      988     1017     1054 
    1098     1161     1210     1244     1301     1370     1410     1445 
    1510     1584     1663     1753     1837     1895     1948     2011 
    2069     2130     2205     2268     2292     2312     2342     2359 
    2384     2413     2389     2350     2354     2357     2324     2284 
    2241     2196     2164     2124     2054     1983     1922     1850 
    1771     1698     1625     1539     1436     1344     1277     1205 
    1128     1054      976      924      881      795      703      660 
     638      615      588      569      576      581      567      560 
     572      599      635      653      666      719      773      795 
     828      876      915      965     1011     1050     1105     1174 
    1246     1308     1352     1397     1460     1521     1563     1615 
    1683     1738     1788     1842     1890     1944     1995     2034 
    2076     2116     2142     2162     2177     2181     2185     2187 
    2176     2161     2160     2162     2138     2099     2089     2093 
    2066     2019     1973     1931     1911     1890     1838     1794 
    1775     1752     1715     1671     1622     1584     1572     1559 
    1521     1482     1458     1432     1394     1356     1337     1321 
    1290     1262     1248     1240     1232     1235     1243     1246 
    1255     1275     1289     1290     1287     1289     1309     1336 
    1335     1325     1332     1348     1355     1351     1333     1316 
    1305     1302     1309     1293     1262     1255     1251     1224 
    1209     1209     1194     1174     1162     1155     1140     1105 
    1080     1085     1089     1069     1051     1058     1075     1077 
    1085     1120     1152     1170     1189     1215     1244     1258 
    1264     1289     1312     1310     1310     1336     1368     1389 
    1393     1405     1436     1462     1464     1470     1483     1483 
    1479     1495     1506     1485     1453     1425     1401     1393 
    1386     1358     1328     1313     1300     1279     1252     1227 
    1217     1206     1182     1152     1120     1092     1078     1057 
    1017      990      985      974      953      930      919      924 
     940      946      936      942      977     1016     1061     1107 
    1146     1201     1275     1341     1395     1447     1498     1556 
    1614     1655     1703     1767     1831     1898     1958     2011 
    2064     2107     2142     2180     2211     2241     2273     2297 
    2327     2366     2386     2403     2436     2467     2481     2488 
    2490     2488     2478     2444     2392     2354     2327     2286 
    2231     2173     2123     2080     2019     1948     1876     1810 
    1734     1642     1561     1497     1433     1366     1296     1231 
    1182     1136     1097     1067     1024      973      936      905 
     872      843      810      787      791      796      785      774 
     784      805      816      816      830      858      878      884 
     895      918      943      954      958      967      977      981 
     985      990      992      990      994     1016     1039     1058 
    1082     1115     1159     1201     1224     1255     1298     1339 
    1381     1422     1466     1505     1534     1563     1603     1644 
    1675     1701     1728     1746     1763     1782     1799     1803 
    1798     1799     1796     1787     1780     1769     1755     1753 
    1748     1729     1710     1691     1674     1659     1632     1609 
    1599     1582     1559     1540     1521     1506     1480     1448 
    1418     1389     1368     1378     1387     1375     1367     1375 
    1389     1406     1425     1453     1486     1506     1540     1588 
    1625     1668     1722     1765     1810     1857     1902     1953 
    2006     2045     2077     2112     2160     2209     2235     2251 
    2281     2308     2326     2331     2317     2293     2276     2265 
    2246     2195     2127     2077     2037     1976     1894     1807 
    1738     1674     1595     1507     1426     1366     1321     1273 
    1217     1173     1142     1112     1077     1039     1009      985 
     959      938      908      864      830      811      788      756 
     716      685      669      646      615      587      565      542 
     513      484      465      444      421      409      402      400 
     405      400      395      392      390      399      417      422 
     422      433      448      461      471      481      504      534 
     562      595      635      684      741      801      872      945 
    1007     1066     1117     1165     1239     1320     1370     1417 
    1480     1549     1615     1678     1736     1799     1861     1918 
    1981     2043     2096     2154     2208     2254     2307     2355 
    2389     2424     2457     2475     2479     2473     2459     2438 
    2401     2359     2312     2259     2212     2157     2084     2010 
    1942     1876     1804     1723     1642     1564     1478     1383 
    1285     1182     1085      985      877      773      672      577 
     498      418      336      263      199      148      113       83 
      60       49       52       68       89      113      151      202 
     265      330      406      508      619      726      839      961 
    1092     1229     1359     1486     1618     1742     1864     1987 
    2104     2212     2323     2432     2535     2625     2713     2803 
    2884     2952     3017     3078     3126     3168     3195     3206 
    3214     3214     3204     3180     3146     3109     3061     2994 
    2916     2833     2741     2651     2559     2462     2359     2253 
    2151     2057     1960     1850     1738     1630     1525     1412 
    1285     1165     1063      969      872      777      688      602 
     515      432      352      270      193      129       67        2 
     -49      -82     -101     -114     -125     -122      -99      -72 
     -44       -8       39       98      171      248      332      429 
     538      661      783      904     1038     1179     1325     1478 
    1628     1777     1933     2087     2234     2369     2500     2629 
    2751     2862     2965     3060     3141     3214     3276     3322 
    3358     3385     3400     3400     3383     3354     3319     3271 
    3206     3129     3034     2926     2806     2675     2540     2392 
    2230     2065     1895     1725     1559     1382     1194     1026 
     868      697      525      361      211       74      -62     -195 
    -311     -407     -496     -585     -664     -722     -770     -803 
    -828     -849     -847     -824     -791     -739     -680     -618 
    -533     -442     -364     -271     -157      -37       79      195 
     321      465      611      751      897     1048     1200     1340 
    1474     1609     1738     1864     1988     2104     2218     2323 
    2420     2520     2616     2685     2745     2808     2864     2910 
    2944     2971     3003     3029     3042     3056     3067     3080 
    3094     3092     3084     3072     3046     3009     2963     2897 
    2822     2749     2659     2556     2450     2336     2219     2091 
    1958     1830     1695     1557     1425     1283     1143     1012 
     884      765      657      560      475      405      340      283 
     230      180      149      130      113      102      106      125 
     156      186      222      271      314      349      395      449 
     496      540      585      633      680      738      803      859 
     909      957     1004     1063     1128     1181     1225     1274 
    1328     1381     1431     1476     1521     1564     1613     1660 
    1696     1738     1787     1825     1861     1902     1944     1992 
    2043     2089     2138     2185     2238     2290     2328     2369 
    2409     2438     2469     2508     2540     2571     2598     2614 
    2631     2639     2637     2639     2632     2614     2600     2571 
    2532     2489     2436     2373     2307     2234     2161     2083 
    1988     1892     1799     1694     1584     1471     1352     1240 
    1119      992      878      770      666      575      486      400 
     336      284      234      189      163      155      153      156 
     166      183      218      264      311      363      422      484 
     550      622      688      751      811      872      945     1017 
    1082     1159     1243     1318     1389     1452     1514     1578 
    1636     1683     1725     1775     1826     1864     1892     1925 
    1958     1988     2016     2039     2053     2062     2070     2066 
    2056     2034     1998     1960     1918     1864     1802     1736 
    1664     1588     1503     1418     1343     1263     1177     1097 
    1020      938      861      789      716      657      608      560 
     513      480      445      410      394      392      392      395 
     410      438      471      503      544      598      656      716 
     776      838      913      993     1067     1140     1216     1297 
    1381     1458     1533     1609     1680     1753     1827     1898 
    1968     2042     2115     2187     2254     2315     2382     2452 
    2512     2562     2608     2654     2697     2728     2752     2775 
    2795     2813     2821     2812     2795     2775     2743     2697 
    2647     2594     2533     2465     2393     2317     2230     2145 
    2064     1972     1876     1792     1715     1638     1563     1489 
    1410     1341     1282     1216     1144     1080     1019      965 
     915      849      765      691      650      614      542      454 
     392      355      309      265      234      205      189      176 
     164      164      171      182      198      214      240      275 
     306      340      375      409      453      508      564      614 
     664      714      777      842      886      930      988     1050 
    1107     1163     1215     1264     1317     1374     1425     1474 
    1533     1597     1651     1703     1763     1823     1890     1956 
    2020     2080     2138     2208     2289     2355     2411     2473 
    2535     2592     2644     2691     2731     2771     2810     2839 
    2859     2876     2894     2898     2889     2880     2874     2859 
    2837     2798     2744     2693     2631     2555     2477     2394 
    2304     2214     2120     2020     1915     1807     1702     1593 
    1483     1385     1286     1185     1096     1008      918      841 
     766      685      618      557      496      444      400      361 
     332      307      288      271      255      252      259      270 
     283      298      318      346      382      411      441      479 
     521      560      592      629      665      700      737      776 
     810      842      881      922      958      997     1039     1078 
    1124     1175     1215     1247     1291     1347     1395     1436 
    1476     1520     1563     1606     1653     1698     1733     1772 
    1814     1849     1884     1923     1960     1993     2019     2031 
    2042     2068     2093     2091     2062     2042     2031     2000 
    1961     1923     1872     1826     1787     1744     1702     1657 
    1611     1572     1534     1495     1458     1421     1390     1362 
    1328     1300     1278     1247     1217     1198     1183     1167 
    1154     1140     1135     1132     1131     1132     1135     1148 
    1173     1193     1217     1260     1304     1350     1408     1464 
    1524     1590     1652     1717     1777     1821     1865     1942 
    2033     2097     2124     2150     2204     2257     2285     2308 
    2326     2324     2323     2320     2307     2270     2224     2189 
    2158     2115     2062     2003     1944     1891     1830     1764 
    1701     1636     1571     1516     1459     1399     1347     1306 
    1270     1231     1189     1154     1127     1104     1082     1059 
    1042     1028     1020     1015     1012     1023     1034     1028 
    1026     1043     1066     1082     1088     1089     1102     1124 
    1139     1139     1138     1148     1152     1148     1147     1146 
    1140     1135     1138     1138     1134     1131     1131     1131 
    1127     1117     1113     1107     1090     1078     1063     1046 
    1038     1027     1011      997      981      959      939      915 
     891      872      855      843      837      835      845      855 
