Origin Time       2025/01/13 21:19:00
Lat.              31.8
Long.             131.6
Depth. (km)       30
Mag.              6.9
Station Code      TTR004
Station Lat.      35.4606
Station Long.     134.0548
Station Height(m) 49
Record Time       2025/01/13 21:21:47
Sampling Freq(Hz) 100Hz
Duration Time(s)  62
Dir.              E-W
Scale Factor      7845(gal)/8223790
Max. Acc. (gal)   1.659
Last Correction   2025/01/13 21:21:49
Memo.             
[...]
   -3233    -3234    -3237    -3244    -3250    -3258    -3265    -3269 
   -3277    -3284    -3284    -3285    -3289    -3288    -3285    -3283 
   -3279    -3277    -3275    -3268    -3264    -3264    -3262    -3262 
   -3264    -3268    -3277    -3285    -3294    -3306    -3321    -3331 
   -3342    -3350    -3354    -3357    -3353    -3339    -3323    -3302 
   -3273    -3244    -3206    -3163    -3119    -3073    -3025    -2979 
   -2930    -2884    -2844    -2803    -2767    -2733    -2708    -2686 
   -2670    -2666    -2666    -2670    -2682    -2694    -2713    -2740 
   -2768    -2802    -2848    -2899    -2955    -3022    -3100    -3183 
   -3268    -3360    -3458    -3550    -3639    -3730    -3815    -3888 
   -3956    -4018    -4070    -4121    -4168    -4207    -4245    -4279 
   -4305    -4328    -4344    -4349    -4349    -4345    -4333    -4313 
   -4286    -4252    -4212    -4160    -4099    -4037    -3971    -3897 
   -3820    -3747    -3673    -3596    -3522    -3449    -3379    -3314 
   -3252    -3190    -3134    -3083    -3032    -2983    -2943    -2910 
   -2883    -2866    -2857    -2855    -2859    -2875    -2895    -2913 
   -2937    -2965    -2991    -3014    -3040    -3065    -3088    -3106 
   -3118    -3126    -3127    -3122    -3115    -3103    -3086    -3069 
   -3051    -3033    -3019    -3005    -2991    -2982    -2970    -2956 
   -2945    -2933    -2922    -2913    -2903    -2897    -2889    -2882 
   -2879    -2876    -2872    -2863    -2848    -2836    -2824    -2810 
   -2797    -2787    -2778    -2774    -2776    -2779    -2789    -2803 
   -2820    -2839    -2864    -2891    -2922    -2952    -2986    -3026 
   -3068    -3110    -3157    -3204    -3253    -3304    -3356    -3407 
   -3461    -3514    -3566    -3619    -3672    -3726    -3777    -3824 
   -3869    -3910    -3952    -3990    -4020    -4044    -4064    -4079 
   -4090    -4099    -4108    -4114    -4121    -4122    -4122    -4122 
   -4117    -4105    -4086    -4063    -4032    -3994    -3952    -3906 
   -3858    -3800    -3738    -3672    -3597    -3514    -3427    -3339 
   -3246    -3148    -3052    -2953    -2852    -2759    -2667    -2577 
   -2498    -2428    -2361    -2301    -2251    -2209    -2177    -2158 
   -2150    -2155    -2174    -2207    -2253    -2309    -2376    -2448 
   -2528    -2610    -2697    -2785    -2868    -2948    -3032    -3114 
   -3190    -3271    -3357    -3443    -3537    -3635    -3735    -3834 
   -3931    -4031    -4129    -4220    -4305    -4380    -4448    -4511 
   -4571    -4619    -4656    -4684    -4706    -4716    -4718    -4712 
   -4699    -4673    -4637    -4585    -4522    -4452    -4372    -4278 
   -4179    -4071    -3952    -3836    -3717    -3592    -3466    -3345 
   -3229    -3117    -3009    -2907    -2809    -2720    -2639    -2562 
   -2492    -2435    -2389    -2349    -2315    -2290    -2270    -2251 
   -2242    -2239    -2234    -2232    -2230    -2224    -2224    -2220 
   -2207    -2196    -2188    -2180    -2174    -2172    -2174    -2182 
   -2196    -2218    -2250    -2285    -2322    -2362    -2404    -2447 
   -2498    -2547    -2594    -2647    -2700    -2752    -2801    -2848 
   -2894    -2937    -2975    -3013    -3052    -3087    -3117    -3144 
   -3172    -3195    -3213    -3234    -3254    -3271    -3285    -3304 
   -3326    -3353    -3384    -3415    -3446    -3484    -3528    -3569 
   -3615    -3666    -3717    -3770    -3828    -3886    -3943    -4000 
   -4055    -4105    -4153    -4191    -4220    -4237    -4243    -4241 
   -4228    -4198    -4160    -4117    -4063    -3998    -3929    -3856 
   -3780    -3705    -3631    -3554    -3476    -3404    -3334    -3265 
   -3202    -3142    -3086    -3033    -2987    -2941    -2897    -2852 
   -2809    -2767    -2725    -2686    -2648    -2612    -2579    -2547 
   -2512    -2481    -2459    -2438    -2420    -2415    -2415    -2423 
   -2442    -2473    -2512    -2566    -2632    -2705    -2789    -2879 
   -2974    -3073    -3175    -3273    -3373    -3473    -3573    -3667 
   -3757    -3838    -3912    -3978    -4037    -4085    -4121    -4149 
   -4170    -4176    -4170    -4155    -4128    -4087    -4033    -3971 
   -3902    -3827    -3748    -3662    -3572    -3484    -3392    -3298 
   -3210    -3119    -3029    -2941    -2855    -2770    -2686    -2605 
   -2528    -2454    -2376    -2304    -2241    -2177    -2120    -2073 
   -2030    -1995    -1969    -1942    -1923    -1915    -1912    -1914 
   -1930    -1960    -1996    -2042    -2101    -2168    -2242    -2324 
   -2413    -2511    -2613    -2717    -2825    -2928    -3029    -3127 
   -3222    -3315    -3411    -3501    -3582    -3661    -3732    -3792 
   -3846    -3894    -3931    -3963    -3990    -4010    -4025    -4035 
   -4039    -4039    -4036    -4029    -4020    -4009    -3998    -3979 
   -3958    -3939    -3915    -3882    -3847    -3807    -3762    -3716 
   -3666    -3612    -3555    -3495    -3435    -3377    -3314    -3253 
   -3195    -3133    -3076    -3024    -2967    -2911    -2862    -2816 
   -2771    -2729    -2691    -2656    -2623    -2597    -2574    -2555 
   -2542    -2536    -2533    -2533    -2535    -2542    -2552    -2562 
   -2574    -2592    -2613    -2636    -2660    -2689    -2713    -2739 
   -2767    -2791    -2818    -2851    -2880    -2907    -2940    -2972 
   -3002    -3028    -3053    -3082    -3109    -3136    -3168    -3203 
   -3235    -3269    -3308    -3343    -3369    -3393    -3419    -3442 
   -3461    -3481    -3507    -3534    -3561    -3588    -3618    -3649 
   -3674    -3699    -3723    -3744    -3763    -3784    -3804    -3819 
   -3832    -3844    -3850    -3854    -3858    -3852    -3843    -3835 
   -3820    -3796    -3762    -3721    -3673    -3619    -3561    -3497 
   -3433    -3368    -3300    -3231    -3160    -3096    -3042    -2987 
   -2941    -2905    -2870    -2843    -2825    -2806    -2783    -2771 
   -2766    -2762    -2762    -2766    -2771    -2776    -2785    -2795 
   -2805    -2813    -2821    -2828    -2835    -2837    -2844    -2856 
   -2863    -2871    -2878    -2883    -2890    -2895    -2897    -2897 
   -2894    -2890    -2889    -2887    -2886    -2884    -2887    -2890 
   -2890    -2899    -2916    -2928    -2941    -2959    -2982    -3007 
   -3033    -3059    -3088    -3123    -3157    -3192    -3231    -3264 
   -3298    -3333    -3364    -3395    -3429    -3457    -3484    -3514 
   -3538    -3562    -3589    -3615    -3642    -3670    -3699    -3727 
   -3755    -3785    -3816    -3847    -3881    -3913    -3946    -3981 
   -4014    -4043    -4067    -4089    -4105    -4118    -4128    -4131 
   -4132    -4126    -4116    -4099    -4079    -4054    -4024    -3986 
   -3947    -3902    -3851    -3796    -3738    -3677    -3615    -3549 
   -3481    -3411    -3333    -3257    -3186    -3110    -3036    -2967 
   -2902    -2847    -2798    -2756    -2722    -2695    -2675    -2660 
   -2652    -2644    -2640    -2644    -2655    -2677    -2705    -2740 
   -2782    -2829    -2886    -2951    -3013    -3080    -3157    -3226 
   -3291    -3357    -3418    -3470    -3522    -3566    -3605    -3638 
   -3663    -3684    -3696    -3696    -3692    -3684    -3665    -3642 
   -3611    -3570    -3530    -3485    -3433    -3380    -3326    -3269 
   -3211    -3150    -3082    -3006    -2929    -2847    -2762    -2675 
   -2586    -2501    -2423    -2343    -2270    -2207    -2142    -2081 
   -2030    -1984    -1941    -1904    -1875    -1852    -1834    -1822 
   -1818    -1823    -1838    -1861    -1892    -1931    -1977    -2029 
   -2085    -2155    -2232    -2312    -2404    -2506    -2612    -2722 
   -2840    -2960    -3082    -3204    -3321    -3435    -3551    -3663 
   -3765    -3859    -3944    -4017    -4086    -4143    -4185    -4218 
   -4243    -4255    -4257    -4247    -4229    -4205    -4174    -4133 
   -4086    -4032    -3974    -3910    -3836    -3757    -3678    -3596 
   -3508    -3423    -3338    -3256    -3176    -3106    -3038    -2974 
   -2916    -2863    -2817    -2776    -2739    -2701    -2668    -2637 
   -2610    -2586    -2567    -2552    -2542    -2533    -2529    -2532 
   -2539    -2550    -2563    -2578    -2596    -2616    -2640    -2667 
   -2697    -2735    -2775    -2813    -2862    -2917    -2968    -3021 
   -3076    -3133    -3190    -3242    -3291    -3343    -3395    -3443 
   -3496    -3550    -3599    -3653    -3708    -3759    -3813    -3861 
   -3905    -3955    -4001    -4043    -4086    -4121    -4151    -4179 
   -4198    -4212    -4224    -4236    -4241    -4237    -4233    -4222 
   -4205    -4183    -4158    -4122    -4081    -4031    -3974    -3915 
   -3852    -3780    -3701    -3616    -3527    -3433    -3335    -3240 
   -3142    -3040    -2944    -2853    -2763    -2678    -2598    -2524 
   -2454    -2388    -2326    -2268    -2214    -2161    -2116    -2077 
   -2039    -2010    -1985    -1964    -1956    -1961    -1975    -1998 
   -2033    -2081    -2141    -2212    -2297    -2393    -2496    -2609 
   -2732    -2857    -2982    -3110    -3238    -3362    -3484    -3599 
   -3707    -3807    -3894    -3975    -4050    -4109    -4160    -4202 
   -4229    -4241    -4244    -4230    -4201    -4159    -4109    -4051 
   -3982    -3906    -3828    -3744    -3655    -3570    -3484    -3397 
   -3314    -3231    -3146    -3065    -2982    -2898    -2820    -2745 
   -2673    -2601    -2535    -2477    -2419    -2363    -2316    -2276 
   -2242    -2216    -2197    -2187    -2185    -2196    -2215    -2242 
   -2282    -2332    -2392    -2461    -2532    -2613    -2709    -2808 
   -2903    -3009    -3118    -3221    -3323    -3424    -3520    -3605 
   -3685    -3757    -3817    -3867    -3912    -3947    -3973    -3991 
   -3997    -3990    -3978    -3959    -3932    -3902    -3870    -3832 
   -3794    -3755    -3712    -3670    -3634    -3591    -3554    -3522 
   -3480    -3443    -3412    -3380    -3346    -3318    -3291    -3264 
   -3242    -3222    -3203    -3190    -3172    -3156    -3144    -3133 
   -3123    -3118    -3117    -3119    -3127    -3144    -3171    -3204 
   -3245    -3292    -3349    -3414    -3484    -3558    -3632    -3708 
   -3781    -3850    -3916    -3974    -4028    -4079    -4117    -4141 
   -4160    -4170    -4164    -4147    -4120    -4079    -4028    -3970 
   -3908    -3842    -3774    -3703    -3634    -3568    -3500    -3434 
   -3379    -3323    -3272    -3227    -3187    -3145    -3103    -3068 
   -3041    -3015    -2994    -2976    -2959    -2947    -2938    -2928 
   -2922    -2920    -2913    -2907    -2901    -2889    -2880    -2871 
   -2856    -2843    -2828    -2813    -2798    -2786    -2775    -2766 
   -2764    -2764    -2766    -2778    -2794    -2809    -2833    -2860 
   -2886    -2914    -2941    -2970    -2995    -3019    -3045    -3064 
   -3079    -3091    -3094    -3092    -3092    -3090    -3084    -3078 
   -3068    -3056    -3044    -3032    -3015    -2999    -2988    -2980 
   -2972    -2968    -2967    -2970    -2978    -2994    -3015    -3037 
   -3065    -3100    -3133    -3164    -3198    -3231    -3260    -3288 
   -3314    -3334    -3357    -3380    -3399    -3415    -3427    -3438 
   -3447    -3449    -3450    -3450    -3443    -3438    -3435    -3426 
   -3414    -3407    -3399    -3388    -3384    -3380    -3375    -3373 
   -3377    -3384    -3388    -3396    -3407    -3414    -3418    -3423 
   -3423    -3422    -3418    -3408    -3399    -3391    -3376    -3358 
   -3341    -3319    -3291    -3265    -3238    -3208    -3179    -3149 
   -3117    -3086    -3051    -3015    -2980    -2944    -2909    -2875 
   -2837    -2802    -2768    -2731    -2697    -2667    -2637    -2610 
   -2587    -2565    -2540    -2523    -2509    -2494    -2488    -2488 
   -2488    -2493    -2504    -2519    -2540    -2563    -2594    -2628 
   -2664    -2708    -2755    -2802    -2849    -2902    -2957    -3011 
   -3061    -3117    -3172    -3223    -3275    -3326    -3375    -3420 
   -3466    -3510    -3551    -3593    -3635    -3676    -3711    -3747 
   -3780    -3807    -3831    -3847    -3855    -3859    -3856    -3846 
   -3829    -3807    -3774    -3736    -3689    -3631    -3569    -3501 
   -3426    -3346    -3268    -3194    -3115    -3038    -2968    -2902 
   -2836    -2774    -2720    -2671    -2627    -2587    -2556    -2528 
   -2505    -2497    -2496    -2502    -2521    -2550    -2589    -2639 
   -2694    -2756    -2826    -2901    -2978    -3060    -3145    -3235 
   -3331    -3424    -3516    -3609    -3705    -3794    -3877    -3956 
   -4028    -4085    -4139    -4180    -4202    -4218    -4228    -4220 
   -4206    -4183    -4147    -4106    -4060    -4002    -3937    -3869 
   -3793    -3707    -3616    -3528    -3435    -3337    -3244    -3146 
   -3048    -2957    -2867    -2776    -2694    -2613    -2539    -2475 
   -2413    -2359    -2319    -2288    -2268    -2258    -2265    -2281 
   -2307    -2347    -2394    -2452    -2525    -2601    -2685    -2779 
   -2876    -2976    -3078    -3180    -3281    -3387    -3488    -3584 
   -3677    -3765    -3844    -3921    -3987    -4044    -4101    -4149 
   -4187    -4218    -4244    -4261    -4268    -4270    -4264    -4248 
   -4222    -4190    -4147    -4094    -4033    -3963    -3883    -3794 
   -3696    -3591    -3478    -3358    -3230    -3099    -2964    -2826 
   -2691    -2554    -2417    -2290    -2169    -2050    -1941    -1844 
   -1753    -1671    -1605    -1551    -1509    -1482    -1468    -1471 
   -1490    -1524    -1572    -1636    -1713    -1799    -1894    -2000 
   -2118    -2235    -2359    -2493    -2628    -2766    -2899    -3033 
   -3167    -3298    -3420    -3543    -3661    -3767    -3865    -3959 
   -4045    -4121    -4187    -4244    -4290    -4326    -4352    -4369 
   -4376    -4371    -4361    -4348    -4321    -4284    -4244    -4197 
   -4143    -4079    -4010    -3936    -3854    -3767    -3674    -3576 
   -3474    -3376    -3269    -3164    -3064    -2971    -2876    -2787 
   -2710    -2637    -2573    -2517    -2470    -2435    -2415    -2400 
   -2394    -2404    -2421    -2444    -2479    -2521    -2569    -2617 
   -2670    -2729    -2787    -2841    -2895    -2949    -3001    -3049 
   -3096    -3141    -3179    -3213    -3242    -3268    -3285    -3302 
   -3319    -3329    -3334    -3343    -3349    -3349    -3358    -3368 
   -3369    -3370    -3376    -3375    -3372    -3370    -3365    -3361 
   -3354    -3346    -3337    -3325    -3312    -3302    -3287    -3268 
   -3254    -3238    -3217    -3198    -3181    -3160    -3140    -3123 
   -3105    -3086    -3075    -3064    -3049    -3040    -3034    -3030 
   -3030    -3034    -3040    -3049    -3060    -3075    -3091    -3106 
   -3126    -3149    -3168    -3190    -3213    -3233    -3254    -3275 
   -3289    -3308    -3326    -3334    -3343    -3353    -3358    -3357 
   -3356    -3357    -3352    -3343    -3337    -3327    -3318    -3310 
   -3302    -3295    -3284    -3272    -3264    -3260    -3252    -3249 
   -3248    -3245    -3245    -3248    -3250    -3256    -3261    -3267 
   -3267    -3269    -3273    -3269    -3264    -3258    -3248    -3237 
   -3227    -3218    -3207    -3199    -3190    -3179    -3172    -3167 
   -3157    -3149    -3149    -3148    -3145    -3146    -3150    -3156 
   -3164    -3171    -3177    -3186    -3194    -3200    -3210    -3218 
   -3222    -3226    -3234    -3238    -3241    -3248    -3253    -3260 
   -3267    -3271    -3275    -3280    -3281    -3281    -3280    -3275 
   -3269    -3264    -3254    -3242    -3230    -3217    -3200    -3184 
   -3168    -3152    -3134    -3117    -3100    -3080    -3057    -3037 
   -3014    -2988    -2964    -2944    -2924    -2906    -2890    -2876 
   -2866    -2855    -2845    -2837    -2832    -2829    -2826    -2822 
   -2822    -2824    -2821    -2818    -2821    -2825    -2833    -2843 
   -2853    -2872    -2897    -2925    -2963    -3003    -3045    -3094 
   -3148    -3204    -3268    -3333    -3399    -3468    -3534    -3601 
   -3670    -3732    -3789    -3847    -3901    -3951    -3996    -4035 
   -4070    -4099    -4114    -4125    -4135    -4137    -4124    -4106 
   -4082    -4047    -4008    -3966    -3916    -3863    -3809    -3747 
   -3678    -3611    -3542    -3468    -3391    -3315    -3234    -3152 
   -3076    -3001    -2920    -2840    -2766    -2691    -2612    -2536 
   -2466    -2397    -2332    -2277    -2220    -2170    -2130    -2093 
   -2064    -2050    -2043    -2041    -2049    -2068    -2095    -2127 
   -2166    -2214    -2265    -2317    -2382    -2455    -2524    -2594 
   -2671    -2751    -2830    -2911    -2995    -3075    -3156    -3244 
   -3323    -3397    -3472    -3546    -3615    -3677    -3739    -3798 
   -3848    -3892    -3931    -3963    -3991    -4010    -4020    -4029 
   -4029    -4014    -4001    -3986    -3959    -3925    -3893    -3855 
   -3809    -3763    -3719    -3667    -3612    -3558    -3501    -3442 
   -3389    -3337    -3281    -3229    -3181    -3134    -3092    -3052 
   -3013    -2978    -2949    -2922    -2902    -2886    -2868    -2856 
   -2847    -2835    -2822    -2821    -2825    -2822    -2824    -2835 
   -2841    -2845    -2852    -2859    -2864    -2872    -2879    -2883 
   -2887    -2894    -2902    -2911    -2921    -2933    -2949    -2971 
   -2994    -3021    -3052    -3083    -3122    -3163    -3202    -3246 
   -3291    -3335    -3383    -3433    -3480    -3527    -3576    -3620 
   -3662    -3703    -3736    -3765    -3793    -3816    -3832    -3842 
   -3850    -3859    -3862    -3858    -3858    -3855    -3847    -3839 
   -3828    -3813    -3797    -3782    -3763    -3742    -3724    -3705 
   -3677    -3649    -3622    -3589    -3555    -3520    -3480    -3434 
   -3392    -3345    -3292    -3242    -3192    -3140    -3087    -3036 
   -2984    -2933    -2886    -2840    -2791    -2745    -2708    -2677 
   -2643    -2610    -2589    -2573    -2556    -2548    -2548    -2551 
   -2558    -2575    -2596    -2614    -2643    -2677    -2705    -2737 
   -2770    -2801    -2839    -2874    -2903    -2933    -2963    -2990 
   -3013    -3038    -3064    -3090    -3114    -3141    -3168    -3196 
   -3227    -3257    -3288    -3326    -3364    -3403    -3442    -3485 
   -3531    -3572    -3611    -3651    -3693    -3734    -3773    -3807 
   -3835    -3862    -3888    -3901    -3909    -3919    -3920    -3920 
   -3913    -3893    -3873    -3850    -3817    -3780    -3740    -3699 
   -3655    -3608    -3555    -3504    -3450    -3397    -3353    -3307 
   -3257    -3215    -3177    -3137    -3098    -3064    -3030    -2995 
   -2967    -2947    -2924    -2902    -2887    -2879    -2870    -2864 
   -2868    -2875    -2882    -2895    -2917    -2940    -2964    -2995 
   -3030    -3067    -3102    -3138    -3180    -3225    -3269    -3314 
   -3358    -3402    -3449    -3496    -3541    -3584    -3626    -3672 
   -3713    -3748    -3786    -3820    -3844    -3869    -3890    -3904 
   -3910    -3917    -3921    -3923    -3916    -3906    -3900    -3885 
   -3865    -3843    -3815    -3785    -3754    -3717    -3676    -3630 
   -3584    -3532    -3476    -3415    -3352    -3287    -3218    -3142 
   -3067    -2995    -2920    -2841    -2770    -2704    -2637    -2577 
