Origin Time       2025/01/13 21:19:00
Lat.              31.8
Long.             131.6
Depth. (km)       30
Mag.              6.9
Station Code      TTR004
Station Lat.      35.4606
Station Long.     134.0548
Station Height(m) 49
Record Time       2025/01/13 21:21:47
Sampling Freq(Hz) 100Hz
Duration Time(s)  62
Dir.              U-D
Scale Factor      7845(gal)/8223790
Max. Acc. (gal)   0.528
Last Correction   2025/01/13 21:21:49
Memo.             
[...]
    9852     9844     9838     9834     9829     9829     9830     9829 
    9833     9841     9846     9848     9856     9860     9857     9856 
    9852     9845     9837     9832     9826     9819     9817     9819 
    9819     9821     9826     9834     9841     9840     9834     9830 
    9826     9819     9813     9810     9809     9801     9791     9782 
    9771     9764     9763     9768     9778     9790     9805     9815 
    9825     9836     9845     9856     9864     9876     9895     9910 
    9917     9930     9948     9956     9954     9953     9956     9960 
    9960     9960     9964     9964     9960     9956     9954     9952 
    9952     9949     9946     9946     9949     9952     9956     9958 
    9963     9967     9968     9967     9960     9949     9936     9922 
    9911     9899     9884     9882     9884     9880     9876     9875 
    9871     9864     9859     9852     9846     9845     9844     9842 
    9846     9853     9860     9867     9872     9879     9890     9896 
    9900     9906     9911     9910     9909     9907     9906     9903 
    9902     9902     9898     9887     9877     9867     9855     9845 
    9838     9828     9823     9823     9821     9826     9834     9844 
    9857     9867     9875     9882     9883     9883     9894     9909 
    9922     9934     9945     9956     9964     9969     9975     9983 
    9985     9991    10003    10007    10004    10007    10006     9991 
    9969     9952     9934     9907     9880     9857     9836     9811 
    9792     9782     9771     9756     9747     9738     9729     9724 
    9728     9736     9745     9755     9768     9783     9792     9801 
    9811     9821     9828     9836     9846     9853     9856     9865 
    9877     9884     9887     9891     9898     9898     9898     9898 
    9895     9891     9894     9895     9898     9902     9907     9910 
    9913     9914     9914     9917     9925     9931     9940     9949 
    9958     9965     9969     9968     9961     9948     9930     9911 
    9890     9869     9855     9840     9822     9805     9791     9776 
    9760     9748     9741     9734     9729     9730     9734     9741 
    9752     9763     9776     9791     9801     9809     9818     9829 
    9837     9845     9856     9867     9873     9883     9891     9891 
    9888     9884     9875     9860     9844     9828     9815     9806 
    9799     9798     9796     9796     9801     9802     9802     9807 
    9814     9823     9840     9860     9880     9907     9936     9960 
    9985    10011    10029    10037    10039    10041    10039    10035 
   10030    10023    10015    10004     9994     9979     9965     9952 
    9941     9929     9919     9913     9902     9888     9880     9871 
    9857     9852     9852     9849     9846     9850     9855     9860 
    9872     9884     9894     9903     9909     9913     9917     9918 
    9918     9917     9911     9909     9904     9896     9891     9884 
    9873     9865     9861     9852     9845     9844     9841     9841 
    9844     9845     9848     9856     9865     9873     9884     9902 
    9917     9931     9948     9961     9968     9969     9968     9971 
    9971     9965     9958     9953     9942     9927     9918     9910 
    9900     9892     9884     9875     9867     9852     9837     9829 
    9818     9803     9798     9795     9787     9784     9787     9787 
    9790     9794     9801     9806     9807     9803     9798     9792 
    9788     9783     9774     9763     9753     9745     9740     9736 
    9730     9728     9729     9733     9740     9749     9761     9778 
    9792     9809     9829     9846     9856     9864     9873     9882 
    9887     9892     9896     9898     9898     9902     9907     9911 
    9914     9914     9911     9907     9903     9896     9890     9882 
    9873     9868     9860     9849     9838     9829     9822     9819 
    9822     9826     9832     9840     9846     9853     9864     9873 
    9877     9883     9891     9891     9892     9896     9900     9902 
    9903     9907     9910     9909     9907     9904     9899     9892 
    9882     9868     9855     9842     9828     9813     9803     9795 
    9791     9792     9794     9801     9810     9819     9832     9848 
    9859     9871     9887     9899     9907     9917     9926     9933 
    9942     9948     9948     9948     9940     9927     9921     9911 
    9899     9890     9879     9869     9863     9860     9855     9852 
    9848     9840     9830     9825     9818     9814     9814     9817 
    9821     9830     9841     9850     9868     9887     9903     9921 
    9938     9952     9964     9975     9981     9987     9996    10003 
   10007    10014    10019    10017    10012    10007     9996     9981 
    9968     9960     9949     9937     9931     9925     9915     9906 
    9900     9895     9883     9876     9871     9861     9852     9844 
    9834     9823     9811     9798     9784     9771     9757     9744 
    9732     9724     9715     9706     9699     9698     9697     9699 
    9703     9703     9702     9702     9702     9702     9707     9715 
    9720     9725     9732     9738     9742     9749     9759     9767 
    9772     9778     9784     9791     9795     9802     9811     9817 
    9822     9829     9834     9837     9842     9848     9852     9855 
    9856     9852     9852     9853     9852     9856     9860     9859 
    9855     9853     9853     9856     9859     9863     9865     9872 
    9886     9898     9910     9925     9941     9954     9969     9987 
   10002    10017    10033    10049    10062    10071    10075    10073 
   10075    10073    10068    10066    10066    10060    10054    10050 
   10042    10029    10018    10010     9999     9991     9987     9977 
    9967     9958     9949     9942     9938     9930     9926     9925 
    9915     9907     9903     9895     9888     9887     9883     9880 
    9877     9872     9865     9859     9849     9836     9826     9815 
    9803     9794     9787     9783     9778     9772     9771     9771 
    9774     9775     9776     9776     9775     9775     9774     9771 
    9769     9769     9767     9765     9767     9771     9779     9786 
    9788     9794     9807     9817     9823     9837     9846     9852 
    9861     9875     9883     9891     9902     9911     9918     9929 
    9933     9933     9934     9931     9925     9922     9919     9915 
    9914     9913     9907     9903     9903     9902     9896     9895 
    9899     9902     9900     9904     9907     9906     9904     9907 
    9911     9911     9910     9911     9911     9907     9904     9903 
    9900     9898     9898     9898     9892     9882     9873     9868 
    9861     9856     9850     9842     9834     9829     9822     9813 
    9809     9806     9801     9795     9792     9791     9787     9788 
    9794     9796     9799     9806     9811     9817     9823     9826 
    9828     9833     9837     9844     9855     9867     9877     9890 
    9903     9911     9921     9934     9945     9950     9958     9969 
    9977     9984     9987     9988     9984     9980     9973     9964 
    9956     9950     9944     9936     9929     9922     9909     9895 
    9884     9872     9857     9842     9828     9811     9795     9784 
    9776     9764     9753     9747     9741     9737     9737     9740 
    9744     9752     9763     9775     9787     9803     9823     9844 
    9864     9884     9907     9927     9944     9958     9975     9984 
    9990     9995     9999    10004    10010    10012    10015    10018 
   10018    10012    10004     9996     9987     9975     9961     9948 
    9934     9921     9910     9903     9895     9890     9890     9891 
    9894     9899     9904     9909     9913     9918     9919     9919 
    9918     9914     9907     9902     9895     9890     9884     9879 
    9868     9859     9853     9846     9840     9837     9834     9832 
    9830     9822     9810     9802     9792     9780     9774     9769 
    9761     9755     9753     9753     9752     9755     9759     9764 
    9767     9775     9787     9796     9810     9826     9840     9857 
    9875     9890     9910     9927     9938     9953     9968     9979 
    9990     9999    10003    10006    10008    10006     9999     9990 
    9977     9960     9937     9915     9892     9867     9842     9822 
    9802     9783     9769     9763     9756     9753     9760     9769 
    9783     9799     9815     9832     9849     9869     9886     9899 
    9907     9910     9913     9914     9913     9917     9923     9925 
    9926     9933     9936     9933     9933     9936     9931     9929 
    9930     9929     9925     9922     9921     9922     9926     9926 
    9925     9929     9934     9931     9925     9921     9921     9915 
    9909     9904     9903     9902     9896     9891     9887     9880 
    9875     9864     9852     9840     9829     9821     9814     9807 
    9799     9790     9779     9769     9755     9738     9730     9721 
    9709     9706     9703     9698     9694     9697     9701     9705 
    9713     9728     9744     9761     9783     9807     9833     9861 
    9891     9918     9946     9969     9987    10003    10017    10023 
   10026    10029    10026    10022    10021    10018    10012    10010 
   10010    10006    10004    10002     9996     9996     9998     9998 
    9996     9999    10002    10003    10002    10000    10002    10000 
    9998     9996     9995     9994     9995     9999    10006    10015 
   10023    10030    10037    10044    10050    10056    10061    10066 
   10068    10071    10076    10079    10081    10085    10089    10095 
   10104    10112    10120    10129    10134    10139    10146    10150 
   10156    10165    10172    10176    10181    10188    10196    10204 
   10211    10218    10223    10223    10227    10234    10231    10228 
   10233    10228    10219    10208    10195    10176    10153    10131 
   10111    10088    10064    10039    10010     9980     9952     9922 
    9891     9856     9818     9786     9751     9713     9676     9641 
    9607     9579     9555     9531     9514     9508     9505     9504 
    9508     9518     9531     9540     9552     9564     9578     9597 
    9613     9628     9648     9668     9683     9695     9706     9715 
    9725     9729     9730     9732     9734     9740     9744     9747 
    9742     9736     9726     9711     9697     9683     9667     9647 
    9633     9622     9613     9607     9605     9601     9601     9609 
    9614     9616     9625     9636     9643     9652     9667     9675 
    9684     9697     9705     9711     9721     9725     9730     9741 
    9748     9753     9764     9774     9780     9790     9799     9809 
    9815     9818     9819     9818     9817     9817     9814     9810 
    9805     9798     9792     9787     9782     9775     9768     9761 
    9756     9751     9751     9749     9752     9756     9760     9767 
    9779     9788     9798     9810     9818     9821     9822     9825 
    9828     9829     9823     9817     9809     9796     9791     9788 
    9779     9769     9760     9751     9745     9736     9724     9715 
    9710     9701     9698     9697     9693     9690     9694     9698 
    9699     9702     9710     9721     9730     9741     9757     9772 
    9791     9810     9826     9848     9869     9887     9909     9930 
    9949     9965     9977     9991    10000    10008    10015    10021 
   10023    10029    10034    10037    10038    10037    10034    10031 
   10029    10025    10023    10025    10022    10018    10014    10014 
   10017    10015    10012    10010    10003     9995     9988     9976 
    9967     9961     9950     9937     9929     9915     9896     9877 
    9859     9838     9821     9799     9778     9759     9740     9720 
    9706     9695     9686     9678     9670     9667     9670     9672 
    9683     9698     9713     9734     9760     9787     9818     9853 
    9883     9914     9950     9983    10010    10037    10062    10084 
   10099    10112    10123    10129    10130    10133    10131    10125 
   10122    10115    10108    10106    10100    10095    10092    10088 
   10084    10079    10076    10071    10058    10045    10034    10021 
   10006     9992     9975     9953     9936     9917     9892     9865 
    9842     9819     9802     9788     9772     9760     9753     9747 
    9744     9742     9744     9748     9755     9761     9769     9782 
    9795     9806     9818     9832     9844     9852     9863     9871 
    9872     9871     9869     9867     9863     9857     9850     9844 
    9833     9822     9813     9798     9779     9765     9757     9749 
    9742     9740     9742     9748     9757     9768     9780     9795 
    9814     9832     9850     9872     9890     9907     9925     9940 
    9946     9948     9948     9944     9934     9921     9900     9880 
    9855     9823     9792     9764     9732     9702     9676     9649 
    9625     9610     9601     9597     9599     9602     9612     9630 
    9651     9672     9701     9734     9768     9803     9838     9873 
    9907     9938     9963     9979     9991    10002    10003     9999 
    9995     9984     9971     9957     9942     9927     9917     9907 
    9899     9896     9900     9913     9930     9953     9980    10017 
   10057    10098    10142    10185    10222    10261    10303    10335 
   10363    10390    10411    10423    10427    10422    10412    10397 
   10378    10357    10326    10289    10249    10206    10160    10112 
   10065    10019     9976     9931     9891     9856     9821     9787 
    9761     9740     9715     9695     9679     9661     9645     9636 
    9622     9606     9593     9585     9576     9567     9560     9555 
    9552     9551     9553     9559     9568     9583     9599     9616 
    9641     9672     9702     9733     9765     9799     9832     9859 
    9890     9925     9956     9983    10008    10031    10052    10066 
   10081    10092    10095    10098    10100    10096    10091    10085 
   10079    10071    10061    10054    10049    10044    10042    10042 
   10041    10041    10046    10053    10057    10064    10072    10080 
   10088    10096    10102    10103    10104    10106    10103    10096 
   10089    10080    10066    10052    10037    10019     9999     9976 
    9953     9931     9910     9886     9868     9855     9841     9832 
    9828     9823     9823     9825     9825     9829     9837     9842 
    9849     9861     9869     9876     9886     9898     9909     9917 
    9925     9936     9944     9948     9954     9961     9958     9954 
    9953     9946     9934     9925     9910     9891     9872     9849 
    9825     9801     9776     9753     9730     9707     9687     9670 
    9653     9636     9624     9614     9602     9590     9585     9579 
    9576     9576     9578     9582     9589     9595     9602     9609 
    9618     9628     9636     9644     9655     9667     9680     9694 
    9707     9724     9737     9747     9757     9768     9775     9779 
    9783     9787     9788     9787     9784     9779     9774     9768 
    9761     9751     9741     9736     9734     9734     9737     9742 
    9752     9760     9764     9771     9780     9784     9786     9792 
    9801     9805     9806     9809     9810     9810     9809     9806 
    9802     9796     9787     9778     9767     9755     9742     9730 
    9720     9703     9686     9671     9659     9653     9652     9647 
    9644     9649     9657     9667     9679     9699     9724     9744 
    9767     9796     9826     9853     9880     9907     9931     9954 
    9973     9991    10004    10011    10017    10018    10014    10012 
   10008    10000     9988     9975     9964     9952     9938     9923 
    9910     9899     9888     9879     9875     9869     9868     9867 
    9867     9868     9868     9869     9872     9875     9876     9876 
    9875     9875     9875     9872     9865     9861     9855     9852 
    9849     9846     9849     9852     9853     9859     9868     9876 
    9886     9896     9913     9929     9945     9965     9984     9999 
   10018    10037    10053    10068    10084    10098    10107    10115 
   10126    10137    10142    10149    10156    10160    10162    10166 
   10172    10170    10168    10166    10161    10152    10142    10130 
   10112    10098    10083    10061    10038    10017     9992     9965 
    9941     9913     9882     9853     9823     9792     9765     9740 
    9711     9687     9664     9640     9621     9603     9587     9576 
    9570     9566     9566     9563     9566     9578     9593     9606 
    9621     9640     9659     9671     9683     9698     9707     9713 
    9720     9722     9720     9718     9715     9707     9701     9694 
    9688     9686     9683     9683     9687     9695     9705     9715 
    9726     9745     9768     9788     9813     9844     9875     9904 
    9938     9968     9996    10025    10049    10066    10083    10093 
   10095    10096    10095    10087    10077    10068    10052    10035 
   10021    10004     9987     9968     9950     9938     9929     9919 
    9913     9906     9903     9903     9902     9900     9904     9911 
    9915     9919     9925     9929     9936     9940     9941     9944 
    9945     9944     9944     9946     9952     9954     9956     9961 
    9964     9964     9967     9969     9968     9968     9965     9963 
    9957     9952     9949     9949     9949     9942     9937     9933 
    9927     9918     9913     9909     9898     9886     9877     9869 
    9859     9849     9842     9836     9829     9823     9822     9817 
    9811     9811     9813     9811     9813     9814     9817     9822 
    9829     9833     9838     9849     9860     9872     9884     9899 
    9921     9944     9968     9992    10012    10030    10049    10066 
   10076    10081    10091    10103    10107    10114    10120    10123 
   10126    10129    10130    10130    10130    10130    10134    10135 
   10134    10135    10138    10141    10137    10135    10137    10133 
   10127    10125    10122    10119    10116    10111    10103    10098 
   10088    10079    10068    10054    10041    10027    10017    10006 
    9996     9985     9973     9963     9953     9948     9945     9942 
    9938     9936     9936     9938     9938     9936     9933     9931 
    9931     9929     9922     9918     9914     9906     9895     9886 
    9876     9864     9850     9840     9823     9805     9790     9772 
    9748     9724     9698     9671     9647     9624     9599     9576 
    9555     9540     9522     9510     9510     9510     9509     9517 
    9528     9540     9556     9578     9599     9620     9641     9664 
    9687     9707     9722     9734     9745     9755     9759     9759 
    9756     9753     9752     9749     9740     9729     9720     9709 
    9691     9674     9656     9636     9613     9589     9563     9540 
    9522     9504     9487     9472     9455     9441     9429     9420 
    9416     9410     9409     9412     9414     9416     9418     9427 
    9436     9445     9458     9472     9487     9505     9525     9549 
    9574     9598     9625     9652     9683     9717     9749     9780 
