Origin Time       2025/01/13 21:19:00
Lat.              31.8
Long.             131.6
Depth. (km)       30
Mag.              6.9
Station Code      TTR002
Station Lat.      35.4859
Station Long.     134.2201
Station Height(m) 6
Record Time       2025/01/13 21:21:52
Sampling Freq(Hz) 100Hz
Duration Time(s)  81
Dir.              U-D
Scale Factor      7845(gal)/8223790
Max. Acc. (gal)   0.593
Last Correction   2025/01/13 21:21:53
Memo.             
[...]
   21942    21914    21895    21898    21914    21919    21895    21863 
   21851    21856    21870    21864    21838    21829    21840    21841 
   21832    21824    21829    21840    21838    21832    21829    21832 
   21849    21874    21883    21884    21890    21902    21910    21911 
   21901    21888    21888    21899    21902    21891    21880    21872 
   21867    21878    21897    21898    21892    21898    21911    21934 
   21951    21953    21961    21988    22015    22027    22021    22005 
   21994    21991    22000    22021    22037    22041    22042    22038 
   22036    22038    22044    22054    22068    22081    22086    22079 
   22071    22069    22073    22081    22081    22061    22030    22002 
   21988    21990    21980    21951    21913    21874    21844    21828 
   21810    21790    21767    21733    21721    21733    21720    21697 
   21710    21737    21748    21751    21748    21753    21776    21801 
   21818    21818    21813    21817    21826    21830    21820    21806 
   21806    21816    21825    21818    21805    21810    21832    21841 
   21836    21825    21817    21821    21828    21833    21848    21852 
   21825    21802    21802    21794    21786    21790    21786    21768 
   21747    21749    21772    21774    21752    21762    21793    21816 
   21840    21857    21856    21859    21880    21899    21915    21930 
   21937    21936    21941    21949    21942    21933    21933    21929 
   21925    21938    21964    21980    21983    21978    21978    21992 
   21999    21987    21968    21955    21959    21956    21937    21933 
   21938    21942    21948    21944    21929    21911    21906    21921 
   21932    21913    21895    21897    21903    21914    21919    21919 
   21936    21960    21969    21960    21937    21918    21922    21944 
   21960    21951    21936    21942    21961    21968    21959    21951 
   21975    22032    22064    22042    22005    21994    22002    22005 
   21999    21979    21949    21945    21972    21978    21946    21928 
   21934    21945    21953    21949    21932    21915    21911    21925 
   21926    21901    21892    21911    21915    21902    21898    21891 
   21879    21886    21903    21903    21899    21911    21922    21921 
   21917    21905    21895    21910    21929    21928    21930    21953 
   21964    21964    21968    21969    21975    21984    21983    21987 
   22000    22000    21999    22011    22023    22025    22021    22026 
   22032    22014    21988    21990    21999    22006    22003    21982 
   21953    21929    21911    21918    21934    21932    21918    21899 
   21883    21880    21874    21852    21833    21826    21828    21824 
   21805    21787    21784    21791    21795    21787    21771    21757 
   21741    21720    21706    21713    21739    21766    21780    21786 
   21801    21825    21845    21856    21871    21905    21932    21941 
   21941    21930    21910    21910    21928    21934    21928    21922 
   21924    21911    21888    21883    21894    21899    21907    21907 
   21884    21859    21847    21836    21822    21813    21802    21789 
   21778    21763    21740    21729    21732    21722    21693    21672 
   21658    21645    21655    21668    21662    21658    21664    21666 
   21666    21668    21676    21693    21699    21686    21667    21656 
   21658    21658    21659    21671    21671    21659    21652    21641 
   21629    21637    21656    21670    21672    21666    21659    21655 
   21654    21664    21678    21681    21678    21679    21682    21682 
   21681    21672    21664    21662    21674    21693    21706    21725 
   21756    21784    21816    21845    21863    21890    21928    21961 
   21998    22026    22034    22038    22042    22050    22067    22076 
   22072    22057    22046    22041    22027    22005    21987    21968 
   21953    21949    21940    21924    21907    21886    21865    21859 
   21857    21856    21845    21813    21771    21741    21728    21709 
   21676    21654    21644    21636    21632    21622    21600    21585 
   21595    21617    21636    21647    21654    21681    21716    21739 
   21760    21794    21834    21865    21884    21907    21938    21952 
   21961    21983    21996    22002    22017    22038    22052    22056 
   22059    22075    22104    22129    22148    22171    22200    22216 
   22210    22207    22221    22233    22243    22253    22249    22234 
   22227    22234    22239    22234    22234    22246    22252    22239 
   22215    22191    22194    22203    22185    22154    22131    22111 
   22094    22075    22046    22018    21996    21975    21945    21911 
   21876    21848    21828    21813    21791    21762    21744    21735 
   21716    21694    21678    21667    21668    21667    21652    21641 
   21643    21645    21655    21663    21670    21685    21709    21729 
   21740    21747    21757    21770    21784    21807    21825    21837 
   21861    21878    21876    21882    21890    21897    21909    21917 
   21918    21925    21933    21929    21918    21918    21930    21940 
   21948    21951    21952    21960    21968    21965    21957    21957 
   21965    21969    21963    21955    21953    21946    21933    21925 
   21917    21913    21911    21906    21898    21880    21861    21856 
   21856    21848    21843    21838    21843    21852    21844    21822 
   21813    21814    21814    21822    21834    21836    21838    21847 
   21855    21863    21874    21886    21906    21928    21945    21944 
   21932    21929    21929    21928    21941    21961    21976    21995 
   22011    22023    22049    22079    22108    22141    22168    22192 
   22216    22231    22248    22269    22289    22306    22314    22314 
   22308    22300    22293    22283    22265    22253    22245    22231 
   22216    22203    22181    22161    22153    22135    22104    22084 
   22072    22056    22038    22018    21996    21976    21961    21944 
   21917    21895    21886    21878    21872    21872    21864    21851 
   21838    21825    21813    21813    21824    21828    21822    21825 
   21837    21845    21848    21844    21828    21820    21833    21841 
   21848    21855    21856    21864    21872    21872    21884    21906 
   21932    21965    21982    21971    21959    21952    21946    21941 
   21932    21915    21895    21872    21843    21803    21775    21755 
   21732    21710    21697    21681    21672    21674    21664    21648 
   21636    21632    21639    21641    21636    21635    21645    21660 
   21670    21681    21693    21706    21724    21745    21762    21772 
   21786    21794    21791    21789    21780    21770    21766    21753 
   21735    21729    21724    21710    21694    21668    21633    21608 
   21587    21571    21559    21544    21531    21513    21492    21481 
   21477    21477    21482    21478    21471    21485    21510    21529 
   21548    21568    21589    21624    21668    21699    21718    21739 
   21770    21802    21825    21849    21875    21898    21922    21948 
   21965    21982    21995    22007    22022    22034    22044    22052 
   22061    22086    22117    22133    22142    22148    22162    22192 
   22212    22231    22256    22266    22265    22272    22283    22297 
   22316    22329    22339    22347    22346    22347    22351    22347 
   22346    22346    22337    22320    22304    22285    22265    22239 
   22206    22169    22140    22110    22071    22037    22010    21982 
   21955    21930    21907    21887    21875    21864    21844    21826 
   21811    21789    21772    21753    21726    21708    21694    21681 
   21664    21644    21632    21629    21628    21622    21613    21612 
   21624    21629    21635    21645    21641    21633    21636    21635 
   21629    21625    21614    21605    21602    21594    21582    21574 
   21570    21567    21559    21555    21558    21563    21577    21594 
   21604    21614    21632    21649    21667    21689    21713    21733 
   21744    21759    21779    21797    21817    21838    21849    21863 
   21884    21901    21906    21913    21922    21936    21945    21952 
   21955    21953    21952    21953    21946    21938    21940    21937 
   21932    21932    21930    21926    21924    21921    21919    21917 
   21914    21919    21928    21928    21926    21925    21924    21924 
   21921    21914    21909    21906    21905    21895    21883    21883 
   21892    21903    21910    21911    21910    21919    21930    21936 
   21938    21938    21941    21945    21941    21938    21936    21929 
   21928    21922    21905    21894    21888    21876    21871    21867 
   21857    21855    21856    21849    21844    21840    21841    21853 
   21857    21857    21864    21875    21888    21903    21914    21929 
   21948    21963    21982    22002    22029    22063    22091    22115 
   22144    22158    22169    22198    22214    22216    22231    22241 
   22248    22260    22250    22231    22233    22226    22207    22204 
   22189    22161    22153    22141    22117    22103    22098    22092 
   22073    22045    22021    21996    21992    21988    21952    21928 
   21909    21882    21880    21880    21867    21872    21868    21852 
   21851    21847    21849    21861    21859    21849    21849    21849 
   21855    21859    21860    21867    21876    21880    21880    21875 
   21865    21867    21871    21870    21870    21871    21871    21870 
   21865    21863    21865    21875    21882    21883    21886    21894 
   21897    21901    21899    21890    21886    21886    21883    21879 
   21878    21868    21857    21847    21836    21826    21820    21816 
   21809    21795    21786    21778    21763    21756    21753    21739 
   21726    21718    21705    21697    21689    21678    21675    21672 
   21664    21659    21651    21643    21641    21637    21632    21632 
   21629    21627    21622    21618    21618    21621    21629    21649 
   21660    21664    21678    21694    21702    21713    21722    21735 
   21748    21759    21770    21783    21798    21813    21816    21811 
   21818    21828    21833    21843    21843    21843    21853    21860 
   21865    21875    21883    21897    21914    21921    21925    21936 
   21952    21975    21998    22017    22038    22063    22086    22110 
   22130    22152    22179    22202    22222    22234    22238    22253 
   22269    22272    22272    22269    22254    22239    22227    22211 
   22198    22185    22171    22153    22133    22118    22107    22090 
   22063    22038    22017    22009    22005    21996    21986    21972 
   21963    21960    21963    21967    21968    21963    21967    21973 
   21969    21967    21969    21965    21959    21949    21942    21942 
   21940    21918    21895    21880    21863    21851    21837    21817 
   21799    21786    21778    21767    21745    21729    21722    21712 
   21698    21682    21678    21685    21682    21682    21687    21693 
   21714    21741    21759    21786    21822    21848    21872    21898 
   21914    21932    21953    21965    21975    21982    21984    21987 
   21987    21984    21973    21960    21961    21965    21949    21936 
   21940    21933    21930    21936    21924    21914    21919    21911 
   21901    21891    21875    21861    21840    21816    21802    21786 
   21772    21762    21740    21717    21699    21686    21674    21656 
   21633    21612    21593    21578    21564    21543    21525    21517 
   21509    21502    21500    21498    21505    21519    21535    21551 
   21567    21590    21627    21663    21695    21732    21771    21811 
   21855    21892    21930    21975    22013    22040    22065    22091 
   22114    22131    22142    22148    22145    22144    22145    22134 
   22118    22106    22088    22072    22060    22044    22026    22011 
   21996    21986    21968    21945    21940    21936    21922    21913 
   21906    21902    21899    21895    21894    21898    21906    21917 
   21925    21929    21945    21963    21975    21988    21996    22007 
   22025    22033    22030    22029    22030    22034    22033    22014 
   21992    21983    21984    21994    21991    21952    21917    21919 
   21913    21880    21875    21878    21864    21861    21856    21841 
   21841    21855    21861    21859    21859    21859    21860    21871 
   21876    21867    21860    21853    21838    21825    21813    21793 
   21770    21749    21736    21722    21710    21709    21709    21702 
   21695    21699    21709    21720    21732    21744    21764    21793 
   21822    21847    21868    21902    21936    21955    21971    21990 
   22010    22033    22060    22079    22088    22091    22102    22119 
   22123    22121    22123    22121    22117    22114    22106    22106 
   22115    22110    22100    22099    22100    22096    22092    22088 
   22079    22061    22053    22049    22032    22018    22007    21987 
   21967    21948    21918    21890    21871    21845    21807    21768 
   21739    21712    21685    21659    21621    21578    21552    21536 
   21509    21483    21463    21440    21423    21412    21400    21404 
   21415    21415    21412    21412    21417    21435    21447    21455 
   21467    21479    21496    21516    21523    21525    21541    21559 
   21577    21595    21616    21639    21664    21699    21735    21757 
   21786    21832    21878    21917    21964    22007    22046    22100 
   22156    22198    22238    22283    22326    22354    22376    22405 
   22432    22455    22480    22493    22499    22504    22509    22511 
   22511    22509    22499    22477    22449    22416    22391    22378 
   22364    22326    22266    22214    22184    22154    22111    22080 
   22045    21996    21959    21925    21887    21852    21817    21780 
   21743    21713    21691    21668    21652    21637    21620    21612 
   21613    21614    21609    21604    21602    21602    21600    21598 
   21590    21579    21581    21587    21593    21595    21600    21609 
   21621    21627    21629    21635    21643    21651    21660    21670 
   21683    21698    21712    21722    21744    21790    21847    21879 
   21894    21914    21955    22002    22033    22056    22096    22129 
   22145    22164    22188    22208    22219    22226    22234    22235 
   22229    22223    22219    22208    22195    22173    22142    22114 
   22087    22050    22021    21991    21953    21921    21891    21859 
   21836    21822    21805    21779    21755    21739    21728    21709 
   21690    21676    21660    21643    21627    21604    21586    21590 
   21601    21597    21574    21556    21559    21567    21574    21583 
   21586    21587    21600    21605    21605    21609    21616    21622 
   21635    21647    21655    21668    21690    21712    21728    21749 
   21782    21807    21836    21868    21886    21907    21945    21976 
   22005    22046    22087    22121    22153    22180    22204    22227 
   22254    22283    22299    22307    22323    22337    22343    22357 
   22370    22373    22374    22378    22383    22378    22373    22368 
   22353    22333    22316    22288    22239    22192    22179    22191 
   22148    22052    22002    22002    21968    21928    21914    21884 
   21851    21836    21811    21786    21776    21762    21743    21740 
   21736    21725    21720    21710    21699    21702    21709    21706 
   21712    21728    21739    21747    21760    21771    21783    21797 
   21806    21816    21824    21829    21838    21841    21836    21833 
   21833    21833    21837    21836    21828    21826    21829    21825 
   21821    21825    21832    21841    21853    21864    21867    21875 
   21886    21895    21929    21987    22002    21984    22000    22019 
   22011    22022    22046    22049    22048    22045    22027    22014 
   22000    21980    21961    21949    21933    21905    21875    21847 
   21817    21794    21772    21745    21718    21698    21679    21672 
   21671    21662    21658    21658    21651    21645    21651    21659 
   21667    21682    21693    21702    21720    21741    21755    21764 
   21780    21797    21807    21820    21828    21829    21833    21844 
   21851    21845    21837    21833    21832    21829    21821    21806 
   21794    21790    21786    21772    21757    21759    21770    21767 
   21751    21744    21756    21764    21766    21768    21774    21789 
   21814    21830    21845    21867    21882    21898    21928    21952 
   21969    21994    22023    22044    22064    22094    22118    22131 
   22145    22156    22165    22179    22188    22191    22184    22177 
   22180    22181    22176    22165    22146    22127    22115    22103 
   22086    22071    22056    22037    22017    22000    21983    21959 
   21928    21894    21864    21843    21824    21806    21784    21766 
   21753    21740    21730    21724    21712    21703    21702    21702 
   21705    21708    21706    21712    21721    21728    21735    21733 
   21733    21747    21760    21763    21763    21762    21764    21771 
   21772    21767    21767    21774    21783    21791    21797    21799 
   21803    21813    21818    21811    21805    21809    21816    21820 
   21826    21832    21828    21817    21810    21813    21814    21813 
   21818    21822    21821    21829    21844    21859    21872    21884 
   21891    21903    21926    21949    21964    21980    22003    22023 
   22042    22064    22084    22096    22103    22111    22117    22123 
   22135    22141    22135    22133    22127    22115    22106    22090 
   22068    22052    22038    22021    22002    21984    21969    21956 
   21942    21928    21913    21898    21891    21880    21860    21843 
   21834    21828    21821    21806    21786    21779    21786    21780 
   21767    21763    21763    21760    21755    21739    21721    21713 
   21710    21699    21687    21683    21683    21681    21672    21663 
   21660    21666    21672    21682    21703    21725    21747    21776 
   21803    21825    21855    21894    21932    21972    22009    22041 
   22075    22106    22131    22160    22184    22204    22227    22250 
   22269    22285    22297    22306    22312    22314    22308    22302 
   22292    22275    22252    22231    22214    22194    22172    22141 
   22100    22065    22040    22010    21969    21926    21894    21871 
   21840    21799    21766    21740    21718    21694    21662    21632 
   21617    21609    21591    21566    21544    21529    21510    21486 
   21471    21455    21431    21412    21400    21378    21347    21325 
   21327    21331    21320    21311    21313    21321    21332    21342 
   21355    21377    21406    21438    21467    21502    21546    21591 
   21631    21671    21717    21762    21806    21851    21888    21919 
   21946    21976    22005    22029    22052    22075    22091    22108 
   22125    22131    22142    22164    22180    22181    22181    22181 
   22188    22192    22181    22168    22162    22153    22137    22115 
   22095    22080    22068    22049    22017    21983    21960    21940 
   21907    21871    21840    21817    21803    21782    21748    21724 
   21712    21693    21667    21645    21629    21625    21629    21629 
   21624    21625    21635    21649    21671    21695    21712    21728 
   21756    21782    21803    21833    21872    21910    21938    21949 
