Origin Time       2025/01/13 21:19:00
Lat.              31.8
Long.             131.6
Depth. (km)       30
Mag.              6.9
Station Code      TTR008
Station Lat.      35.4259
Station Long.     133.3301
Station Height(m) 2
Record Time       2025/01/13 21:21:32
Sampling Freq(Hz) 100Hz
Duration Time(s)  103
Dir.              E-W
Scale Factor      7845(gal)/8223790
Max. Acc. (gal)   4.246
Last Correction   2025/01/13 21:21:33
Memo.             
[...]
   -3811    -3892    -3975    -4054    -4135    -4221    -4303    -4375 
   -4445    -4514    -4569    -4614    -4650    -4677    -4692    -4703 
   -4700    -4683    -4656    -4619    -4571    -4517    -4460    -4401 
   -4341    -4287    -4236    -4186    -4140    -4102    -4071    -4050 
   -4033    -4017    -4006    -3991    -3964    -3935    -3901    -3863 
   -3816    -3750    -3663    -3557    -3426    -3275    -3102    -2911 
   -2709    -2501    -2285    -2064    -1840    -1626    -1424    -1233 
   -1059     -900     -757     -641     -556     -498     -472     -476 
    -502     -550     -618     -706     -816     -931    -1050    -1192 
   -1347    -1494    -1637    -1786    -1926    -2056    -2184    -2317 
   -2443    -2554    -2663    -2781    -2883    -2959    -3033    -3105 
   -3177    -3264    -3342    -3414    -3500    -3582    -3654    -3732 
   -3813    -3888    -3974    -4064    -4147    -4228    -4314    -4401 
   -4496    -4602    -4712    -4820    -4907    -4974    -5044    -5109 
   -5157    -5190    -5196    -5169    -5132    -5078    -4990    -4882 
   -4772    -4671    -4564    -4440    -4311    -4194    -4078    -3943 
   -3798    -3663    -3532    -3397    -3257    -3109    -2967    -2845 
   -2731    -2610    -2482    -2343    -2216    -2104    -1985    -1865 
   -1775    -1706    -1642    -1590    -1561    -1560    -1572    -1590 
   -1622    -1667    -1703    -1742    -1792    -1840    -1885    -1930 
   -1954    -1977    -2026    -2074    -2108    -2143    -2188    -2247 
   -2317    -2384    -2459    -2566    -2691    -2829    -2972    -3111 
   -3261    -3419    -3561    -3686    -3798    -3883    -3940    -3978 
   -4012    -4044    -4068    -4078    -4074    -4062    -4044    -4008 
   -3943    -3871    -3809    -3739    -3654    -3565    -3476    -3387 
   -3298    -3213    -3122    -3030    -2952    -2882    -2814    -2751 
   -2693    -2647    -2627    -2616    -2621    -2647    -2685    -2736 
   -2812    -2893    -2971    -3045    -3115    -3190    -3260    -3321 
   -3379    -3434    -3476    -3501    -3505    -3477    -3426    -3360 
   -3276    -3180    -3076    -2952    -2816    -2682    -2551    -2412 
   -2276    -2149    -2023    -1906    -1806    -1715    -1644    -1599 
   -1579    -1586    -1620    -1667    -1733    -1817    -1910    -2022 
   -2151    -2278    -2408    -2552    -2704    -2849    -2984    -3115 
   -3244    -3357    -3445    -3516    -3580    -3635    -3665    -3666 
   -3647    -3605    -3541    -3447    -3335    -3219    -3099    -2982 
   -2880    -2795    -2720    -2666    -2644    -2641    -2663    -2708 
   -2763    -2826    -2895    -2974    -3059    -3142    -3233    -3334 
   -3434    -3532    -3635    -3739    -3840    -3936    -4027    -4110 
   -4182    -4244    -4290    -4306    -4301    -4276    -4234    -4174 
   -4094    -4008    -3924    -3842    -3763    -3689    -3616    -3542 
   -3462    -3377    -3288    -3199    -3098    -2995    -2899    -2805 
   -2716    -2646    -2581    -2524    -2486    -2467    -2465    -2471 
   -2478    -2498    -2525    -2548    -2571    -2593    -2613    -2631 
   -2641    -2647    -2651    -2644    -2620    -2587    -2544    -2490 
   -2438    -2384    -2322    -2261    -2203    -2146    -2089    -2033 
   -1989    -1971    -1962    -1960    -1976    -2011    -2050    -2093 
   -2147    -2211    -2278    -2340    -2401    -2474    -2548    -2627 
   -2722    -2820    -2921    -3040    -3161    -3283    -3412    -3539 
   -3667    -3804    -3929    -4041    -4152    -4255    -4347    -4438 
   -4514    -4576    -4644    -4702    -4738    -4766    -4776    -4768 
   -4752    -4716    -4658    -4588    -4499    -4391    -4276    -4148 
   -4008    -3875    -3747    -3624    -3519    -3429    -3356    -3299 
   -3258    -3242    -3250    -3268    -3304    -3369    -3454    -3554 
   -3658    -3766    -3881    -3985    -4068    -4143    -4199    -4225 
   -4220    -4180    -4109    -4006    -3867    -3704    -3522    -3318 
   -3098    -2872    -2646    -2419    -2189    -1968    -1759    -1559 
   -1379    -1217    -1067     -936     -824     -734     -661     -604 
    -571     -561     -567     -584     -618     -676     -742     -804 
    -874     -951    -1036    -1123    -1209    -1302    -1399    -1487 
   -1570    -1644    -1701    -1748    -1794    -1830    -1856    -1880 
   -1895    -1899    -1899    -1902    -1914    -1938    -1971    -2023 
   -2100    -2193    -2305    -2439    -2587    -2748    -2921    -3102 
   -3288    -3477    -3661    -3839    -4021    -4206    -4391    -4577 
   -4774    -4976    -5163    -5341    -5512    -5671    -5821    -5957 
   -6068    -6158    -6234    -6278    -6289    -6273    -6231    -6147 
   -6015    -5842    -5638    -5402    -5132    -4841    -4529    -4193 
   -3844    -3493    -3140    -2798    -2473    -2157    -1863    -1590 
   -1335    -1102     -896     -723     -594     -496     -426     -380 
    -356     -348     -363     -405     -468     -546     -631     -712 
    -792     -869     -947    -1031    -1102    -1158    -1201    -1219 
   -1224    -1235    -1247    -1252    -1256    -1255    -1252    -1259 
   -1281    -1323    -1386    -1467    -1567    -1679    -1796    -1925 
   -2076    -2249    -2431    -2628    -2843    -3068    -3300    -3532 
   -3767    -4006    -4251    -4495    -4735    -4959    -5167    -5371 
   -5568    -5749    -5918    -6080    -6218    -6324    -6415    -6496 
   -6555    -6579    -6566    -6515    -6428    -6304    -6141    -5944 
   -5718    -5467    -5185    -4876    -4549    -4214    -3877    -3538 
   -3210    -2897    -2601    -2336    -2096    -1864    -1655    -1475 
   -1304    -1150    -1024     -904     -793     -696     -606     -522 
    -457     -410     -379     -353     -332     -314     -298     -283 
    -276     -282     -301     -333     -386     -457     -538     -638 
    -754     -881    -1017    -1162    -1310    -1456    -1590    -1718 
   -1850    -1980    -2096    -2196    -2290    -2390    -2488    -2577 
   -2666    -2764    -2872    -2991    -3126    -3277    -3435    -3603 
   -3784    -3974    -4176    -4391    -4617    -4845    -5066    -5282 
   -5494    -5695    -5872    -6030    -6168    -6273    -6340    -6376 
   -6374    -6332    -6254    -6137    -5992    -5836    -5663    -5479 
   -5294    -5105    -4922    -4758    -4608    -4473    -4359    -4259 
   -4174    -4108    -4055    -4001    -3946    -3893    -3842    -3782 
   -3712    -3626    -3534    -3443    -3343    -3230    -3118    -3018 
   -2911    -2794    -2685    -2589    -2494    -2400    -2316    -2238 
   -2160    -2073    -1979    -1883    -1783    -1669    -1549    -1424 
   -1287    -1163    -1043     -920     -811     -719     -635     -561 
    -502     -460     -442     -448     -475     -526     -608     -720 
    -862    -1038    -1235    -1439    -1661    -1904    -2153    -2397 
   -2637    -2867    -3080    -3285    -3478    -3658    -3823    -3970 
   -4098    -4205    -4286    -4349    -4399    -4419    -4406    -4371 
   -4318    -4245    -4156    -4056    -3958    -3862    -3761    -3663 
   -3582    -3523    -3480    -3457    -3453    -3451    -3456    -3478 
   -3511    -3542    -3569    -3592    -3609    -3615    -3612    -3604 
   -3585    -3555    -3518    -3469    -3416    -3364    -3304    -3242 
   -3176    -3109    -3052    -3001    -2951    -2897    -2824    -2735 
   -2655    -2583    -2508    -2431    -2355    -2282    -2214    -2149 
   -2101    -2077    -2072    -2089    -2127    -2193    -2297    -2423 
   -2559    -2712    -2886    -3075    -3258    -3438    -3632    -3839 
   -4040    -4224    -4395    -4579    -4758    -4899    -5017    -5135 
   -5215    -5247    -5248    -5220    -5158    -5057    -4912    -4737 
   -4538    -4313    -4074    -3836    -3603    -3373    -3153    -2947 
   -2755    -2586    -2440    -2308    -2201    -2128    -2070    -2027 
   -2000    -1983    -1980    -1984    -1987    -1998    -2033    -2076 
   -2118    -2166    -2220    -2266    -2307    -2342    -2369    -2388 
   -2392    -2382    -2367    -2358    -2349    -2328    -2309    -2289 
   -2262    -2239    -2216    -2191    -2164    -2131    -2095    -2060 
   -2023    -1987    -1960    -1938    -1923    -1915    -1919    -1945 
   -1979    -2029    -2106    -2192    -2288    -2393    -2500    -2610 
   -2718    -2817    -2918    -3024    -3122    -3208    -3292    -3375 
   -3443    -3497    -3549    -3596    -3634    -3666    -3689    -3697 
   -3690    -3674    -3654    -3631    -3612    -3605    -3601    -3600 
   -3609    -3630    -3655    -3680    -3699    -3717    -3736    -3751 
   -3758    -3763    -3771    -3769    -3762    -3747    -3721    -3694 
   -3665    -3631    -3595    -3541    -3472    -3403    -3327    -3240 
   -3144    -3044    -2944    -2843    -2732    -2621    -2516    -2419 
   -2334    -2254    -2174    -2118    -2072    -2014    -1957    -1926 
   -1910    -1899    -1899    -1911    -1946    -1993    -2043    -2107 
   -2185    -2269    -2354    -2443    -2538    -2629    -2716    -2802 
   -2883    -2959    -3036    -3106    -3179    -3264    -3352    -3435 
   -3512    -3592    -3677    -3750    -3804    -3855    -3908    -3946 
   -3969    -3987    -3998    -4000    -3982    -3939    -3881    -3819 
   -3739    -3634    -3507    -3362    -3194    -3003    -2799    -2596 
   -2378    -2147    -1911    -1680    -1459    -1243    -1034     -841 
    -670     -517     -372     -247     -159     -112      -94      -87 
     -98     -147     -230     -334     -461     -615     -807    -1036 
   -1293    -1566    -1850    -2147    -2467    -2798    -3118    -3431 
   -3735    -4020    -4286    -4540    -4774    -4997    -5208    -5406 
   -5591    -5759    -5907    -6048    -6193    -6354    -6505    -6625 
   -6725    -6812    -6872    -6912    -6941    -6959    -6934    -6859 
   -6758    -6640    -6502    -6346    -6168    -5977    -5773    -5539 
   -5286    -5038    -4788    -4523    -4233    -3927    -3630    -3343 
   -3048    -2747    -2458    -2180    -1896    -1609    -1350    -1132 
    -936     -750     -579     -437     -329     -226     -124      -43 
      14       62       99      130      164      194      216      218 
     193      151      103       41      -39     -140     -261     -395 
    -542     -706     -876    -1054    -1229    -1401    -1568    -1725 
   -1871    -2012    -2150    -2285    -2405    -2492    -2560    -2632 
   -2714    -2805    -2886    -2952    -3014    -3076    -3142    -3219 
   -3300    -3380    -3450    -3516    -3592    -3665    -3723    -3777 
   -3831    -3878    -3920    -3964    -4008    -4027    -4028    -4039 
   -4054    -4058    -4059    -4058    -4058    -4062    -4052    -4051 
   -4082    -4117    -4147    -4176    -4225    -4310    -4401    -4482 
   -4581    -4676    -4746    -4824    -4899    -4951    -4985    -4999 
   -5000    -4988    -4955    -4901    -4834    -4746    -4617    -4446 
   -4260    -4068    -3869    -3657    -3435    -3213    -3006    -2824 
   -2655    -2493    -2353    -2245    -2170    -2126    -2093    -2070 
   -2058    -2039    -2010    -1996    -1993    -1989    -1993    -1999 
   -2007    -2027    -2047    -2070    -2112    -2165    -2220    -2276 
   -2320    -2366    -2417    -2448    -2458    -2475    -2513    -2556 
   -2590    -2613    -2639    -2670    -2694    -2712    -2728    -2737 
   -2731    -2712    -2700    -2687    -2660    -2625    -2604    -2596 
   -2590    -2574    -2559    -2573    -2610    -2646    -2682    -2735 
   -2801    -2875    -2936    -2986    -3048    -3119    -3181    -3231 
   -3271    -3300    -3321    -3334    -3356    -3384    -3399    -3397 
   -3383    -3354    -3329    -3318    -3308    -3291    -3271    -3256 
   -3248    -3238    -3237    -3256    -3268    -3264    -3284    -3326 
   -3375    -3447    -3543    -3650    -3770    -3904    -4043    -4195 
   -4351    -4510    -4679    -4831    -4962    -5080    -5175    -5250 
   -5292    -5277    -5228    -5170    -5090    -4978    -4843    -4683 
   -4495    -4284    -4052    -3813    -3577    -3339    -3086    -2813 
   -2536    -2268    -2006    -1740    -1462    -1189     -942     -715 
    -500     -292     -105       62      222      372      496      591 
     653      684      693      687      657      602      523      409 
     271      141       10     -132     -275     -419     -569     -719 
    -877    -1038    -1194    -1367    -1559    -1753    -1946    -2131 
   -2303    -2469    -2641    -2818    -2988    -3145    -3300    -3464 
   -3635    -3819    -4009    -4209    -4422    -4633    -4838    -5058 
   -5279    -5491    -5695    -5883    -6061    -6249    -6440    -6619 
   -6781    -6929    -7061    -7183    -7272    -7323    -7364    -7388 
   -7369    -7311    -7223    -7102    -6944    -6755    -6546    -6318 
   -6070    -5815    -5549    -5265    -4959    -4649    -4344    -4040 
   -3735    -3429    -3125    -2840    -2560    -2277    -2010    -1755 
   -1489    -1232     -994     -751     -504     -267      -47      153 
     342      504      658      815      951     1054     1123     1162 
    1183     1185     1170     1132     1071      996      909      811 
     714      607      480      353      232      112       -5     -129 
    -276     -437     -599     -757     -908    -1058    -1227    -1422 
   -1644    -1888    -2133    -2380    -2648    -2943    -3261    -3600 
   -3955    -4314    -4668    -5016    -5362    -5691    -6003    -6304 
   -6578    -6808    -6987    -7142    -7277    -7364    -7418    -7445 
   -7431    -7396    -7334    -7230    -7101    -6957    -6804    -6644 
   -6469    -6276    -6080    -5879    -5672    -5458    -5242    -5027 
   -4807    -4585    -4364    -4133    -3894    -3655    -3423    -3206 
   -2988    -2760    -2551    -2361    -2170    -1985    -1814    -1647 
   -1489    -1340    -1197    -1058     -927     -808     -687     -554 
    -440     -348     -259     -164      -72        1       56      108 
     148      172      191      201      193      170      118       43 
     -41     -149     -288     -456     -641     -834    -1047    -1294 
   -1564    -1857    -2170    -2501    -2839    -3168    -3499    -3847 
   -4190    -4503    -4787    -5063    -5331    -5559    -5736    -5876 
   -6002    -6099    -6147    -6168    -6176    -6169    -6142    -6076 
   -6007    -5958    -5873    -5748    -5626    -5518    -5417    -5287 
   -5124    -4959    -4793    -4618    -4460    -4330    -4187    -3990 
   -3780    -3607    -3462    -3318    -3165    -3022    -2894    -2763 
   -2616    -2481    -2388    -2307    -2204    -2107    -2027    -1926 
   -1807    -1696    -1602    -1507    -1409    -1332    -1271    -1198 
   -1112    -1030     -990     -992     -977     -942     -946     -988 
   -1043    -1105    -1170    -1255    -1363    -1482    -1618    -1767 
   -1922    -2087    -2247    -2408    -2570    -2724    -2874    -3038 
   -3204    -3358    -3512    -3696    -3892    -4059    -4193    -4325 
   -4457    -4581    -4683    -4757    -4828    -4901    -4955    -5004 
   -5047    -5077    -5092    -5077    -5026    -4980    -4949    -4904 
   -4845    -4777    -4703    -4635    -4554    -4450    -4347    -4256 
   -4174    -4083    -3963    -3839    -3731    -3622    -3489    -3342 
   -3192    -3036    -2857    -2655    -2444    -2250    -2065    -1872 
   -1672    -1471    -1275    -1090     -909     -731     -560     -396 
    -256     -137      -13      118      251      369      452      511 
     550      549      541      561      575      541      459      318 
     139      -32     -189     -361     -568     -808    -1067    -1328 
   -1590    -1852    -2123    -2408    -2675    -2930    -3200    -3472 
   -3742    -4031    -4320    -4583    -4823    -5054    -5296    -5532 
   -5713    -5852    -5999    -6142    -6259    -6376    -6474    -6516 
   -6509    -6486    -6466    -6458    -6446    -6405    -6328    -6232 
   -6133    -6021    -5890    -5746    -5598    -5440    -5281    -5116 
   -4932    -4731    -4526    -4330    -4133    -3924    -3719    -3514 
   -3300    -3080    -2847    -2616    -2396    -2173    -1944    -1709 
   -1485    -1289    -1112     -940     -766     -594     -440     -315 
    -211     -109      -31        9       47       85       97       85 
      54       12      -43     -129     -226     -314     -414     -522 
    -638     -769     -905    -1050    -1206    -1362    -1524    -1701 
   -1888    -2084    -2281    -2467    -2644    -2817    -2982    -3141 
   -3304    -3460    -3596    -3724    -3842    -3958    -4078    -4198 
   -4320    -4445    -4558    -4656    -4753    -4847    -4926    -4992 
   -5047    -5089    -5130    -5166    -5193    -5221    -5254    -5281 
   -5301    -5324    -5344    -5352    -5348    -5347    -5352    -5348 
   -5320    -5271    -5220    -5162    -5097    -5039    -4974    -4888 
   -4795    -4695    -4583    -4468    -4349    -4218    -4086    -3951 
   -3807    -3653    -3503    -3369    -3240    -3105    -2970    -2837 
   -2709    -2585    -2450    -2315    -2193    -2080    -1968    -1865 
   -1777    -1696    -1622    -1549    -1474    -1406    -1343    -1274 
   -1202    -1131    -1058     -980     -892     -805     -727     -652 
    -584     -517     -449     -390     -337     -294     -268     -263 
    -276     -301     -332     -379     -448     -542     -652     -768 
    -903    -1067    -1240    -1408    -1594    -1811    -2039    -2259 
   -2481    -2714    -2953    -3184    -3392    -3581    -3763    -3928 
   -4068    -4207    -4351    -4473    -4569    -4657    -4743    -4824 
   -4905    -4990    -5069    -5134    -5186    -5232    -5273    -5298 
   -5308    -5296    -5254    -5200    -5140    -5076    -5015    -4945 
   -4860    -4777    -4691    -4591    -4492    -4399    -4318    -4248 
   -4176    -4106    -4033    -3955    -3882    -3815    -3759    -3723 
   -3685    -3623    -3543    -3462    -3380    -3285    -3172    -3048 
   -2920    -2779    -2620    -2458    -2300    -2141    -1981    -1834 
   -1696    -1570    -1456    -1358    -1271    -1201    -1138    -1086 
   -1054    -1026    -1008    -1015    -1030    -1046    -1073    -1113 
   -1165    -1221    -1285    -1362    -1447    -1526    -1599    -1672 
   -1752    -1840    -1917    -1975    -2035    -2095    -2149    -2209 
   -2268    -2312    -2357    -2423    -2512    -2610    -2708    -2810 
   -2926    -3053    -3179    -3302    -3435    -3576    -3708    -3828 
   -3950    -4085    -4220    -4342    -4461    -4591    -4729    -4860 
   -4976    -5088    -5209    -5320    -5394    -5455    -5520    -5574 
   -5607    -5616    -5613    -5611    -5597    -5562    -5513    -5454 
   -5385    -5301    -5194    -5080    -4958    -4818    -4657    -4488 
   -4318    -4148    -3991    -3846    -3684    -3508    -3342    -3184 
   -3029    -2866    -2706    -2569    -2442    -2313    -2187    -2065 
   -1946    -1807    -1661    -1539    -1409    -1260    -1119     -974 
    -816     -665     -523     -390     -267     -160      -72       -2 
      45       71       62       24      -31     -108     -211     -338 
    -484     -635     -797     -967    -1139    -1332    -1540    -1738 
   -1933    -2127    -2332    -2544    -2749    -2947    -3130    -3298 
   -3458    -3627    -3798    -3952    -4090    -4218    -4332    -4449 
