Origin Time       2025/01/13 21:19:00
Lat.              31.8
Long.             131.6
Depth. (km)       30
Mag.              6.9
Station Code      TTR004
Station Lat.      35.4606
Station Long.     134.0548
Station Height(m) 49
Record Time       2025/01/13 21:21:47
Sampling Freq(Hz) 100Hz
Duration Time(s)  62
Dir.              N-S
Scale Factor      7845(gal)/8223790
Max. Acc. (gal)   1.435
Last Correction   2025/01/13 21:21:49
Memo.             
[...]
   14073    14035    13996    13957    13925    13892    13860    13832 
   13802    13768    13734    13703    13676    13656    13640    13629 
   13625    13628    13635    13651    13674    13702    13729    13759 
   13788    13819    13852    13883    13915    13950    13987    14026 
   14064    14100    14135    14164    14185    14199    14208    14220 
   14223    14222    14229    14229    14218    14204    14185    14162 
   14141    14116    14094    14071    14046    14026    14006    13986 
   13969    13954    13938    13926    13918    13906    13891    13875 
   13853    13825    13798    13770    13737    13705    13670    13636 
   13609    13585    13560    13544    13533    13521    13514    13510 
   13512    13518    13524    13529    13536    13543    13554    13564 
   13576    13594    13606    13613    13621    13625    13629    13640 
   13656    13668    13683    13705    13729    13759    13792    13828 
   13867    13915    13969    14026    14083    14145    14208    14268 
   14326    14382    14435    14484    14521    14548    14577    14604 
   14621    14638    14655    14658    14652    14647    14625    14592 
   14558    14517    14466    14416    14368    14312    14253    14193 
   14130    14065    14003    13938    13865    13798    13737    13676 
   13613    13556    13504    13456    13417    13385    13356    13336 
   13323    13313    13313    13320    13331    13350    13375    13405 
   13439    13478    13524    13574    13622    13672    13726    13778 
   13833    13892    13949    14010    14072    14130    14183    14229 
   14272    14316    14350    14377    14405    14426    14445    14461 
   14472    14478    14476    14466    14458    14445    14430    14418 
   14399    14378    14358    14330    14299    14268    14229    14187 
   14149    14111    14069    14031    13992    13952    13915    13883 
   13846    13811    13784    13763    13738    13716    13698    13682 
   13664    13649    13640    13626    13617    13617    13616    13614 
   13620    13629    13639    13651    13671    13691    13711    13741 
   13775    13807    13842    13879    13913    13945    13976    14003 
   14030    14057    14084    14110    14137    14164    14183    14197 
   14212    14220    14227    14235    14239    14242    14246    14243 
   14234    14226    14218    14200    14181    14165    14145    14126 
   14107    14085    14062    14046    14029    14004    13984    13963 
   13936    13907    13883    13857    13832    13807    13782    13756 
   13734    13717    13702    13689    13676    13668    13664    13662 
   13666    13675    13684    13698    13718    13738    13757    13784 
   13807    13824    13846    13867    13883    13900    13913    13921 
   13933    13946    13954    13965    13977    13981    13984    13992 
   13990    13979    13973    13967    13949    13930    13913    13892 
   13871    13846    13819    13794    13768    13745    13724    13702 
   13684    13674    13663    13657    13659    13667    13676    13683 
   13694    13710    13726    13744    13763    13784    13803    13824 
   13846    13868    13894    13925    13960    13991    14025    14062 
   14095    14126    14154    14176    14193    14214    14233    14247 
   14262    14277    14292    14300    14305    14315    14319    14315 
   14312    14308    14293    14274    14250    14214    14166    14122 
   14069    14006    13944    13880    13810    13743    13679    13612 
   13549    13491    13431    13381    13339    13301    13275    13261 
   13254    13250    13255    13273    13296    13327    13371    13421 
   13475    13537    13599    13664    13728    13794    13864    13936 
   14011    14084    14154    14226    14296    14359    14416    14465 
   14515    14565    14601    14628    14651    14665    14667    14661 
   14648    14636    14616    14589    14554    14511    14461    14403 
   14339    14277    14207    14129    14056    13990    13919    13855 
   13794    13732    13670    13613    13559    13502    13456    13419 
   13382    13352    13331    13319    13316    13315    13319    13332 
   13355    13383    13416    13452    13495    13543    13595    13653 
   13716    13778    13845    13914    13976    14035    14098    14153 
   14203    14250    14289    14320    14347    14373    14389    14399 
   14411    14420    14415    14403    14389    14370    14349    14324 
   14301    14277    14247    14218    14189    14160    14129    14095 
   14060    14023    13983    13940    13896    13851    13799    13744 
   13690    13636    13579    13524    13473    13419    13363    13309 
   13259    13213    13167    13126    13090    13055    13027    13004 
   12985    12974    12977    12991    13011    13039    13078    13126 
   13180    13240    13311    13393    13482    13574    13672    13778 
   13879    13983    14094    14203    14310    14420    14526    14628 
   14728    14821    14913    14997    15068    15132    15183    15217 
   15240    15250    15249    15233    15206    15171    15125    15071 
   15007    14939    14864    14785    14702    14621    14536    14447 
   14357    14268    14179    14091    14008    13932    13857    13786 
   13721    13663    13616    13578    13547    13525    13514    13512 
   13521    13537    13562    13590    13626    13667    13710    13761 
   13815    13864    13906    13948    13988    14021    14052    14079 
   14102    14122    14142    14157    14165    14166    14161    14148 
   14127    14103    14073    14040    14002    13957    13911    13868 
   13821    13765    13710    13656    13597    13537    13483    13431 
   13379    13331    13289    13258    13235    13215    13205    13203 
   13208    13217    13230    13251    13279    13306    13342    13387 
   13439    13494    13554    13616    13684    13760    13833    13909 
   13987    14062    14145    14229    14308    14386    14462    14534 
   14604    14670    14732    14787    14836    14875    14906    14926 
   14941    14951    14951    14947    14939    14921    14902    14877 
   14840    14806    14773    14732    14689    14644    14600    14554 
   14505    14454    14403    14345    14283    14224    14169    14110 
   14046    13984    13926    13863    13798    13733    13664    13594 
   13531    13468    13406    13350    13293    13238    13190    13150 
   13116    13096    13082    13077    13080    13090    13108    13134 
   13165    13200    13243    13292    13339    13387    13439    13493 
   13548    13605    13659    13716    13771    13817    13863    13909 
   13942    13977    14013    14038    14057    14077    14094    14104 
   14112    14114    14104    14088    14069    14046    14018    13991 
   13960    13927    13896    13859    13821    13788    13751    13709 
   13672    13635    13595    13559    13527    13494    13463    13439 
   13414    13394    13385    13382    13381    13386    13401    13417 
   13435    13459    13490    13521    13555    13594    13633    13676 
   13726    13779    13836    13895    13953    14015    14081    14145 
   14211    14277    14342    14401    14454    14501    14540    14574 
   14605    14632    14651    14662    14667    14667    14656    14638 
   14615    14590    14566    14542    14519    14494    14476    14461 
   14443    14423    14405    14393    14376    14350    14324    14305 
   14280    14249    14222    14197    14168    14139    14112    14079 
   14037    13999    13959    13914    13871    13829    13787    13744 
   13709    13683    13656    13626    13609    13597    13585    13579 
   13576    13571    13574    13582    13587    13595    13603    13616 
   13633    13649    13670    13699    13729    13760    13794    13828 
   13864    13903    13942    13983    14025    14065    14104    14141 
   14176    14212    14249    14281    14319    14357    14391    14426 
   14467    14504    14539    14582    14616    14647    14685    14720 
   14746    14769    14786    14793    14790    14783    14770    14746 
   14716    14679    14636    14592    14544    14490    14432    14376 
   14316    14251    14188    14125    14057    13988    13925    13863 
   13798    13736    13675    13618    13564    13510    13460    13417 
   13377    13336    13301    13273    13244    13215    13185    13159 
   13139    13116    13089    13069    13057    13043    13032    13032 
   13032    13035    13050    13069    13089    13119    13155    13194 
   13235    13284    13335    13392    13460    13527    13589    13666 
   13752    13833    13919    14015    14107    14195    14284    14369 
   14447    14524    14597    14665    14727    14786    14839    14881 
   14916    14947    14966    14975    14982    14980    14970    14953 
   14928    14898    14862    14820    14777    14731    14679    14624 
   14567    14507    14439    14370    14300    14229    14154    14081 
   14011    13936    13859    13782    13701    13618    13537    13458 
   13378    13306    13239    13176    13122    13073    13027    12985 
   12949    12923    12903    12881    12866    12865    12866    12873 
   12889    12907    12926    12953    12988    13024    13059    13108 
   13158    13203    13254    13315    13370    13428    13490    13547 
   13601    13655    13705    13753    13799    13840    13879    13917 
   13953    13991    14025    14052    14075    14096    14114    14129 
   14149    14168    14179    14192    14204    14210    14214    14215 
   14214    14216    14214    14207    14204    14196    14184    14179 
   14169    14156    14146    14134    14116    14107    14092    14071 
   14057    14045    14030    14021    14019    14018    14013    14014 
   14017    14014    14018    14025    14026    14027    14030    14035 
   14041    14046    14050    14054    14058    14064    14072    14079 
   14084    14094    14100    14102    14100    14098    14100    14098 
   14087    14081    14080    14064    14045    14029    14003    13972 
   13948    13919    13886    13857    13833    13805    13776    13752 
   13729    13710    13693    13674    13657    13644    13633    13624 
   13616    13610    13609    13605    13602    13602    13606    13608 
   13605    13605    13612    13616    13620    13632    13647    13657 
   13670    13686    13703    13721    13738    13759    13779    13798 
   13821    13844    13859    13879    13902    13922    13944    13969 
   13994    14022    14052    14079    14110    14141    14164    14188 
   14218    14238    14247    14257    14261    14261    14258    14256 
   14250    14241    14229    14212    14187    14157    14130    14103 
   14068    14031    13999    13961    13923    13887    13851    13817 
   13783    13752    13725    13701    13682    13664    13648    13635 
   13626    13621    13625    13635    13648    13668    13695    13721 
   13749    13784    13824    13861    13902    13948    13988    14029 
   14072    14112    14150    14184    14212    14238    14258    14274 
   14284    14291    14293    14289    14284    14277    14265    14253 
   14242    14219    14191    14164    14137    14106    14073    14045 
   14017    13988    13964    13941    13919    13902    13887    13871 
   13860    13856    13852    13849    13851    13857    13869    13887 
   13906    13934    13971    14003    14040    14084    14129    14176 
   14230    14284    14341    14399    14453    14505    14559    14609 
   14655    14701    14740    14774    14805    14825    14836    14841 
   14835    14820    14798    14766    14724    14673    14612    14548 
   14481    14405    14330    14257    14183    14106    14034    13969 
   13900    13830    13765    13702    13640    13583    13535    13487 
   13443    13405    13371    13340    13313    13294    13282    13273 
   13266    13263    13265    13267    13267    13271    13281    13290 
   13300    13316    13331    13342    13359    13377    13392    13417 
   13441    13462    13487    13512    13535    13563    13589    13612 
   13640    13666    13686    13709    13732    13749    13767    13780 
   13786    13787    13786    13782    13771    13757    13743    13726 
   13711    13699    13687    13676    13670    13667    13671    13676 
   13686    13702    13722    13747    13776    13809    13841    13878 
   13918    13961    14007    14060    14118    14169    14220    14276 
   14330    14376    14416    14454    14486    14513    14536    14554 
   14565    14575    14581    14575    14567    14558    14539    14515 
   14489    14455    14416    14374    14332    14285    14233    14183 
   14137    14089    14045    14006    13969    13937    13910    13882 
   13860    13844    13826    13814    13805    13792    13782    13772 
   13765    13757    13749    13744    13743    13741    13737    13736 
   13741    13743    13743    13744    13744    13741    13740    13740 
   13736    13728    13720    13714    13709    13702    13691    13680 
   13668    13651    13629    13609    13583    13548    13516    13479 
   13435    13389    13344    13297    13251    13207    13162    13122 
   13086    13053    13023    13001    12984    12969    12964    12970 
   12978    12992    13012    13041    13073    13112    13162    13221 
   13289    13366    13452    13541    13639    13743    13851    13961 
   14076    14191    14303    14416    14528    14636    14746    14851 
   14948    15040    15126    15203    15272    15331    15380    15412 
   15431    15439    15431    15411    15379    15333    15277    15215 
   15138    15049    14955    14854    14743    14632    14521    14403 
   14277    14154    14035    13921    13805    13689    13583    13483 
   13389    13305    13225    13155    13097    13049    13012    12993 
   12985    12989    13007    13035    13074    13124    13185    13257 
   13336    13424    13516    13614    13718    13821    13923    14030 
   14134    14227    14312    14392    14465    14528    14584    14631 
   14671    14705    14725    14740    14751    14751    14740    14723 
   14700    14669    14629    14584    14532    14474    14415    14358 
   14299    14234    14166    14096    14023    13948    13871    13792 
   13716    13641    13571    13505    13441    13385    13336    13292 
   13255    13227    13207    13198    13201    13213    13235    13267 
   13309    13358    13410    13467    13536    13608    13675    13747 
   13818    13888    13961    14033    14099    14164    14229    14285 
   14335    14381    14419    14449    14476    14494    14503    14507 
   14504    14494    14481    14463    14438    14411    14385    14353 
   14320    14291    14256    14219    14188    14153    14112    14076 
   14044    14004    13963    13923    13884    13844    13805    13771 
   13740    13714    13687    13663    13640    13618    13599    13590 
   13582    13575    13576    13582    13585    13593    13603    13612 
   13625    13643    13657    13674    13695    13718    13741    13764 
   13787    13806    13819    13833    13844    13855    13863    13864 
   13863    13860    13851    13838    13828    13810    13794    13780 
   13759    13740    13722    13698    13675    13656    13633    13609 
   13589    13571    13551    13535    13525    13520    13513    13510 
   13510    13512    13522    13536    13549    13570    13601    13633 
   13667    13706    13748    13795    13848    13895    13945    14004 
   14061    14108    14161    14220    14274    14323    14368    14407 
   14440    14469    14486    14500    14509    14508    14497    14478 
   14450    14412    14368    14316    14258    14195    14127    14056 
   13980    13907    13832    13753    13680    13613    13544    13478 
   13419    13360    13308    13263    13223    13192    13167    13150 
   13147    13151    13158    13176    13204    13238    13285    13339 
   13393    13458    13529    13597    13674    13757    13841    13922 
   14002    14080    14160    14237    14307    14370    14430    14481 
   14523    14558    14589    14612    14627    14639    14643    14642 
   14636    14625    14607    14586    14563    14534    14503    14467 
   14432    14400    14366    14334    14305    14278    14251    14227 
   14204    14185    14169    14157    14150    14146    14142    14145 
   14154    14165    14175    14188    14208    14224    14235    14246 
   14257    14262    14262    14260    14251    14237    14219    14196 
   14165    14131    14092    14046    13996    13945    13891    13840 
   13784    13729    13674    13616    13559    13508    13459    13414 
   13370    13331    13298    13267    13243    13224    13205    13192 
   13186    13181    13184    13194    13204    13216    13238    13262 
   13290    13325    13367    13413    13467    13521    13576    13633 
   13695    13759    13824    13887    13954    14019    14080    14143 
   14206    14260    14305    14350    14386    14413    14436    14454 
   14457    14454    14445    14426    14401    14373    14339    14301 
   14261    14219    14177    14133    14091    14056    14023    13990 
   13964    13942    13929    13925    13923    13927    13941    13956 
   13971    13992    14017    14037    14062    14088    14110    14133 
   14156    14173    14189    14203    14211    14216    14220    14223 
   14219    14211    14202    14189    14175    14164    14150    14138 
   14125    14108    14091    14072    14052    14029    14004    13976 
   13945    13918    13891    13851    13810    13776    13740    13702 
   13670    13635    13597    13566    13540    13512    13486    13462 
   13437    13420    13409    13398    13392    13389    13392    13396 
   13402    13412    13428    13451    13475    13501    13532    13572 
   13617    13659    13706    13765    13825    13880    13940    14003 
   14065    14127    14188    14246    14307    14369    14428    14481 
   14528    14570    14611    14647    14674    14692    14704    14708 
   14706    14697    14677    14650    14617    14577    14526    14466 
   14401    14328    14245    14153    14054    13949    13840    13729 
   13613    13498    13390    13284    13177    13078    12991    12910 
   12837    12775    12727    12695    12673    12665    12672    12692 
   12730    12784    12849    12924    13015    13116    13227    13347 
   13474    13601    13732    13863    13992    14121    14242    14354 
   14462    14557    14638    14709    14766    14805    14833    14845 
   14841    14825    14794    14747    14686    14615    14532    14442 
   14343    14239    14126    14008    13896    13786    13672    13563 
   13462    13367    13282    13212    13154    13107    13080    13066 
   13066    13078    13103    13140    13189    13246    13313    13386 
   13462    13545    13629    13714    13803    13888    13969    14048 
   14121    14188    14253    14312    14364    14412    14455    14488 
   14513    14536    14551    14559    14561    14553    14536    14517 
   14494    14459    14416    14373    14327    14270    14212    14154 
   14091    14023    13954    13888    13825    13760    13697    13637 
   13586    13541    13493    13451    13424    13398    13374    13366 
   13365    13359    13365    13383    13404    13425    13460    13504 
   13544    13590    13643    13695    13743    13790    13841    13890 
