Origin Time       2025/01/13 21:19:00
Lat.              31.8
Long.             131.6
Depth. (km)       30
Mag.              6.9
Station Code      TTR008
Station Lat.      35.4259
Station Long.     133.3301
Station Height(m) 2
Record Time       2025/01/13 21:21:32
Sampling Freq(Hz) 100Hz
Duration Time(s)  103
Dir.              N-S
Scale Factor      7845(gal)/8223790
Max. Acc. (gal)   4.241
Last Correction   2025/01/13 21:21:33
Memo.             
[...]
  -11982   -11983   -11975   -11956   -11927   -11884   -11836   -11790 
  -11734   -11670   -11596   -11512   -11425   -11331   -11241   -11160 
  -11086   -11014   -10930   -10835   -10750   -10665   -10584   -10523 
  -10476   -10444   -10430   -10431   -10455   -10489   -10523   -10565 
  -10606   -10642   -10686   -10735   -10789   -10852   -10912   -10966 
  -11021   -11067   -11097   -11117   -11138   -11161   -11187   -11217 
  -11241   -11257   -11265   -11265   -11257   -11250   -11246   -11241 
  -11245   -11249   -11256   -11276   -11294   -11294   -11288   -11283 
  -11277   -11267   -11249   -11234   -11218   -11194   -11175   -11160 
  -11142   -11125   -11106   -11087   -11070   -11052   -11049   -11060 
  -11079   -11107   -11142   -11183   -11221   -11263   -11314   -11372 
  -11430   -11487   -11527   -11543   -11538   -11518   -11489   -11450 
  -11402   -11360   -11329   -11307   -11296   -11284   -11260   -11225 
  -11186   -11152   -11130   -11119   -11109   -11095   -11074   -11041 
  -11007   -10982   -10971   -10976   -10991   -11026   -11082   -11137 
  -11186   -11234   -11280   -11311   -11327   -11342   -11357   -11358 
  -11348   -11329   -11317   -11303   -11286   -11271   -11260   -11267 
  -11298   -11330   -11360   -11395   -11431   -11458   -11468   -11477 
  -11497   -11496   -11464   -11427   -11389   -11348   -11314   -11287 
  -11257   -11215   -11156   -11090   -11017   -10928   -10832   -10740 
  -10643   -10543   -10443   -10339   -10255   -10189   -10131   -10098 
  -10093   -10103   -10131   -10183   -10254   -10343   -10443   -10562 
  -10694   -10822   -10952   -11079   -11191   -11299   -11394   -11472 
  -11551   -11623   -11662   -11678   -11677   -11651   -11611   -11570 
  -11529   -11492   -11464   -11433   -11398   -11362   -11329   -11298 
  -11271   -11254   -11250   -11249   -11257   -11268   -11263   -11252 
  -11248   -11240   -11222   -11199   -11171   -11142   -11111   -11072 
  -11026   -10975   -10921   -10866   -10804   -10741   -10681   -10616 
  -10558   -10508   -10447   -10385   -10338   -10288   -10231   -10187 
  -10160   -10141   -10119   -10087   -10060   -10039   -10018   -10010 
  -10012   -10012   -10019   -10035   -10050   -10076   -10114   -10158 
  -10220   -10297   -10380   -10481   -10605   -10750   -10914   -11087 
  -11260   -11441   -11627   -11804   -11973   -12132   -12278   -12410 
  -12523   -12618   -12696   -12756   -12795   -12811   -12812   -12812 
  -12819   -12826   -12827   -12829   -12829   -12823   -12820   -12825 
  -12823   -12812   -12802   -12791   -12777   -12752   -12721   -12680 
  -12615   -12525   -12413   -12279   -12128   -11963   -11786   -11595 
  -11391   -11178   -10955   -10729   -10505   -10289   -10080    -9872 
   -9667    -9462    -9265    -9084    -8919    -8769    -8637    -8530 
   -8452    -8411    -8392    -8384    -8409    -8483    -8581    -8700 
   -8861    -9058    -9274    -9504    -9742    -9985   -10231   -10484 
  -10736   -10975   -11195   -11398   -11585   -11773   -11966   -12145 
  -12306   -12448   -12568   -12672   -12756   -12818   -12868   -12906 
  -12931   -12942   -12937   -12923   -12900   -12866   -12823   -12766 
  -12703   -12638   -12567   -12492   -12429   -12370   -12309   -12256 
  -12213   -12177   -12137   -12094   -12054   -12013   -11973   -11932 
  -11884   -11820   -11749   -11682   -11614   -11535   -11456   -11369 
  -11269   -11157   -11038   -10918   -10789   -10659   -10544   -10439 
  -10351   -10288   -10233   -10189   -10162   -10149   -10152   -10160 
  -10161   -10169   -10187   -10210   -10239   -10276   -10316   -10366 
  -10426   -10485   -10548   -10620   -10698   -10779   -10860   -10941 
  -11009   -11060   -11102   -11132   -11146   -11156   -11163   -11171 
  -11176   -11178   -11190   -11206   -11218   -11238   -11252   -11254 
  -11252   -11227   -11184   -11136   -11095   -11064   -11030   -11003 
  -10998   -11005   -11017   -11032   -11060   -11109   -11159   -11198 
  -11230   -11256   -11277   -11292   -11296   -11287   -11264   -11229 
  -11184   -11133   -11065   -10991   -10924   -10868   -10827   -10809 
  -10818   -10849   -10897   -10953   -11016   -11078   -11148   -11230 
  -11322   -11418   -11515   -11608   -11691   -11757   -11804   -11834 
  -11843   -11828   -11800   -11761   -11705   -11634   -11539   -11426 
  -11295   -11153   -11022   -10906   -10806   -10729   -10667   -10625 
  -10611   -10609   -10631   -10673   -10724   -10785   -10856   -10936 
  -11010   -11079   -11153   -11226   -11296   -11371   -11435   -11484 
  -11512   -11519   -11512   -11495   -11475   -11457   -11434   -11398 
  -11349   -11294   -11236   -11178   -11125   -11071   -11022   -10979 
  -10943   -10917   -10887   -10843   -10797   -10743   -10686   -10627 
  -10566   -10520   -10476   -10419   -10363   -10305   -10249   -10200 
  -10154   -10119   -10102   -10102   -10125   -10172   -10242   -10328 
  -10428   -10540   -10665   -10797   -10937   -11078   -11217   -11349 
  -11469   -11568   -11643   -11707   -11758   -11786   -11794   -11778 
  -11745   -11695   -11622   -11526   -11423   -11321   -11233   -11168 
  -11117   -11083   -11067   -11070   -11092   -11132   -11173   -11222 
  -11280   -11340   -11407   -11492   -11573   -11637   -11692   -11740 
  -11770   -11785   -11792   -11790   -11788   -11784   -11770   -11749 
  -11722   -11688   -11643   -11593   -11543   -11499   -11450   -11402 
  -11362   -11331   -11307   -11292   -11291   -11307   -11335   -11369 
  -11404   -11439   -11477   -11506   -11523   -11537   -11538   -11527 
  -11518   -11500   -11472   -11445   -11412   -11380   -11353   -11322 
  -11284   -11246   -11192   -11121   -11041   -10963   -10887   -10812 
  -10746   -10696   -10647   -10604   -10569   -10542   -10525   -10516 
  -10504   -10490   -10480   -10473   -10470   -10474   -10480   -10488 
  -10500   -10515   -10539   -10581   -10632   -10682   -10724   -10760 
  -10797   -10825   -10844   -10856   -10858   -10851   -10833   -10801 
  -10770   -10744   -10719   -10704   -10696   -10696   -10704   -10723 
  -10756   -10801   -10859   -10935   -11018   -11099   -11178   -11257 
  -11338   -11422   -11511   -11601   -11693   -11784   -11869   -11944 
  -12008   -12054   -12081   -12093   -12096   -12093   -12085   -12071 
  -12055   -12039   -12020   -12005   -11985   -11966   -11958   -11959 
  -11963   -11967   -11967   -11956   -11932   -11890   -11830   -11754 
  -11672   -11591   -11504   -11404   -11296   -11192   -11097   -11013 
  -10943   -10885   -10827   -10754   -10686   -10635   -10588   -10547 
  -10519   -10507   -10508   -10523   -10548   -10573   -10600   -10633 
  -10669   -10721   -10777   -10824   -10891   -10967   -11025   -11070 
  -11106   -11145   -11176   -11188   -11209   -11227   -11210   -11171 
  -11134   -11099   -11065   -11038   -11020   -11013   -11013   -11010 
  -11001   -10989   -10970   -10940   -10905   -10868   -10827   -10777 
  -10727   -10667   -10597   -10524   -10440   -10351   -10266   -10183 
  -10112   -10045    -9972    -9918    -9876    -9838    -9829    -9845 
   -9868    -9898    -9942    -9999   -10072   -10158   -10254   -10357 
  -10467   -10593   -10733   -10883   -11051   -11226   -11408   -11588 
  -11754   -11900   -12023   -12113   -12167   -12197   -12206   -12199 
  -12181   -12151   -12109   -12059   -11998   -11928   -11858   -11786 
  -11718   -11653   -11591   -11539   -11492   -11453   -11429   -11408 
  -11394   -11394   -11396   -11399   -11416   -11445   -11480   -11524 
  -11578   -11635   -11695   -11746   -11778   -11800   -11809   -11803 
  -11797   -11786   -11757   -11720   -11680   -11630   -11578   -11531 
  -11484   -11441   -11404   -11367   -11331   -11303   -11271   -11232 
  -11188   -11134   -11082   -11045   -11016   -10984   -10967   -10953 
  -10933   -10913   -10891   -10856   -10825   -10797   -10759   -10723 
  -10694   -10663   -10633   -10606   -10575   -10554   -10547   -10555 
  -10578   -10616   -10663   -10716   -10771   -10827   -10887   -10957 
  -11014   -11055   -11099   -11146   -11190   -11238   -11281   -11304 
  -11314   -11310   -11302   -11304   -11311   -11319   -11323   -11315 
  -11306   -11300   -11295   -11277   -11245   -11222   -11217   -11218 
  -11222   -11236   -11245   -11257   -11280   -11311   -11345   -11381 
  -11411   -11439   -11462   -11462   -11450   -11434   -11407   -11372 
  -11323   -11252   -11157   -11048   -10944   -10860   -10789   -10714 
  -10640   -10588   -10562   -10552   -10559   -10579   -10609   -10662 
  -10743   -10840   -10944   -11059   -11179   -11291   -11391   -11489 
  -11601   -11712   -11799   -11863   -11911   -11931   -11931   -11925 
  -11919   -11904   -11878   -11842   -11808   -11772   -11724   -11673 
  -11615   -11551   -11489   -11429   -11358   -11290   -11230   -11178 
  -11122   -11064   -11010   -10968   -10930   -10881   -10825   -10774 
  -10723   -10674   -10633   -10605   -10573   -10528   -10488   -10457 
  -10428   -10412   -10405   -10405   -10405   -10400   -10396   -10393 
  -10389   -10386   -10377   -10363   -10349   -10320   -10301   -10301 
  -10291   -10258   -10230   -10204   -10169   -10131   -10099   -10065 
  -10023    -9984    -9957    -9942    -9938    -9941    -9945    -9942 
   -9934    -9936    -9952    -9990   -10049   -10115   -10197   -10312 
  -10442   -10581   -10751   -10953   -11168   -11388   -11620   -11858 
  -12100   -12349   -12586   -12799   -13005   -13207   -13389   -13552 
  -13701   -13817   -13894   -13949   -13976   -13965   -13927   -13872 
  -13792   -13690   -13571   -13437   -13282   -13111   -12931   -12744 
  -12546   -12345   -12147   -11959   -11790   -11631   -11477   -11350 
  -11252   -11169   -11103   -11053   -11016   -10983   -10953   -10921 
  -10887   -10849   -10802   -10748   -10686   -10611   -10525   -10442 
  -10357   -10262   -10164   -10064    -9958    -9852    -9744    -9641 
   -9555    -9479    -9406    -9343    -9286    -9229    -9180    -9139 
   -9105    -9081    -9069    -9065    -9073    -9094    -9132    -9189 
   -9265    -9359    -9477    -9609    -9760    -9931   -10114   -10304 
  -10511   -10733   -10963   -11200   -11438   -11674   -11915   -12158 
  -12398   -12637   -12872   -13088   -13284   -13455   -13593   -13702 
  -13779   -13817   -13824   -13798   -13732   -13633   -13505   -13351 
  -13177   -12982   -12766   -12537   -12301   -12060   -11820   -11584 
  -11354   -11133   -10920   -10723   -10548   -10390   -10253   -10138 
  -10041    -9964    -9904    -9859    -9829    -9814    -9814    -9823 
   -9837    -9860    -9886    -9915    -9956   -10000   -10046   -10103 
  -10172   -10250   -10334   -10416   -10504   -10598   -10689   -10774 
  -10855   -10930   -10999   -11056   -11098   -11128   -11148   -11155 
  -11152   -11146   -11149   -11161   -11176   -11186   -11202   -11225 
  -11240   -11249   -11253   -11254   -11250   -11240   -11226   -11217 
  -11211   -11227   -11263   -11307   -11365   -11449   -11557   -11680 
  -11821   -11989   -12172   -12378   -12596   -12816   -13045   -13274 
  -13487   -13682   -13852   -13986   -14084   -14148   -14161   -14121 
  -14026   -13875   -13666   -13405   -13096   -12744   -12353   -11935 
  -11497   -11055   -10611   -10172    -9749    -9348    -8977    -8633 
   -8317    -8036    -7792    -7593    -7435    -7314    -7240    -7199 
   -7200    -7253    -7342    -7469    -7632    -7821    -8031    -8255 
   -8487    -8727    -8968    -9211    -9459    -9703    -9930   -10150 
  -10370   -10584   -10781   -10964   -11134   -11280   -11411   -11530 
  -11628   -11697   -11747   -11782   -11797   -11793   -11780   -11766 
  -11751   -11738   -11730   -11726   -11731   -11750   -11789   -11859 
  -11966   -12098   -12253   -12438   -12650   -12880   -13122   -13374 
  -13639   -13907   -14168   -14419   -14659   -14883   -15083   -15252 
  -15383   -15479   -15538   -15553   -15522   -15450   -15330   -15155 
  -14926   -14656   -14349   -14000   -13620   -13212   -12792   -12364 
  -11932   -11497   -11068   -10647   -10239    -9856    -9489    -9147 
   -8843    -8568    -8317    -8101    -7917    -7762    -7638    -7543 
   -7484    -7461    -7470    -7507    -7565    -7651    -7759    -7877 
   -8008    -8148    -8275    -8392    -8503    -8602    -8695    -8789 
   -8876    -8959    -9047    -9131    -9225    -9333    -9447    -9575 
   -9715    -9853    -9985   -10112   -10239   -10369   -10503   -10629 
  -10731   -10814   -10898   -10972   -11043   -11118   -11202   -11302 
  -11415   -11527   -11645   -11785   -11951   -12127   -12302   -12486 
  -12680   -12876   -13070   -13248   -13402   -13541   -13659   -13744 
  -13814   -13873   -13907   -13917   -13907   -13873   -13824   -13767 
  -13690   -13598   -13500   -13386   -13255   -13103   -12935   -12769 
  -12599   -12429   -12266   -12104   -11946   -11792   -11634   -11483 
  -11341   -11206   -11075   -10945   -10822   -10705   -10592   -10492 
  -10405   -10326   -10242   -10152   -10057    -9956    -9850    -9755 
   -9671    -9597    -9520    -9439    -9373    -9320    -9262    -9198 
   -9138    -9077    -9008    -8946    -8896    -8850    -8799    -8756 
   -8710    -8658    -8621    -8595    -8581    -8588    -8615    -8661 
   -8733    -8835    -8972    -9134    -9324    -9544    -9791   -10085 
  -10416   -10762   -11136   -11530   -11925   -12324   -12723   -13122 
  -13505   -13861   -14188   -14489   -14762   -14993   -15184   -15338 
  -15449   -15530   -15581   -15593   -15569   -15512   -15426   -15315 
  -15179   -15024   -14848   -14643   -14415   -14166   -13907   -13641 
  -13363   -13073   -12780   -12490   -12206   -11936   -11674   -11422 
  -11187   -10971   -10767   -10578   -10401   -10233   -10076    -9922 
   -9769    -9633    -9509    -9387    -9266    -9151    -9045    -8943 
   -8845    -8741    -8626    -8514    -8405    -8295    -8190    -8091 
   -7998    -7915    -7838    -7778    -7735    -7712    -7716    -7731 
   -7765    -7836    -7936    -8067    -8239    -8445    -8676    -8924 
   -9194    -9481    -9787   -10114   -10442   -10767   -11090   -11407 
  -11716   -12008   -12274   -12523   -12758   -12973   -13165   -13338 
  -13504   -13659   -13809   -13965   -14131   -14291   -14430   -14561 
  -14685   -14794   -14894   -14980   -15043   -15078   -15076   -15040 
  -14978   -14885   -14759   -14601   -14413   -14202   -13969   -13720 
  -13459   -13188   -12919   -12650   -12380   -12116   -11858   -11607 
  -11375   -11159   -10960   -10785   -10621   -10473   -10350   -10250 
  -10162   -10087   -10029    -9983    -9934    -9883    -9826    -9760 
   -9683    -9591    -9487    -9373    -9250    -9123    -8997    -8885 
   -8783    -8694    -8627    -8576    -8541    -8523    -8525    -8541 
   -8571    -8604    -8633    -8657    -8689    -8721    -8752    -8779 
   -8795    -8811    -8834    -8861    -8892    -8928    -8969    -9019 
   -9077    -9138    -9207    -9281    -9360    -9451    -9559    -9678 
   -9815    -9965   -10118   -10289   -10486   -10702   -10933   -11173 
  -11429   -11695   -11955   -12208   -12471   -12731   -12987   -13239 
  -13475   -13689   -13886   -14064   -14216   -14338   -14431   -14511 
  -14565   -14585   -14588   -14559   -14492   -14395   -14277   -14137 
  -13992   -13860   -13728   -13581   -13432   -13290   -13159   -13039 
  -12911   -12776   -12634   -12491   -12349   -12191   -12028   -11882 
  -11728   -11547   -11360   -11172   -10982   -10781   -10559   -10322 
  -10080    -9830    -9575    -9321    -9076    -8838    -8608    -8388 
   -8176    -7982    -7817    -7700    -7619    -7558    -7534    -7543 
   -7577    -7639    -7742    -7874    -8019    -8178    -8363    -8552 
   -8741    -8942    -9143    -9343    -9558    -9774    -9985   -10204 
  -10424   -10656   -10901   -11153   -11422   -11708   -11996   -12268 
  -12525   -12777   -13022   -13251   -13471   -13676   -13852   -13999 
  -14130   -14245   -14334   -14395   -14426   -14427   -14399   -14343 
  -14269   -14168   -14034   -13876   -13695   -13489   -13267   -13036 
  -12799   -12559   -12318   -12082   -11855   -11641   -11438   -11252 
  -11087   -10933   -10785   -10647   -10516   -10396   -10287   -10179 
  -10077    -9984    -9890    -9794    -9699    -9605    -9516    -9425 
   -9328    -9221    -9116    -9015    -8919    -8833    -8765    -8715 
   -8679    -8658    -8653    -8665    -8698    -8753    -8827    -8914 
   -9012    -9119    -9238    -9367    -9502    -9651    -9811    -9968 
  -10120   -10277   -10440   -10600   -10746   -10887   -11030   -11165 
  -11294   -11423   -11556   -11682   -11807   -11940   -12083   -12225 
  -12370   -12513   -12652   -12788   -12923   -13053   -13163   -13252 
  -13327   -13387   -13439   -13478   -13501   -13514   -13520   -13504 
  -13463   -13404   -13329   -13231   -13109   -12974   -12825   -12660 
  -12484   -12294   -12097   -11900   -11699   -11496   -11291   -11088 
  -10895   -10713   -10540   -10385   -10254   -10149   -10064   -10000 
   -9950    -9903    -9865    -9841    -9833    -9836    -9841    -9850 
   -9853    -9841    -9829    -9815    -9790    -9759    -9724    -9683 
   -9640    -9594    -9547    -9502    -9462    -9444    -9443    -9450 
   -9468    -9512    -9583    -9682    -9806    -9960   -10141   -10343 
  -10562   -10797   -11053   -11325   -11596   -11863   -12132   -12394 
  -12645   -12874   -13074   -13248   -13401   -13524   -13621   -13698 
  -13747   -13770   -13774   -13747   -13691   -13622   -13543   -13439 
  -13302   -13144   -12970   -12781   -12586   -12382   -12167   -11946 
  -11723   -11510   -11295   -11076   -10890   -10733   -10584   -10458 
  -10365   -10299   -10268   -10268   -10296   -10361   -10458   -10571 
  -10686   -10797   -10910   -11020   -11125   -11229   -11315   -11375 
  -11425   -11483   -11531   -11558   -11578   -11611   -11646   -11662 
  -11654   -11635   -11620   -11612   -11599   -11564   -11523   -11495 
  -11466   -11426   -11377   -11335   -11308   -11275   -11236   -11202 
  -11165   -11119   -11052   -10974   -10914   -10868   -10812   -10760 
  -10723   -10681   -10633   -10582   -10527   -10469   -10403   -10320 
  -10222   -10108    -9984    -9857    -9730    -9585    -9417    -9255 
   -9115    -8996    -8891    -8807    -8750    -8721    -8725    -8750 
   -8802    -8889    -9018    -9184    -9370    -9564    -9784   -10033 
  -10301   -10577   -10856   -11149   -11446   -11738   -12032   -12314 
  -12582   -12850   -13100   -13308   -13483   -13633   -13755   -13848 
  -13915   -13950   -13941   -13896   -13819   -13713   -13590   -13459 
  -13323   -13178   -13039   -12907   -12766   -12626   -12492   -12359 
  -12232   -12112   -11993   -11881   -11765   -11647   -11529   -11416 
  -11338   -11299   -11276   -11259   -11240   -11214   -11191   -11176 
  -11164   -11153   -11136   -11102   -11044   -10979   -10922   -10872 
  -10822   -10760   -10700   -10662   -10636   -10613   -10602   -10600 
  -10598   -10604   -10619   -10633   -10644   -10656   -10669   -10671 
  -10675   -10692   -10708   -10719   -10719   -10712   -10705   -10714 
  -10740   -10763   -10782   -10812   -10851   -10875   -10886   -10893 
  -10876   -10827   -10770   -10704   -10609   -10500   -10381   -10246 
  -10095    -9936    -9759    -9567    -9381    -9202    -9036    -8885 
