Origin Time       2025/01/13 21:19:00
Lat.              31.8
Long.             131.6
Depth. (km)       30
Mag.              6.9
Station Code      TTR008
Station Lat.      35.4259
Station Long.     133.3301
Station Height(m) 2
Record Time       2025/01/13 21:21:32
Sampling Freq(Hz) 100Hz
Duration Time(s)  103
Dir.              U-D
Scale Factor      7845(gal)/8223790
Max. Acc. (gal)   1.497
Last Correction   2025/01/13 21:21:33
Memo.             
[...]
   10702    10650    10590    10530    10477    10436    10409    10393 
   10395    10415    10450    10498    10551    10601    10651    10701 
   10754    10802    10839    10867    10893    10916    10939    10951 
   10949    10941    10929    10914    10895    10858    10809    10759 
   10708    10655    10606    10561    10512    10459    10408    10355 
   10300    10251    10208    10172    10153    10150    10165    10199 
   10238    10281    10330    10372    10396    10408    10412    10415 
   10411    10407    10404    10399    10389    10380    10369    10353 
   10331    10309    10299    10301    10309    10320    10331    10350 
   10384    10428    10470    10505    10532    10547    10558    10571 
   10581    10578    10578    10579    10582    10592    10604    10616 
   10633    10654    10673    10697    10733    10775    10818    10862 
   10901    10932    10966    11001    11028    11045    11051    11036 
   11010    10982    10949    10917    10882    10841    10801    10764 
   10732    10704    10689    10686    10686    10685    10689    10700 
   10713    10723    10720    10708    10692    10675    10665    10655 
   10639    10628    10629    10627    10617    10609    10597    10577 
   10559    10543    10525    10515    10504    10485    10467    10453 
   10428    10397    10368    10338    10309    10281    10253    10228 
   10207    10193    10197    10211    10224    10237    10249    10266 
   10293    10330    10373    10419    10463    10505    10547    10600 
   10655    10702    10755    10812    10866    10917    10963    10999 
   11028    11045    11049    11037    11006    10963    10908    10844 
   10775    10702    10624    10544    10463    10392    10330    10264 
   10200    10149    10102    10060    10030    10012    10003     9998 
    9998    10011    10031    10054    10085    10130    10189    10253 
   10320    10390    10459    10525    10585    10635    10671    10694 
   10704    10705    10704    10697    10686    10678    10675    10675 
   10679    10686    10694    10696    10700    10710    10721    10733 
   10746    10755    10767    10777    10778    10782    10791    10802 
   10805    10808    10817    10829    10841    10854    10866    10879 
   10897    10920    10940    10955    10970    10979    10983    10989 
   10990    10980    10967    10952    10935    10916    10902    10886 
   10868    10859    10845    10820    10793    10770    10747    10720 
   10686    10643    10600    10559    10525    10500    10474    10451 
   10430    10415    10423    10438    10432    10420    10416    10411 
   10405    10411    10405    10388    10373    10362    10339    10299 
   10258    10231    10212    10203    10210    10230    10269    10322 
   10382    10446    10505    10562    10612    10654    10681    10692 
   10692    10689    10692    10694    10696    10698    10700    10693 
   10686    10687    10696    10708    10720    10736    10758    10785 
   10814    10847    10881    10916    10948    10974    10990    10991 
   10979    10956    10925    10891    10859    10824    10790    10762 
   10729    10687    10644    10602    10565    10535    10511    10488 
   10473    10469    10476    10484    10494    10504    10513    10536 
   10573    10609    10638    10656    10673    10690    10706    10717 
   10719    10713    10701    10683    10662    10635    10609    10584 
   10554    10524    10497    10466    10435    10413    10393    10373 
   10363    10362    10368    10378    10388    10389    10380    10361 
   10338    10319    10301    10281    10257    10226    10189    10161 
   10138    10114    10103    10110    10116    10119    10127    10149 
   10181    10222    10266    10316    10368    10413    10451    10489 
   10531    10566    10593    10619    10650    10682    10701    10709 
   10717    10728    10735    10743    10754    10752    10733    10712 
   10705    10701    10687    10671    10660    10654    10643    10629 
   10628    10633    10628    10628    10638    10639    10636    10640 
   10642    10638    10636    10643    10660    10678    10686    10683 
   10670    10651    10633    10612    10581    10548    10520    10481 
   10424    10354    10289    10242    10215    10197    10173    10141 
   10102    10066    10048    10039    10031    10035    10065    10102 
   10133    10172    10211    10238    10269    10318    10382    10459 
   10536    10597    10639    10673    10713    10770    10836    10903 
   10968    11029    11072    11095    11117    11141    11156    11160 
   11163    11172    11179    11175    11168    11156    11132    11107 
   11090    11079    11078    11076    11070    11056    11040    11036 
   11045    11053    11060    11063    11064    11080    11113    11134 
   11141    11130    11101    11063    11018    10962    10897    10824 
   10739    10643    10540    10434    10326    10223    10131    10033 
    9918     9817     9747     9693     9640     9603     9579     9556 
    9556     9574     9576     9583     9606     9625     9644     9675 
    9721     9780     9845     9914     9991    10071    10153    10247 
   10349    10447    10531    10585    10628    10677    10725    10781 
   10829    10848    10856    10876    10895    10897    10898    10902 
   10899    10887    10879    10883    10899    10928    10957    10986 
   11017    11047    11071    11086    11098    11103    11094    11079 
   11059    11026    10998    10984    10978    10968    10959    10955 
   10948    10932    10909    10882    10849    10809    10770    10732 
   10696    10660    10616    10570    10525    10471    10412    10361 
   10318    10276    10238    10206    10177    10149    10130    10125 
   10125    10134    10161    10204    10255    10312    10372    10428 
   10480    10525    10565    10598    10625    10650    10674    10694 
   10708    10720    10736    10750    10759    10764    10768    10768 
   10764    10754    10739    10717    10693    10666    10632    10597 
   10566    10527    10484    10446    10411    10370    10334    10305 
   10282    10269    10269    10272    10278    10293    10308    10331 
   10376    10434    10503    10581    10665    10754    10845    10929 
   11006    11074    11128    11168    11195    11217    11234    11236 
   11232    11227    11215    11194    11172    11153    11133    11107 
   11090    11080    11074    11064    11049    11032    11011    10989 
   10962    10925    10882    10840    10798    10755    10709    10667 
   10631    10598    10558    10519    10489    10457    10417    10377 
   10342    10312    10287    10270    10254    10231    10211    10199 
   10187    10170    10157    10145    10139    10141    10134    10126 
   10131    10138    10137    10150    10174    10196    10230    10276 
   10322    10368    10412    10461    10513    10561    10593    10615 
   10636    10648    10636    10609    10581    10540    10490    10446 
   10403    10349    10292    10249    10222    10196    10173    10168 
   10179    10197    10224    10264    10318    10384    10453    10530 
   10612    10692    10774    10852    10928    11005    11072    11128 
   11175    11210    11237    11254    11252    11236    11219    11198 
   11163    11110    11053    11009    10964    10906    10851    10804 
   10756    10710    10656    10593    10532    10469    10403    10346 
   10295    10237    10168    10102    10057    10012     9953     9909 
    9888     9873     9864     9873     9891     9919     9973    10037 
   10099    10177    10270    10361    10449    10542    10633    10728 
   10822    10912    11002    11092    11176    11246    11303    11345 
   11372    11383    11377    11356    11321    11272    11214    11151 
   11075    10982    10876    10773    10667    10555    10438    10320 
   10208    10106    10007     9914     9833     9768     9724     9698 
    9690     9698     9718     9747     9794     9857     9917     9969 
   10041    10126    10206    10284    10359    10430    10497    10551 
   10581    10601    10629    10654    10654    10638    10623    10612 
   10604    10581    10539    10500    10470    10438    10395    10347 
   10309    10273    10227    10184    10158    10154    10158    10172 
   10204    10247    10293    10351    10416    10478    10543    10613 
   10686    10760    10849    10948    11037    11118    11192    11261 
   11321    11373    11419    11460    11496    11508    11499    11488 
   11468    11421    11357    11281    11184    11079    10967    10841 
   10708    10574    10444    10320    10200    10099    10015     9949 
    9906     9883     9880     9904     9944     9985    10035    10098 
   10168    10234    10291    10343    10397    10446    10489    10525 
   10552    10567    10582    10598    10602    10597    10594    10592 
   10585    10581    10588    10602    10627    10658    10687    10713 
   10735    10751    10766    10768    10764    10764    10773    10779 
   10777    10781    10798    10820    10845    10878    10909    10947 
   10991    11032    11072    11121    11171    11223    11275    11321 
   11361    11388    11396    11389    11371    11335    11283    11215 
   11129    11021    10895    10768    10647    10528    10409    10295 
   10193    10106    10021     9944     9882     9836     9805     9790 
    9792     9811     9838     9873     9914     9963    10033    10103 
   10161    10218    10274    10330    10382    10409    10416    10427 
   10447    10459    10457    10457    10462    10469    10470    10467 
   10470    10481    10485    10488    10494    10505    10524    10543 
   10550    10555    10582    10623    10646    10659    10686    10719 
   10748    10781    10827    10878    10932    10989    11045    11110 
   11184    11249    11299    11335    11358    11373    11375    11358 
   11331    11291    11240    11191    11141    11086    11028    10975 
   10929    10887    10851    10818    10790    10767    10750    10733 
   10712    10681    10638    10581    10523    10476    10423    10351 
   10288    10231    10158    10081    10014     9952     9896     9857 
    9837     9828     9819     9817     9822     9826     9838     9865 
    9892     9922     9971    10027    10081    10137    10197    10260 
   10316    10372    10430    10480    10524    10566    10598    10629 
   10658    10677    10683    10687    10692    10685    10658    10615 
   10567    10512    10446    10374    10305    10235    10166    10110 
   10060    10018    10002    10002    10003    10014    10046    10093 
   10145    10195    10246    10300    10361    10419    10469    10515 
   10557    10593    10629    10666    10701    10735    10768    10805 
   10848    10889    10912    10925    10940    10953    10960    10949 
   10921    10885    10840    10787    10723    10644    10562    10485 
   10417    10359    10311    10262    10220    10195    10193    10208 
   10233    10270    10328    10413    10511    10600    10704    10832 
   10957    11060    11160    11263    11352    11419    11465    11484 
   11480    11458    11421    11361    11281    11198    11110    11014 
   10925    10839    10740    10642    10555    10488    10431    10377 
   10343    10330    10312    10292    10268    10249    10245    10247 
   10250    10255    10272    10293    10312    10334    10357    10384 
   10427    10474    10521    10577    10633    10687    10743    10791 
   10820    10835    10858    10883    10894    10897    10898    10893 
   10878    10859    10839    10814    10787    10758    10716    10663 
   10611    10558    10503    10451    10405    10358    10318    10288 
   10274    10276    10280    10287    10308    10346    10382    10415 
   10451    10485    10504    10508    10501    10478    10447    10415 
   10377    10336    10297    10255    10216    10184    10156    10131 
   10107    10089    10095    10104    10108    10123    10146    10180 
   10227    10274    10326    10378    10424    10469    10513    10547 
   10569    10596    10627    10650    10673    10706    10741    10774 
   10814    10858    10893    10933    10980    11030    11082    11126 
   11169    11219    11271    11318    11368    11411    11448    11476 
   11492    11491    11473    11449    11433    11416    11376    11317 
   11256    11202    11146    11075    10986    10901    10822    10739 
   10660    10589    10517    10458    10405    10353    10318    10297 
   10270    10237    10215    10208    10193    10162    10138    10120 
   10084    10044    10022    10003     9968     9929     9896     9867 
    9850     9850     9853     9860     9882     9926     9991    10062 
   10129    10212    10320    10416    10504    10602    10693    10754 
   10804    10867    10933    10974    11001    11026    11041    11049 
   11051    11043    11034    11026    11006    10972    10939    10916 
   10895    10866    10839    10822    10816    10820    10835    10848 
   10862    10879    10894    10909    10920    10920    10913    10906 
   10891    10864    10825    10778    10720    10648    10573    10496 
   10413    10324    10230    10141    10054     9965     9888     9826 
    9772     9729     9707     9695     9686     9687     9705     9736 
    9782     9841     9898     9948    10008    10083    10166    10261 
   10358    10461    10589    10723    10845    10979    11119    11252 
   11391    11537    11668    11777    11888    12002    12085    12120 
   12137    12150    12136    12086    12021    11956    11893    11809 
   11700    11581    11464    11344    11223    11088    10933    10791 
   10678    10573    10459    10365    10307    10254    10196    10169 
   10172    10165    10153    10173    10218    10241    10238    10250 
   10285    10293    10262    10246    10246    10214    10166    10134 
   10091    10017     9940     9891     9834     9733     9640     9591 
    9539     9483     9454     9435     9420     9418     9448     9516 
    9585     9643     9714     9801     9886     9967    10050    10137 
   10204    10243    10291    10350    10382    10413    10477    10531 
   10543    10544    10582    10655    10709    10733    10756    10787 
   10833    10881    10909    10920    10922    10933    10945    10924 
   10876    10841    10828    10812    10756    10674    10617    10592 
   10566    10535    10503    10482    10493    10504    10486    10469 
   10485    10531    10578    10611    10650    10710    10779    10844 
   10909    10972    11040    11111    11172    11217    11250    11283 
   11319    11340    11335    11331    11334    11326    11307    11294 
   11272    11234    11200    11160    11095    11025    10960    10882 
   10786    10704    10642    10566    10480    10409    10347    10272 
   10201    10156    10112    10053     9995     9956     9926     9900 
    9886     9879     9882     9887     9899     9921     9948     9983 
   10014    10035    10073    10122    10158    10191    10238    10299 
   10361    10422    10488    10552    10608    10651    10686    10720 
   10763    10797    10814    10832    10860    10876    10867    10852 
   10840    10825    10814    10808    10789    10773    10779    10802 
   10839    10886    10922    10945    10974    11018    11071    11119 
   11155    11179    11205    11237    11273    11310    11340    11365 
   11375    11368    11368    11365    11344    11308    11253    11175 
   11087    11006    10937    10870    10779    10679    10585    10482 
   10368    10255    10156    10073    10006     9948     9902     9879 
    9863     9856     9873     9906     9945     9980    10010    10053 
   10116    10181    10241    10296    10350    10400    10440    10469 
   10488    10501    10515    10520    10512    10503    10477    10424 
   10366    10314    10247    10166    10083    10004     9931     9868 
    9822     9791     9763     9732     9706     9695     9703     9725 
    9753     9788     9846     9930    10017    10107    10231    10359 
   10450    10524    10620    10716    10793    10860    10903    10926 
   10970    11016    11029    11041    11070    11090    11090    11086 
   11095    11114    11110    11084    11055    11013    10957    10894 
   10833    10783    10743    10701    10666    10638    10613    10598 
   10604    10609    10612    10640    10693    10743    10793    10859 
   10930    10990    11040    11103    11171    11215    11248    11284 
   11317    11338    11340    11334    11334    11325    11288    11230 
   11156    11071    10995    10920    10825    10720    10616    10508 
   10400    10299    10201    10108    10017     9933     9867     9815 
    9771     9732     9706     9687     9668     9659     9667     9684 
    9697     9711     9741     9780     9818     9848     9877     9909 
    9937     9964     9991    10011    10025    10045    10073    10095 
   10118    10152    10191    10231    10276    10320    10361    10396 
   10443    10505    10563    10616    10679    10746    10805    10854 
   10906    10959    10999    11026    11045    11060    11067    11070 
   11078    11086    11080    11068    11061    11051    11036    11021 
   11002    10986    10978    10978    10967    10947    10940    10941 
   10936    10930    10932    10929    10908    10886    10889    10902 
   10897    10885    10875    10858    10840    10832    10810    10774 
   10747    10727    10694    10642    10589    10555    10516    10458 
   10403    10358    10314    10261    10199    10149    10123    10100 
   10068    10038    10026    10026    10019    10012    10018    10027 
   10039    10060    10080    10092    10103    10127    10158    10179 
   10196    10212    10222    10245    10278    10299    10309    10323 
   10338    10351    10361    10368    10370    10376    10389    10397 
   10390    10403    10435    10453    10453    10463    10500    10535 
   10551    10570    10621    10683    10729    10763    10804    10856 
   10908    10944    10994    11061    11111    11128    11141    11163 
   11171    11148    11106    11061    11017    10964    10903    10841 
   10775    10681    10582    10513    10450    10369    10281    10196 
   10114    10038     9967     9909     9869     9850     9852     9871 
    9900     9938     9988    10049    10110    10170    10241    10315 
   10389    10455    10521    10601    10681    10739    10789    10839 
   10882    10920    10937    10939    10952    10964    10962    10949 
   10921    10890    10867    10856    10847    10825    10795    10766 
   10740    10720    10697    10673    10650    10624    10608    10606 
   10615    10627    10651    10683    10721    10755    10783    10818 
   10854    10883    10922    10962    10987    11003    11006    11002 
   11013    11032    11038    11038    11032    11017    11005    10994 
   10974    10943    10897    10843    10785    10724    10665    10600 
   10531    10473    10416    10349    10285    10237    10201    10173 
   10153    10145    10154    10172    10188    10223    10276    10316 
   10345    10382    10426    10462    10496    10530    10552    10552 
   10534    10511    10490    10466    10426    10372    10315    10249 
   10168    10093    10033     9963     9890     9834     9782     9724 
    9686     9666     9656     9663     9688     9725     9763     9817 
