Origin Time       2025/01/13 21:19:00
Lat.              31.8
Long.             131.6
Depth. (km)       30
Mag.              6.9
Station Code      WKY006
Station Lat.      33.9146
Station Long.     135.1639
Station Height(m) 10
Record Time       2025/01/13 21:21:12
Sampling Freq(Hz) 100Hz
Duration Time(s)  60
Dir.              E-W
Scale Factor      7845(gal)/8223790
Max. Acc. (gal)   1.639
Last Correction   2025/01/13 21:21:11
Memo.             
[...]
    2004     1996     2004     2015     2016     2015     2010     1998 
    1984     1973     1980     2000     2029     2065     2084     2066 
    2030     1989     1958     1954     1961     1968     1979     1989 
    2010     2037     2062     2093     2115     2120     2126     2114 
    2087     2068     2047     2020     1999     1989     1979     1953 
    1922     1917     1927     1937     1945     1948     1961     1998 
    2039     2062     2061     2047     2043     2057     2081     2108 
    2118     2103     2064     1998     1922     1861     1823     1804 
    1799     1819     1872     1927     1979     2038     2089     2131 
    2181     2230     2253     2242     2207     2153     2074     2003 
    1969     1953     1934     1914     1895     1871     1846     1852 
    1891     1938     1993     2053     2096     2135     2173     2189 
    2185     2170     2143     2115     2076     2030     1993     1961 
    1942     1950     1965     1981     2008     2037     2064     2079 
    2096     2126     2145     2151     2147     2116     2065     2011 
    1952     1892     1838     1800     1790     1796     1815     1857 
    1914     1975     2043     2118     2184     2223     2227     2219 
    2193     2141     2068     1998     1946     1907     1854     1799 
    1764     1757     1773     1800     1838     1892     1960     2035 
    2110     2166     2212     2242     2236     2205     2172     2145 
    2124     2088     2022     1948     1892     1858     1844     1854 
    1891     1938     1975     1988     1989     2006     2047     2081 
    2095     2101     2112     2128     2124     2072     1993     1939 
    1929     1942     1950     1956     1972     2002     2046     2096 
    2137     2166     2187     2182     2143     2087     2030     1984 
    1941     1898     1865     1848     1848     1861     1879     1903 
    1935     1980     2018     2025     2022     2035     2047     2061 
    2076     2073     2066     2074     2079     2061     2029     2008 
    2019     2038     2042     2039     2025     2007     1999     1985 
    1969     1968     1980     2000     2010     2003     1991     1972 
    1950     1935     1929     1944     1987     2037     2074     2093 
    2110     2137     2169     2184     2187     2191     2189     2165 
    2119     2061     1996     1937     1898     1876     1868     1879 
    1894     1895     1895     1912     1948     1992     2047     2107 
    2149     2174     2184     2177     2165     2149     2119     2081 
    2039     1993     1953     1929     1925     1926     1922     1919 
    1922     1923     1933     1952     1952     1941     1938     1939 
    1934     1938     1961     1983     1992     2011     2046     2074 
    2099     2122     2138     2143     2138     2127     2111     2095 
    2080     2061     2039     2022     2003     1983     1962     1937 
    1917     1906     1899     1902     1912     1926     1950     1969 
    1979     1989     2002     2022     2060     2097     2118     2126 
    2123     2122     2126     2130     2131     2126     2099     2058 
    2026     2004     1983     1957     1929     1903     1885     1879 
    1876     1873     1887     1919     1958     2000     2030     2045 
    2064     2077     2073     2056     2035     2026     2025     2030 
    2043     2061     2079     2089     2087     2080     2073     2053 
    2020     1981     1948     1931     1930     1931     1937     1952 
    1991     2041     2080     2115     2142     2151     2154     2153 
    2139     2127     2118     2116     2118     2107     2095     2092 
    2083     2064     2046     2031     2022     2019     2014     2004 
    1995     1991     1981     1961     1935     1907     1884     1877 
    1877     1880     1883     1879     1892     1945     2012     2072 
    2120     2146     2147     2150     2164     2161     2122     2068 
    2018     1960     1904     1873     1857     1854     1876     1908 
    1933     1942     1952     1965     1972     1987     2016     2038 
    2045     2049     2052     2058     2062     2066     2073     2080 
    2093     2106     2093     2076     2052     2018     1996     1989 
    1988     1995     2012     2041     2052     2035     2015     2002 
    1983     1975     1984     2006     2029     2037     2022     1996 
    1979     1987     2007     2019     2034     2056     2068     2070 
    2070     2076     2089     2103     2099     2065     2014     1973 
    1946     1925     1925     1931     1945     1972     1996     2011 
    2033     2069     2118     2162     2189     2191     2169     2135 
    2093     2047     2016     2007     2000     1971     1925     1899 
    1896     1892     1888     1885     1884     1907     1942     1964 
    1968     1979     2010     2045     2077     2114     2145     2166 
    2174     2166     2147     2128     2115     2097     2069     2042 
    2018     1981     1950     1933     1919     1917     1933     1957 
    1979     1983     1985     2004     2022     2039     2061     2072 
    2076     2073     2060     2047     2031     2020     2023     2023 
    2019     2026     2046     2070     2095     2116     2122     2108 
    2092     2074     2045     2007     1971     1956     1969     1985 
    1985     1983     1985     1993     2004     2010     2012     2026 
    2037     2035     2031     2029     2035     2058     2081     2085 
    2084     2084     2080     2081     2093     2107     2114     2110 
    2095     2064     2015     1966     1925     1888     1873     1879 
    1895     1931     1989     2046     2081     2100     2108     2101 
    2081     2061     2041     2023     2014     2006     1993     1976 
    1960     1960     1966     1977     1995     2003     1999     1987 
    1969     1960     1958     1962     1987     2023     2050     2070 
    2089     2099     2092     2081     2073     2072     2077     2069 
    2050     2035     2016     1995     1973     1949     1933     1930 
    1933     1944     1948     1937     1930     1929     1926     1918 
    1910     1914     1931     1944     1946     1949     1949     1950 
    1968     1992     2003     2012     2035     2065     2092     2114 
    2122     2122     2122     2106     2077     2057     2058     2070 
    2070     2052     2020     1996     1984     1972     1949     1935 
    1939     1956     1958     1938     1935     1966     1996     2012 
    2022     2026     2038     2057     2062     2056     2050     2053 
    2054     2053     2049     2045     2052     2058     2042     2030 
    2029     2019     2004     1989     1980     1984     1980     1958 
    1930     1900     1876     1867     1879     1914     1949     1979 
    2007     2039     2083     2120     2151     2181     2187     2157 
    2106     2038     1977     1952     1962     1989     2008     2015 
    2008     1985     1965     1964     1976     2004     2039     2072 
    2101     2111     2107     2097     2073     2049     2031     2014 
    1996     1983     1984     1985     1976     1971     1972     1971 
    1969     1985     2038     2110     2155     2165     2142     2106 
    2070     2035     1995     1960     1938     1933     1922     1896 
    1890     1917     1949     1977     2020     2065     2097     2137 
    2177     2184     2160     2135     2114     2081     2037     1992 
    1964     1952     1945     1937     1917     1902     1910     1926 
    1941     1960     1998     2056     2100     2118     2124     2126 
    2131     2147     2157     2147     2124     2096     2060     2012 
    1968     1945     1953     1985     2018     2037     2056     2074 
    2080     2066     2050     2049     2057     2050     2039     2037 
    2043     2049     2039     2022     2004     1973     1942     1927 
    1923     1926     1938     1954     1972     2002     2046     2085 
    2112     2135     2139     2115     2054     1981     1944     1949 
    1965     1950     1899     1841     1804     1791     1798     1817 
    1853     1907     1950     1965     1948     1899     1875     1906 
    1958     2003     2041     2080     2119     2137     2123     2096 
    2077     2081     2096     2096     2064     2006     1948     1895 
    1848     1818     1813     1819     1826     1829     1817     1818 
    1876     1971     2054     2119     2172     2182     2142     2093 
    2077     2107     2169     2226     2245     2212     2135     2047 
    1969     1898     1836     1788     1777     1803     1852     1914 
    1969     1998     2000     1987     1966     1956     1964     1980 
    1987     2002     2033     2061     2074     2093     2133     2191 
    2243     2281     2307     2292     2249     2205     2142     2057 
    2004     1992     1977     1938     1877     1802     1714     1640 
    1595     1580     1602     1659     1726     1795     1881     2008 
    2166     2327     2447     2497     2488     2439     2384     2362 
    2381     2403     2385     2288     2127     1946     1767     1625 
    1552     1537     1559     1599     1641     1667     1674     1702 
    1779     1879     1979     2091     2201     2305     2404     2474 
    2488     2454     2373     2261     2174     2151     2165     2172 
    2135     2049     1941     1860     1834     1852     1888     1915 
    1898     1827     1733     1648     1610     1641     1711     1777 
    1842     1939     2084     2253     2442     2632     2772     2836 
    2825     2724     2551     2373     2214     2046     1865     1695 
    1559     1471     1416     1374     1335     1316     1331     1395 
    1507     1634     1780     1966     2164     2349     2543     2737 
    2906     3041     3100     3026     2839     2608     2362     2089 
    1798     1524     1323     1228     1228     1297     1412     1557 
    1732     1912     2060     2176     2272     2331     2357     2338 
    2270     2193     2154     2147     2138     2108     2076     2061 
    2089     2169     2265     2313     2288     2214     2118     1998 
    1853     1722     1640     1594     1579     1603     1668     1798 
    2026     2296     2469     2470     2336     2143     1969     1895 
    1945     2066     2184     2257     2270     2231     2178     2138 
    2101     2081     2045     1931     1755     1582     1475     1476 
    1588     1768     1977     2182     2361     2488     2559     2601 
    2633     2635     2552     2363     2130     1934     1829     1827 
    1875     1915     1911     1829     1696     1605     1615     1732 
    1890     1995     1985     1890     1807     1821     1941     2107 
    2268     2398     2452     2427     2349     2215     2056     1904 
    1757     1624     1537     1534     1638     1811     1973     2110 
    2231     2334     2427     2497     2497     2412     2259     2066 
    1867     1726     1661     1617     1588     1566     1506     1448 
    1435     1471     1594     1817     2077     2282     2409     2504 
    2593     2677     2712     2670     2575     2427     2212     1964 
    1713     1485     1328     1294     1395     1572     1759     1935 
    2053     2087     2093     2118     2160     2218     2296     2336 
    2250     2042     1799     1605     1525     1597     1795     2045 
    2231     2290     2258     2204     2181     2228     2320     2361 
    2335     2282     2192     2050     1895     1783     1776     1873 
    1953     1915     1814     1734     1715     1771     1865     1996 
    2207     2463     2631     2608     2417     2168     1945     1775 
    1665     1634     1692     1800     1880     1907     1939     2033 
    2157     2215     2155     2034     1948     1934     1977     2060 
    2177     2295     2362     2330     2173     1950     1763     1686 
    1710     1772     1823     1836     1802     1764     1773     1814 
    1858     1923     2018     2118     2193     2199     2133     2085 
    2134     2282     2484     2668     2781     2809     2751     2565 
    2247     1872     1517     1237     1070     1043     1170     1401 
    1671     1918     2061     2096     2103     2142     2234     2381 
    2531     2606     2566     2457     2376     2349     2308     2224 
    2138     2056     1980     1927     1845     1718     1636     1647 
    1742     1891     2012     2039     1981     1884     1821     1871 
    2042     2270     2496     2660     2695     2594     2409     2173 
    1961     1852     1803     1757     1715     1695     1705     1723 
    1753     1825     1899     1925     1922     1922     1907     1891 
    1919     1973     2007     2022     2041     2069     2111     2135 
    2110     2072     2092     2218     2394     2467     2388     2272 
    2196     2137     2052     1931     1787     1622     1432     1231 
    1073     1044     1219     1557     1908     2161     2324     2428 
    2461     2421     2366     2390     2550     2770     2891     2790 
    2463     2046     1647     1300     1065      985     1007     1074 
    1167     1293     1490     1802     2226     2689     3063     3233 
    3184     2957     2620     2300     2137     2134     2142     2026 
    1792     1497     1189      978      932     1013     1209     1536 
    1923     2281     2554     2743     2926     3126     3249     3226 
    3049     2725     2301     1848     1391      954      603      423 
     425      546      730      954     1256     1674     2154     2632 
    3073     3446     3681     3736     3665     3519     3289     2978 
    2579     2050     1440      930      631      479      425      492 
     650      866     1170     1544     1948     2398     2879     3272 
    3489     3537     3497     3437     3291     2975     2527     2023 
    1532     1129      842      622      475      507      772     1227 
    1783     2317     2756     3064     3183     3138     3026     2901 
    2759     2600     2455     2349     2269     2178     2039     1845 
    1606     1367     1217     1170     1129     1044     1000     1096 
    1340     1683     2043     2385     2714     2978     3067     2968 
    2759     2498     2253     2061     1903     1767     1638     1517 
    1493     1594     1732     1822     1830     1782     1756     1767 
    1783     1823     1950     2191     2471     2666     2663     2458 
    2245     2207     2292     2351     2316     2228     2139     2002 
    1790     1598     1543     1638     1761     1769     1676     1602 
    1638     1790     1953     2077     2228     2423     2585     2616 
    2425     2088     1877     1945     2162     2362     2485     2485 
    2350     2119     1833     1568     1422     1410     1468     1522 
    1540     1564     1622     1699     1811     1953     2101     2274 
    2450     2548     2546     2505     2439     2285     2049     1802 
    1590     1459     1449     1489     1490     1485     1553     1749 
    2068     2407     2648     2778     2826     2794     2709     2573 
    2343     2060     1838     1736     1682     1591     1472     1371 
    1293     1246     1271     1394     1626     1929     2231     2475 
    2636     2744     2862     3030     3206     3265     3126     2789 
    2307     1794     1367     1109     1043     1109     1240     1408 
    1567     1725     1942     2196     2385     2490     2542     2505 
    2394     2309     2269     2247     2259     2261     2177     2057 
    1964     1867     1715     1501     1291     1225     1381     1672 
    1926     2042     2087     2195     2411     2623     2702     2624 
    2416     2192     2070     2016     1952     1904     1891     1858 
    1750     1593     1520     1636     1885     2110     2176     2087 
    1956     1917     2027     2238     2481     2717     2876     2870 
    2620     2150     1633     1243     1035      946      919      977 
    1116     1287     1503     1782     2081     2392     2727     3038 
    3237     3300     3246     3061     2767     2431     2076     1725 
    1418     1170      966      832      807      888     1026     1152 
    1278     1480     1803     2197     2612     3002     3292     3410 
    3356     3145     2824     2502     2250     2038     1825     1602 
    1386     1200     1055      982     1009     1147     1375     1653 
    1912     2081     2165     2247     2401     2604     2775     2876 
    2897     2794     2569     2284     1993     1765     1668     1655 
    1618     1543     1499     1530     1618     1752     1896     2006 
    2083     2119     2096     2052     2041     2064     2037     1892 
    1714     1641     1718     1931     2238     2533     2728     2787 
    2749     2681     2636     2631     2633     2571     2385     2069 
    1679     1281      961      842      974     1298     1701     2019 
    2160     2150     2049     1939     1918     2025     2242     2513 
    2732     2813     2774     2667     2535     2404     2278     2151 
    2011     1825     1556     1220      904      742      838     1152 
    1571     1992     2304     2492     2629     2721     2763     2844 
    2997     3087     2974     2652     2224     1804     1451     1159 
     943      884     1048     1382     1719     1942     2069     2177 
    2276     2324     2327     2336     2339     2277     2142     1972 
    1823     1750     1730     1709     1687     1691     1753     1884 
    2034     2153     2262     2392     2505     2521     2442     2355 
    2311     2269     2160     1954     1699     1443     1219     1075 
    1050     1134     1306     1536     1786     2030     2269     2477 
    2586     2610     2650     2691     2666     2554     2376     2142 
    1917     1799     1773     1741     1688     1690     1763     1844 
    1880     1895     1929     1993     2110     2280     2461     2589 
    2614     2540     2421     2277     2087     1895     1768     1679 
    1588     1532     1495     1421     1351     1368     1494     1745 
    2084     2397     2612     2718     2714     2633     2517     2385 
    2255     2172     2154     2131     2030     1854     1665     1522 
    1459     1505     1655     1819     1922     1976     2010     2031 
    2077     2177     2324     2470     2552     2515     2326     2053 
    1827     1729     1760     1867     1934     1880     1750     1675 
    1718     1856     2027     2137     2151     2139     2131     2131 
    2169     2234     2301     2367     2400     2381     2330     2259 
    2200     2185     2178     2122     2012     1884     1771     1711 
    1713     1719     1684     1625     1583     1593     1663     1773 
    1912     2072     2226     2346     2420     2436     2389     2332 
    2334     2381     2431     2473     2455     2322     2111     1891 
    1672     1472     1374     1408     1487     1575     1706     1845 
    1934     2027     2191     2393     2548     2581     2465     2243 
    1998     1777     1584     1410     1282     1255     1327     1440 
    1584     1786     2046     2358     2662     2862     2925     2883 
    2758     2575     2374     2158     1926     1723     1593     1522 
    1505     1526     1566     1622     1706     1815     1922     2007 
    2076     2133     2176     2214     2232     2223     2207     2177 
    2118     2061     2029     2008     1992     1976     1949     1911 
