Origin Time       2025/01/13 21:19:00
Lat.              31.8
Long.             131.6
Depth. (km)       30
Mag.              6.9
Station Code      WKY006
Station Lat.      33.9146
Station Long.     135.1639
Station Height(m) 10
Record Time       2025/01/13 21:21:12
Sampling Freq(Hz) 100Hz
Duration Time(s)  60
Dir.              N-S
Scale Factor      7845(gal)/8223790
Max. Acc. (gal)   1.689
Last Correction   2025/01/13 21:21:11
Memo.             
[...]
  -16144   -16109   -16074   -16062   -16062   -16056   -16043   -16038 
  -16043   -16052   -16073   -16114   -16156   -16162   -16152   -16150 
  -16140   -16121   -16109   -16112   -16114   -16112   -16098   -16083 
  -16074   -16065   -16046   -16032   -16046   -16081   -16102   -16102 
  -16108   -16125   -16125   -16092   -16056   -16059   -16075   -16070 
  -16052   -16046   -16047   -16048   -16062   -16081   -16098   -16121 
  -16137   -16140   -16150   -16181   -16206   -16208   -16198   -16179 
  -16143   -16108   -16108   -16125   -16117   -16086   -16047   -16008 
  -15981   -15974   -15977   -15989   -16024   -16070   -16096   -16102 
  -16114   -16136   -16156   -16175   -16193   -16206   -16214   -16217 
  -16209   -16182   -16156   -16154   -16151   -16141   -16133   -16113 
  -16073   -16033   -15997   -15966   -15955   -15971   -16002   -16032 
  -16044   -16040   -16024   -16011   -16015   -16040   -16077   -16116 
  -16155   -16186   -16200   -16195   -16201   -16225   -16248   -16255 
  -16248   -16235   -16213   -16171   -16112   -16062   -16035   -16024 
  -16027   -16040   -16048   -16052   -16067   -16085   -16082   -16066 
  -16054   -16042   -16033   -16047   -16071   -16094   -16116   -16124 
  -16114   -16110   -16124   -16144   -16160   -16170   -16174   -16175 
  -16168   -16146   -16121   -16114   -16113   -16109   -16094   -16056 
  -15998   -15954   -15939   -15951   -15975   -16006   -16038   -16051 
  -16048   -16046   -16066   -16108   -16151   -16175   -16189   -16200 
  -16202   -16194   -16179   -16168   -16159   -16146   -16131   -16119 
  -16108   -16104   -16101   -16089   -16074   -16066   -16059   -16036 
  -16005   -15989   -15994   -16009   -16031   -16050   -16058   -16065 
  -16078   -16093   -16106   -16116   -16121   -16132   -16137   -16131 
  -16129   -16131   -16132   -16143   -16156   -16159   -16158   -16152 
  -16136   -16114   -16106   -16113   -16120   -16100   -16063   -16047 
  -16055   -16052   -16035   -16028   -16043   -16062   -16070   -16075 
  -16082   -16086   -16086   -16082   -16090   -16114   -16147   -16173 
  -16190   -16200   -16200   -16181   -16146   -16116   -16089   -16058 
  -16040   -16050   -16069   -16077   -16070   -16062   -16062   -16074 
  -16097   -16125   -16166   -16217   -16243   -16225   -16195   -16183 
  -16178   -16154   -16117   -16100   -16106   -16109   -16097   -16079 
  -16065   -16052   -16033   -16023   -16042   -16062   -16056   -16043 
  -16042   -16046   -16042   -16028   -16019   -16019   -16035   -16059 
  -16085   -16120   -16159   -16183   -16182   -16170   -16167   -16160 
  -16136   -16102   -16082   -16081   -16101   -16123   -16123   -16113 
  -16109   -16098   -16079   -16059   -16044   -16050   -16063   -16070 
  -16060   -16046   -16043   -16052   -16062   -16070   -16085   -16094 
  -16097   -16105   -16114   -16119   -16117   -16119   -16132   -16139 
  -16124   -16106   -16085   -16063   -16065   -16089   -16114   -16128 
  -16121   -16116   -16120   -16105   -16070   -16042   -16042   -16065 
  -16090   -16109   -16139   -16174   -16194   -16182   -16139   -16094 
  -16073   -16065   -16052   -16039   -16032   -16043   -16048   -16035 
  -16032   -16063   -16098   -16106   -16109   -16129   -16147   -16141 
  -16133   -16129   -16108   -16069   -16047   -16051   -16065   -16075 
  -16081   -16078   -16075   -16086   -16093   -16085   -16097   -16141 
  -16193   -16221   -16221   -16209   -16190   -16151   -16090   -16044 
  -16028   -16021   -16005   -15993   -15997   -16002   -15998   -16009 
  -16033   -16058   -16101   -16154   -16186   -16202   -16208   -16206 
  -16213   -16227   -16232   -16218   -16191   -16178   -16178   -16175 
  -16166   -16156   -16143   -16128   -16113   -16074   -16017   -15996 
  -16017   -16039   -16050   -16071   -16106   -16131   -16132   -16121 
  -16120   -16144   -16171   -16168   -16158   -16167   -16175   -16152 
  -16100   -16054   -16048   -16065   -16071   -16069   -16081   -16109 
  -16113   -16073   -16032   -16036   -16074   -16094   -16092   -16101 
  -16131   -16144   -16127   -16101   -16092   -16100   -16104   -16087 
  -16073   -16102   -16154   -16160   -16124   -16100   -16102   -16102 
  -16087   -16075   -16087   -16117   -16116   -16066   -16019   -16012 
  -16020   -16016   -16027   -16070   -16125   -16150   -16128   -16094 
  -16086   -16105   -16127   -16135   -16147   -16171   -16167   -16128 
  -16102   -16096   -16078   -16058   -16058   -16083   -16119   -16140 
  -16131   -16109   -16113   -16135   -16128   -16092   -16060   -16056 
  -16052   -16023   -15990   -15993   -16032   -16069   -16077   -16079 
  -16101   -16128   -16144   -16140   -16131   -16136   -16133   -16097 
  -16066   -16090   -16139   -16155   -16137   -16127   -16125   -16102 
  -16060   -16044   -16063   -16078   -16065   -16038   -16031   -16051 
  -16060   -16040   -16028   -16058   -16105   -16120   -16123   -16159 
  -16200   -16187   -16146   -16124   -16120   -16087   -16020   -15958 
  -15934   -15947   -15986   -16016   -16043   -16086   -16116   -16116 
  -16108   -16119   -16143   -16148   -16137   -16143   -16158   -16150 
  -16121   -16094   -16079   -16074   -16065   -16039   -15998   -15969 
  -15965   -15984   -16012   -16051   -16102   -16144   -16155   -16123 
  -16073   -16060   -16092   -16128   -16143   -16128   -16102   -16078 
  -16046   -16006   -15984   -15992   -16004   -15988   -15962   -15959 
  -15965   -15961   -15952   -15962   -16017   -16105   -16168   -16189 
  -16201   -16236   -16272   -16274   -16254   -16240   -16208   -16136 
  -16040   -15950   -15884   -15855   -15869   -15912   -15962   -15982 
  -15977   -15996   -16062   -16135   -16174   -16183   -16206   -16252 
  -16279   -16267   -16232   -16175   -16116   -16074   -16059   -16081 
  -16121   -16152   -16160   -16147   -16132   -16133   -16128   -16089 
  -16040   -16039   -16094   -16137   -16117   -16063   -16013   -15978 
  -15957   -15955   -15990   -16055   -16109   -16112   -16069   -16028 
  -16023   -16039   -16069   -16114   -16177   -16254   -16314   -16340 
  -16340   -16322   -16297   -16274   -16231   -16135   -16013   -15916 
  -15859   -15832   -15844   -15903   -15967   -15979   -15909   -15780 
  -15666   -15649   -15726   -15847   -16006   -16202   -16387   -16511 
  -16583   -16634   -16660   -16641   -16596   -16544   -16467   -16382 
  -16308   -16210   -16065   -15892   -15719   -15558   -15435   -15403 
  -15477   -15608   -15736   -15805   -15803   -15785   -15832   -15965 
  -16170   -16414   -16633   -16777   -16837   -16818   -16729   -16606 
  -16509   -16464   -16433   -16351   -16216   -16078   -15958   -15847 
  -15758   -15696   -15657   -15639   -15650   -15701   -15801   -15957 
  -16148   -16317   -16417   -16441   -16378   -16259   -16163   -16129 
  -16164   -16256   -16352   -16399   -16372   -16293   -16218   -16164 
  -16131   -16135   -16154   -16151   -16117   -16047   -15952   -15873 
  -15834   -15813   -15766   -15696   -15664   -15685   -15738   -15851 
  -16052   -16289   -16491   -16633   -16699   -16702   -16684   -16646 
  -16534   -16343   -16155   -16004   -15857   -15723   -15635   -15587 
  -15570   -15599   -15662   -15772   -15942   -16135   -16278   -16317 
  -16254   -16132   -16027   -15994   -16059   -16216   -16407   -16565 
  -16687   -16769   -16776   -16702   -16575   -16413   -16224   -16020 
  -15838   -15720   -15665   -15624   -15557   -15454   -15345   -15250 
  -15211   -15291   -15502   -15772   -16032   -16249   -16420   -16542 
  -16618   -16665   -16688   -16672   -16621   -16536   -16430   -16353 
  -16318   -16285   -16224   -16124   -15998   -15890   -15799   -15708 
  -15635   -15591   -15581   -15611   -15660   -15730   -15862   -16055 
  -16245   -16403   -16536   -16599   -16530   -16359   -16182   -16054 
  -15984   -15993   -16062   -16132   -16195   -16252   -16281   -16287 
  -16297   -16289   -16236   -16129   -15978   -15839   -15769   -15777 
  -15820   -15828   -15795   -15774   -15781   -15809   -15896   -16029 
  -16160   -16276   -16348   -16320   -16237   -16222   -16310   -16441 
  -16560   -16627   -16595   -16461   -16317   -16229   -16170   -16102 
  -16027   -15925   -15762   -15596   -15527   -15566   -15685   -15843 
  -15921   -15820   -15589   -15400   -15410   -15633   -16004   -16449 
  -16879   -17213   -17390   -17374   -17181   -16889   -16605   -16383 
  -16182   -15977   -15822   -15751   -15732   -15724   -15703   -15658 
  -15577   -15439   -15317   -15342   -15568   -15931   -16363   -16799 
  -17142   -17301   -17257   -17046   -16748   -16425   -16086   -15728 
  -15379   -15120   -15059   -15202   -15437   -15673   -15877   -16044 
  -16170   -16231   -16210   -16119   -16005   -15938   -15927   -15958 
  -16056   -16274   -16599   -16902   -17035   -16954   -16683   -16278 
  -15823   -15439   -15290   -15466   -15834   -16175   -16386   -16411 
  -16225   -15889   -15520   -15260   -15237   -15458   -15766   -15989 
  -16082   -16101   -16131   -16205   -16303   -16449   -16652   -16807 
  -16827   -16731   -16559   -16380   -16260   -16163   -16039   -15963 
  -16023   -16158   -16259   -16283   -16229   -16108   -15952   -15813 
  -15711   -15639   -15581   -15545   -15562   -15655   -15808   -15994 
  -16170   -16332   -16534   -16741   -16823   -16764   -16659   -16583 
  -16563   -16578   -16553   -16438   -16244   -15997   -15719   -15456 
  -15288   -15300   -15475   -15718   -15974   -16212   -16379   -16460 
  -16457   -16363   -16214   -16094   -16063   -16136   -16275   -16383 
  -16376   -16264   -16093   -15923   -15844   -15901   -16060   -16248 
  -16383   -16422   -16352   -16205   -16089   -16097   -16179   -16224 
  -16182   -16065   -15911   -15795   -15786   -15900   -16070   -16225 
  -16301   -16259   -16151   -16070   -15990   -15826   -15596   -15429 
  -15438   -15642   -15951   -16263   -16488   -16521   -16330   -16021 
  -15703   -15431   -15287   -15314   -15488   -15761   -16028   -16187 
  -16248   -16274   -16321   -16410   -16476   -16422   -16252   -16015 
  -15734   -15471   -15338   -15403   -15622   -15896   -16109   -16205 
  -16256   -16363   -16551   -16803   -17051   -17193   -17145   -16892 
  -16515   -16151   -15888   -15693   -15487   -15252   -15053   -14974 
  -15070   -15309   -15612   -15931   -16229   -16476   -16690   -16900 
  -17099   -17226   -17230   -17116   -16924   -16694   -16494   -16345 
  -16139   -15797   -15438   -15226   -15188   -15291   -15492   -15709 
  -15916   -16197   -16556   -16843   -16943   -16860   -16648   -16348 
  -16004   -15712   -15601   -15726   -15988   -16198   -16262   -16232 
  -16217   -16262   -16324   -16325   -16243   -16128   -16023   -15928 
  -15861   -15896   -16081   -16339   -16525   -16546   -16429   -16283 
  -16170   -16104   -16092   -16079   -15997   -15871   -15750   -15653 
  -15603   -15591   -15579   -15542   -15460   -15361   -15338   -15423 
  -15587   -15842   -16202   -16586   -16799   -16746   -16605   -16586 
  -16640   -16649   -16600   -16479   -16275   -16079   -15966   -15916 
  -15916   -15997   -16112   -16144   -16100   -16065   -16043   -16009 
  -16015   -16079   -16129   -16106   -16054   -16024   -16002   -15992 
  -16021   -16046   -15993   -15939   -16000   -16173   -16378   -16525 
  -16545   -16455   -16313   -16170   -16069   -16023   -15997   -15966 
  -15958   -15989   -16040   -16156   -16399   -16688   -16853   -16789 
  -16492   -16075   -15692   -15437   -15358   -15489   -15759   -16009 
  -16125   -16097   -15974   -15803   -15637   -15547   -15549   -15585 
  -15665   -15862   -16098   -16216   -16240   -16282   -16344   -16333 
  -16216   -16127   -16222   -16507   -16865   -17143   -17212   -17037 
  -16667   -16177   -15673   -15291   -15070   -14987   -15028   -15199 
  -15479   -15763   -15958   -16056   -16113   -16197   -16339   -16517 
  -16708   -16880   -16972   -16903   -16673   -16394   -16189   -16116 
  -16158   -16262   -16390   -16497   -16526   -16453   -16281   -16062 
  -15869   -15755   -15730   -15763   -15823   -15853   -15792   -15661 
  -15577   -15612   -15762   -16006   -16245   -16359   -16357   -16279 
  -16120   -15944   -15828   -15817   -15950   -16204   -16475   -16644 
  -16654   -16490   -16208   -16013   -16063   -16287   -16538   -16683 
  -16613   -16321   -15954   -15750   -15834   -16089   -16330   -16451 
  -16403   -16213   -15928   -15587   -15304   -15228   -15341   -15491 
  -15614   -15774   -15969   -16129   -16236   -16303   -16330   -16291 
  -16175   -16050   -16015   -16124   -16368   -16633   -16737   -16613 
  -16356   -16069   -15819   -15672   -15637   -15691   -15815   -15970 
  -16117   -16270   -16441   -16606   -16714   -16750   -16715   -16609 
  -16490   -16387   -16248   -16086   -15946   -15768   -15545   -15372 
  -15268   -15186   -15130   -15147   -15230   -15360   -15552   -15809 
  -16100   -16417   -16765   -17064   -17213   -17190   -17005   -16661 
  -16222   -15830   -15568   -15454   -15525   -15768   -16043   -16194 
  -16214   -16183   -16139   -16112   -16117   -16136   -16125   -16038 
  -15888   -15755   -15695   -15738   -15900   -16074   -16075   -15867 
  -15608   -15495   -15628   -16009   -16510   -16907   -17092   -17150 
  -17151   -17081   -16968   -16858   -16757   -16663   -16545   -16394 
  -16256   -16152   -16067   -15961   -15727   -15341   -14970   -14744 
  -14628   -14615   -14747   -15003   -15338   -15697   -16008   -16272 
  -16545   -16856   -17194   -17497   -17703   -17833   -17872   -17730 
  -17366   -16833   -16263   -15792   -15435   -15149   -14928   -14774 
  -14678   -14693   -14879   -15215   -15649   -16119   -16498   -16696 
  -16744   -16714   -16669   -16669   -16713   -16764   -16773   -16660 
  -16382   -16054   -15854   -15830   -15867   -15863   -15795   -15668 
  -15526   -15395   -15283   -15259   -15379   -15604   -15846   -16021 
  -16128   -16263   -16484   -16735   -16900   -16918   -16852   -16777 
  -16673   -16530   -16391   -16271   -16156   -16029   -15884   -15750 
  -15665   -15631   -15645   -15676   -15646   -15491   -15279   -15184 
  -15295   -15585   -15967   -16260   -16303   -16156   -16009   -15962 
  -16051   -16295   -16653   -17032   -17316   -17420   -17371   -17253 
  -17111   -16927   -16653   -16289   -15901   -15558   -15248   -14932 
  -14655   -14530   -14616   -14872   -15190   -15487   -15754   -15978 
  -16090   -16085   -16085   -16225   -16502   -16803   -17043   -17172 
  -17157   -17050   -16899   -16641   -16264   -15966   -15884   -15911 
  -15911   -15877   -15811   -15708   -15580   -15453   -15390   -15472 
  -15684   -15928   -16132   -16262   -16308   -16317   -16343   -16359 
  -16281   -16158   -16144   -16227   -16278   -16278   -16299   -16391 
  -16582   -16833   -17011   -16977   -16706   -16312   -15925   -15647 
  -15573   -15672   -15735   -15630   -15441   -15300   -15260   -15333 
  -15507   -15726   -15942   -16158   -16382   -16576   -16700   -16771 
  -16787   -16681   -16438   -16143   -15897   -15773   -15796   -15913 
  -16055   -16143   -16112   -15990   -15858   -15777   -15812   -15946 
  -16055   -16083   -16069   -16044   -16019   -15992   -15943   -15908 
  -15996   -16194   -16356   -16461   -16596   -16752   -16873   -16937 
  -16891   -16707   -16438   -16171   -15959   -15811   -15705   -15579 
  -15376   -15149   -15017   -15068   -15336   -15741   -16144   -16457 
  -16649   -16713   -16699   -16686   -16702   -16738   -16737   -16576 
  -16240   -15885   -15697   -15705   -15816   -15951   -16048   -16062 
  -16019   -15990   -15979   -15927   -15840   -15757   -15670   -15579 
  -15533   -15600   -15786   -16031   -16252   -16399   -16468   -16497 
  -16542   -16641   -16746   -16802   -16811   -16775   -16650   -16422 
  -16167   -15990   -15923   -15920   -15921   -15866   -15739   -15611 
  -15579   -15657   -15776   -15861   -15889   -15861   -15782   -15712 
  -15727   -15826   -15925   -15966   -15977   -16029   -16164   -16399 
  -16721   -17022   -17163   -17140   -17031   -16872   -16686   -16490 
  -16272   -16017   -15720   -15410   -15163   -15072   -15174   -15410 
  -15684   -15950   -16178   -16299   -16317   -16324   -16366   -16421 
  -16480   -16542   -16560   -16444   -16190   -15934   -15811   -15838 
  -15971   -16137   -16222   -16163   -16035   -15923   -15801   -15653 
  -15566   -15597   -15687   -15774   -15846   -15909   -15979   -16062 
  -16171   -16328   -16515   -16687   -16825   -16934   -17014   -17024 
  -16922   -16692   -16372   -16051   -15835   -15741   -15681   -15622 
  -15564   -15464   -15311   -15174   -15137   -15268   -15565   -15950 
  -16317   -16572   -16702   -16761   -16771   -16740   -16752   -16849 
  -16956   -16989   -16941   -16839   -16702   -16529   -16332   -16125 
  -15896   -15622   -15314   -15034   -14875   -14898   -15099   -15410 
  -15724   -15974   -16154   -16259   -16286   -16289   -16347   -16437 
  -16475   -16456   -16418   -16360   -16297   -16263   -16244   -16204 
  -16135   -16017   -15834   -15641   -15542   -15593   -15780   -16012 
  -16173   -16213   -16174   -16133   -16151   -16245   -16360   -16405 
  -16321   -16139   -15950   -15838   -15827   -15903   -16059   -16263 
  -16411   -16378   -16154   -15932   -15925   -16131   -16401   -16649 
  -16835   -16903   -16823   -16611   -16308   -15993   -15753   -15599 
  -15471   -15334   -15222   -15201   -15295   -15453   -15618   -15788 
  -15990   -16220   -16430   -16592   -16700   -16735   -16690   -16594 
  -16483   -16376   -16286   -16217   -16158   -16102   -16055   -15996 
  -15913   -15846   -15809   -15750   -15653   -15619   -15711   -15873 
  -16036   -16162   -16220   -16208   -16147   -16074   -16029   -16077 
  -16225   -16367   -16402   -16362   -16308   -16241   -16167   -16135 
  -16191   -16303   -16372   -16330   -16178   -15973   -15811   -15759 
  -15830   -15986   -16164   -16297   -16325   -16260   -16179   -16100 
  -15989   -15865   -15766   -15718   -15757   -15877   -16008   -16121 
  -16236   -16326   -16352   -16339   -16347   -16410   -16498   -16536 
  -16474   -16324   -16147   -16006   -15917   -15840   -15743   -15654 
  -15606   -15600   -15649   -15762   -15920   -16093   -16272   -16443 
  -16563   -16618   -16617   -16542   -16403   -16237   -16081   -15992 
  -16002   -16029   -15979   -15885   -15851   -15927   -16087   -16264 
  -16386   -16411   -16370   -16330   -16314   -16294   -16306   -16387 
  -16474   -16483   -16413   -16312   -16213   -16114   -15992   -15838 
  -15682   -15583   -15589   -15672   -15772   -15890   -16044   -16202 
  -16303   -16309   -16251   -16213   -16232   -16279   -16318   -16312 
  -16249   -16166   -16075   -15951   -15812   -15745   -15781   -15846 
  -15874   -15912   -16017   -16167   -16309   -16407   -16448   -16433 
  -16391   -16356   -16322   -16276   -16256   -16267   -16243   -16133 
  -15977   -15846   -15773   -15750   -15751   -15753   -15789   -15909 
  -16074   -16191   -16252   -16312   -16372   -16391   -16364   -16336 
  -16332   -16336   -16325   -16287   -16204   -16085   -15977   -15884 
  -15773   -15687   -15695   -15772   -15838   -15867   -15898   -15950 
  -16021   -16102   -16170   -16237   -16328   -16391   -16364   -16289 
  -16260   -16298   -16330   -16303   -16236   -16156   -16078   -15998 
