Origin Time       2025/01/13 21:19:00
Lat.              31.8
Long.             131.6
Depth. (km)       30
Mag.              6.9
Station Code      WKY006
Station Lat.      33.9146
Station Long.     135.1639
Station Height(m) 10
Record Time       2025/01/13 21:21:12
Sampling Freq(Hz) 100Hz
Duration Time(s)  60
Dir.              U-D
Scale Factor      7845(gal)/8223790
Max. Acc. (gal)   0.469
Last Correction   2025/01/13 21:21:11
Memo.             
[...]
   21362    21331    21331    21359    21366    21334    21313    21340 
   21377    21374    21351    21370    21412    21419    21393    21381 
   21392    21377    21344    21358    21404    21433    21425    21390 
   21359    21358    21377    21388    21377    21377    21378    21350 
   21344    21378    21378    21354    21350    21338    21321    21338 
   21347    21332    21340    21367    21390    21409    21416    21412 
   21397    21371    21361    21363    21347    21330    21332    21336 
   21348    21384    21386    21358    21351    21340    21317    21336 
   21371    21370    21367    21378    21355    21328    21343    21358 
   21343    21330    21340    21366    21371    21343    21328    21354 
   21388    21397    21393    21404    21413    21386    21363    21373 
   21384    21389    21401    21401    21377    21359    21361    21361 
   21373    21390    21371    21365    21397    21401    21384    21381 
   21377    21405    21454    21455    21446    21454    21438    21417 
   21417    21404    21365    21320    21289    21309    21359    21377 
   21377    21385    21352    21305    21303    21313    21317    21335 
   21338    21323    21336    21359    21348    21348    21375    21366 
   21330    21335    21352    21328    21301    21317    21352    21366 
   21377    21400    21404    21396    21406    21409    21384    21378 
   21393    21369    21320    21332    21377    21369    21332    21323 
   21324    21335    21371    21401    21384    21359    21373    21385 
   21394    21415    21393    21358    21374    21394    21384    21357 
   21336    21343    21339    21311    21339    21401    21411    21371 
   21335    21343    21392    21415    21393    21362    21346    21346 
   21350    21365    21390    21392    21378    21385    21392    21375 
   21344    21311    21300    21321    21352    21352    21323    21334 
   21392    21412    21404    21413    21420    21424    21419    21381 
   21375    21397    21359    21298    21303    21343    21334    21278 
   21276    21361    21417    21370    21324    21343    21358    21362 
   21371    21338    21307    21331    21348    21344    21375    21401 
   21371    21343    21363    21390    21393    21381    21366    21389 
   21427    21423    21392    21377    21398    21408    21365    21332 
   21352    21378    21390    21384    21363    21366    21378    21371 
   21363    21350    21320    21324    21354    21359    21363    21375 
   21377    21374    21375    21401    21442    21443    21424    21427 
   21432    21417    21397    21412    21436    21397    21339    21351 
   21398    21408    21384    21375    21396    21400    21374    21371 
   21366    21312    21282    21305    21342    21379    21386    21371 
   21384    21373    21331    21308    21315    21346    21377    21374 
   21366    21362    21369    21397    21386    21344    21354    21375 
   21382    21398    21394    21406    21448    21417    21343    21362 
   21397    21346    21313    21350    21357    21324    21317    21346 
   21374    21370    21361    21394    21433    21421    21378    21338 
   21308    21320    21363    21371    21361    21366    21359    21351 
   21340    21334    21381    21425    21390    21361    21385    21384 
   21348    21325    21340    21371    21363    21351    21371    21344 
   21296    21305    21324    21330    21342    21323    21301    21327 
   21350    21331    21292    21246    21204    21208    21253    21284 
   21293    21300    21316    21317    21267    21235    21289    21340 
   21330    21328    21361    21371    21361    21357    21342    21343 
   21397    21423    21390    21385    21415    21450    21467    21423 
   21363    21375    21401    21351    21312    21361    21393    21373 
   21358    21347    21352    21352    21307    21289    21317    21338 
   21361    21370    21357    21381    21425    21412    21363    21357 
   21378    21370    21355    21365    21388    21416    21412    21361 
   21358    21409    21421    21385    21342    21352    21394    21378 
   21324    21301    21321    21371    21393    21382    21402    21436 
   21411    21311    21246    21274    21296    21284    21316    21389 
   21439    21438    21396    21370    21396    21424    21394    21354 
   21389    21436    21421    21394    21382    21393    21431    21428 
   21367    21331    21371    21454    21475    21421    21384    21393 
   21400    21357    21323    21373    21438    21409    21343    21370 
   21440    21413    21358    21373    21382    21339    21303    21298 
   21340    21402    21419    21379    21346    21363    21412    21406 
   21339    21339    21406    21386    21309    21330    21396    21385 
   21315    21284    21343    21408    21384    21336    21335    21361 
   21392    21392    21365    21366    21388    21386    21377    21362 
   21352    21340    21308    21305    21352    21382    21365    21344 
   21354    21365    21361    21358    21352    21351    21347    21331 
   21334    21355    21338    21313    21358    21412    21398    21379 
   21417    21475    21498    21454    21398    21394    21419    21424 
   21405    21397    21390    21335    21286    21304    21346    21390 
   21393    21323    21274    21280    21253    21204    21216    21285 
   21347    21363    21328    21270    21216    21195    21219    21276 
   21331    21327    21280    21285    21340    21373    21347    21262 
   21211    21298    21396    21366    21328    21346    21336    21361 
   21442    21444    21367    21315    21304    21320    21325    21307 
   21320    21334    21311    21330    21402    21419    21324    21244 
   21288    21334    21317    21350    21406    21417    21431    21425 
   21365    21321    21332    21352    21359    21374    21397    21386 
   21357    21358    21388    21408    21400    21396    21432    21455 
   21417    21379    21370    21348    21315    21303    21320    21350 
   21390    21401    21358    21350    21405    21415    21370    21382 
   21440    21438    21401    21415    21443    21443    21456    21510 
   21519    21425    21351    21358    21340    21315    21343    21348 
   21343    21393    21433    21401    21327    21263    21230    21227 
   21267    21320    21334    21339    21350    21350    21351    21366 
   21392    21413    21433    21502    21585    21555    21463    21442 
   21423    21316    21247    21293    21355    21409    21459    21428 
   21311    21195    21109    21065    21100    21209    21321    21379 
   21393    21423    21454    21450    21433    21400    21366    21404 
   21458    21482    21514    21531    21532    21514    21435    21335 
   21240    21146    21114    21181    21311    21420    21451    21447 
   21411    21331    21300    21339    21362    21370    21392    21405 
   21443    21506    21502    21452    21447    21452    21417    21392 
   21424    21474    21465    21400    21320    21244    21213    21223 
   21242    21307    21382    21371    21321    21315    21301    21267 
   21320    21412    21433    21486    21597    21614    21604    21658 
   21613    21450    21361    21348    21303    21238    21193    21199 
   21258    21277    21204    21163    21239    21296    21263    21265 
   21289    21244    21222    21274    21336    21386    21424    21447 
   21438    21382    21311    21278    21312    21390    21455    21496 
   21509    21428    21320    21293    21254    21184    21190    21246 
   21290    21327    21315    21282    21320    21389    21409    21462 
   21571    21620    21559    21439    21359    21378    21417    21419 
   21446    21492    21519    21524    21465    21351    21270    21238 
   21230    21219    21217    21217    21184    21224    21374    21460 
   21482    21547    21567    21524    21520    21483    21350    21244 
   21186    21119    21122    21219    21336    21438    21474    21459 
   21451    21436    21419    21435    21458    21447    21409    21354 
   21285    21250    21276    21305    21315    21334    21359    21379 
   21375    21343    21336    21357    21373    21379    21346    21325 
   21412    21533    21601    21597    21483    21304    21170    21134 
   21211    21379    21552    21605    21510    21388    21327    21296 
   21251    21249    21339    21416    21431    21482    21567    21620 
   21621    21547    21451    21392    21344    21307    21303    21334 
   21389    21417    21382    21309    21236    21200    21220    21274 
   21317    21331    21313    21296    21334    21408    21443    21423 
   21396    21404    21393    21315    21285    21354    21386    21325 
   21224    21155    21176    21255    21346    21448    21555    21594 
   21497    21332    21216    21139    21101    21150    21274    21432 
   21610    21786    21832    21694    21504    21330    21212    21212 
   21285    21398    21566    21649    21539    21382    21300    21209 
   21114    21123    21209    21288    21334    21327    21269    21211 
   21195    21212    21261    21366    21543    21713    21730    21579 
   21392    21209    21046    20989    21097    21298    21478    21587 
   21601    21482    21301    21196    21212    21290    21358    21394 
   21411    21406    21401    21394    21382    21396    21409    21385 
   21365    21350    21309    21311    21385    21473    21574    21695 
   21729    21620    21466    21354    21289    21222    21107    21051 
   21139    21231    21293    21421    21492    21392    21273    21223 
   21235    21374    21566    21589    21508    21506    21508    21443 
   21394    21373    21370    21389    21365    21303    21304    21348 
   21357    21338    21334    21362    21404    21393    21320    21271 
   21321    21390    21357    21278    21255    21282    21320    21321 
   21350    21479    21532    21370    21166    21100    21134    21180 
   21257    21344    21373    21424    21494    21431    21351    21367 
   21289    21141    21155    21296    21385    21412    21452    21471 
   21421    21361    21309    21284    21346    21448    21496    21474 
   21406    21325    21270    21216    21131    21080    21155    21280 
   21342    21392    21429    21385    21384    21517    21595    21532 
   21489    21487    21409    21313    21305    21305    21253    21209 
   21189    21205    21293    21384    21421    21431    21439    21466 
   21463    21440    21482    21537    21546    21539    21500    21454 
   21412    21278    21101    21024    20991    20966    21060    21222 
   21343    21444    21531    21552    21483    21382    21342    21366 
   21452    21579    21632    21613    21579    21475    21323    21239 
   21200    21151    21145    21209    21290    21343    21343    21304 
   21286    21340    21412    21420    21454    21598    21709    21691 
   21597    21442    21319    21319    21340    21323    21330    21351 
   21316    21219    21153    21188    21254    21301    21379    21458 
   21450    21416    21429    21436    21416    21413    21412    21362 
   21292    21290    21348    21389    21419    21444    21400    21308 
   21285    21330    21355    21385    21425    21404    21386    21452 
   21514    21505    21489    21501    21481    21413    21348    21321 
   21340    21357    21298    21178    21068    21003    21007    21134 
   21346    21485    21485    21420    21320    21197    21155    21262 
   21442    21598    21663    21579    21451    21379    21278    21154 
   21151    21273    21406    21436    21409    21487    21579    21512 
   21366    21263    21216    21243    21297    21327    21386    21452 
   21419    21311    21190    21096    21074    21080    21084    21178 
   21374    21520    21517    21431    21327    21219    21131    21112 
   21238    21465    21651    21724    21667    21514    21382    21289 
   21172    21080    21088    21166    21296    21473    21624    21670 
   21591    21487    21436    21365    21281    21278    21316    21342 
   21375    21409    21371    21212    21065    21127    21269    21267 
   21282    21448    21587    21625    21587    21470    21419    21446 
   21362    21263    21323    21392    21371    21325    21258    21262 
   21429    21612    21649    21556    21413    21297    21239    21235 
   21294    21406    21494    21478    21400    21346    21316    21296 
   21300    21331    21370    21378    21346    21335    21339    21289 
   21228    21239    21300    21400    21577    21748    21814    21790 
   21645    21352    21088    21022    21084    21162    21261    21352 
   21375    21377    21409    21393    21340    21400    21509    21528 
   21498    21419    21234    21077    21072    21174    21284    21373 
   21473    21521    21450    21350    21271    21149    21038    21034 
   21114    21222    21334    21408    21417    21415    21432    21425 
   21398    21393    21363    21239    21061    20933    20925    21012 
   21107    21195    21340    21509    21598    21585    21487    21346 
   21217    21169    21223    21309    21366    21390    21384    21371 
   21409    21479    21517    21528    21540    21529    21455    21315 
   21199    21207    21289    21298    21222    21169    21161    21142 
   21108    21100    21151    21234    21311    21446    21600    21625 
   21552    21475    21401    21402    21475    21510    21537    21589 
   21563    21439    21304    21223    21215    21242    21309    21451 
   21563    21531    21412    21255    21038    20895    20980    21193 
   21389    21574    21725    21816    21855    21764    21546    21348 
   21227    21200    21305    21477    21578    21529    21393    21263 
   21136    21070    21135    21246    21328    21381    21388    21374 
   21386    21411    21420    21429    21512    21659    21710    21604 
   21482    21404    21323    21284    21305    21311    21292    21312 
   21340    21323    21297    21265    21204    21176    21200    21243 
   21308    21374    21377    21374    21420    21420    21352    21312 
   21328    21374    21435    21535    21660    21693    21595    21462 
   21309    21159    21122    21181    21227    21246    21259    21253 
   21250    21267    21262    21276    21390    21535    21606    21587 
   21485    21375    21350    21390    21454    21513    21523    21525 
   21581    21579    21489    21443    21454    21408    21343    21348 
   21379    21366    21311    21244    21200    21151    21096    21077 
   21077    21122    21255    21365    21439    21587    21702    21656 
   21514    21367    21304    21342    21365    21342    21344    21361 
   21361    21359    21352    21359    21393    21408    21398    21400 
   21369    21298    21278    21320    21366    21396    21416    21425 
   21420    21397    21367    21377    21423    21458    21467    21435 
   21366    21292    21182    21074    21082    21182    21305    21415 
   21438    21404    21390    21332    21226    21178    21180    21209 
   21300    21394    21451    21501    21489    21394    21336    21377 
   21406    21388    21398    21416    21400    21381    21342    21285 
   21251    21231    21235    21293    21382    21477    21516    21489 
   21487    21475    21358    21236    21205    21193    21223    21327 
   21394    21428    21485    21487    21456    21486    21527    21531 
   21541    21548    21485    21370    21285    21254    21265    21321 
   21381    21375    21321    21259    21184    21172    21309    21497 
   21597    21618    21598    21514    21374    21239    21193    21285 
   21409    21452    21469    21470    21404    21331    21284    21204 
   21146    21172    21209    21222    21278    21384    21451    21442 
   21367    21289    21263    21251    21255    21350    21485    21554 
   21546    21469    21389    21396    21428    21447    21523    21610 
   21601    21490    21323    21186    21168    21227    21274    21307 
   21347    21348    21285    21238    21276    21324    21300    21281 
   21339    21417    21473    21498    21481    21440    21386    21304 
   21257    21316    21424    21474    21446    21379    21324    21308 
   21311    21311    21334    21359    21328    21235    21132    21066 
   21061    21150    21340    21483    21470    21401    21336    21254 
   21215    21257    21311    21320    21308    21321    21328    21309 
   21328    21355    21342    21332    21303    21251    21290    21398 
   21475    21489    21409    21286    21222    21201    21203    21257 
   21323    21352    21352    21331    21331    21381    21428    21454 
   21479    21501    21535    21570    21556    21506    21432    21315 
   21234    21239    21250    21239    21262    21312    21361    21409 
   21473    21540    21564    21544    21536    21525    21452    21381 
   21365    21361    21367    21428    21500    21504    21469    21451 
   21406    21298    21211    21196    21213    21240    21301    21397 
   21466    21459    21406    21373    21388    21454    21547    21595 
   21551    21474    21438    21417    21375    21328    21311    21352 
   21401    21398    21375    21355    21297    21211    21168    21222 
   21332    21417    21474    21501    21447    21328    21226    21186 
   21209    21276    21388    21505    21571    21582    21559    21506 
   21394    21244    21168    21211    21297    21355    21393    21432 
   21456    21435    21373    21339    21373    21419    21435    21450 
   21456    21411    21297    21185    21154    21204    21305    21411 
   21455    21455    21469    21463    21390    21317    21338    21379 
   21336    21307    21355    21384    21369    21338    21288    21257 
   21269    21292    21308    21340    21393    21417    21370    21298 
   21262    21251    21257    21308    21396    21463    21465    21417 
   21374    21374    21421    21463    21446    21415    21404    21357 
   21285    21243    21220    21224    21259    21276    21270    21262 
   21242    21261    21330    21382    21429    21473    21443    21369 
   21331    21332    21347    21346    21311    21292    21321    21343 
   21340    21348    21344    21308    21303    21350    21404    21451 
   21475    21466    21440    21413    21398    21400    21409    21428 
   21450    21442    21389    21330    21313    21346    21388    21412 
   21417    21400    21392    21420    21432    21396    21357    21336 
   21330    21335    21338    21361    21398    21369    21296    21274 
   21294    21315    21327    21348    21415    21498    21552    21605 
   21655    21636    21560    21497    21455    21402    21363    21365 
   21362    21344    21348    21362    21358    21352    21367    21401 
   21425    21419    21417    21415    21379    21382    21439    21451 
   21402    21343    21303    21297    21298    21308    21338    21327 
   21285    21309    21369    21378    21350    21316    21280    21289 
   21342    21394    21440    21465    21452    21408    21328    21239 
   21213    21259    21317    21392    21473    21463    21367    21294 
   21240    21174    21158    21227    21327    21402    21447    21456 
   21425    21369    21312    21278    21292    21327    21321    21301 
   21323    21347    21320    21267    21259    21305    21363    21398 
   21384    21312    21244    21215    21217    21280    21381    21448 
   21443    21389    21352    21336    21301    21285    21328    21392 
