Origin Time       2025/01/13 21:19:00
Lat.              31.8
Long.             131.6
Depth. (km)       30
Mag.              6.9
Station Code      YMG016
Station Lat.      34.1703
Station Long.     132.1764
Station Height(m) 7
Record Time       2025/01/13 21:20:28
Sampling Freq(Hz) 100Hz
Duration Time(s)  117
Dir.              E-W
Scale Factor      7845(gal)/8223790
Max. Acc. (gal)   5.377
Last Correction   2025/01/13 21:20:27
Memo.             
[...]
    2980     2918     2921     2972     2999     2984     2952     2922 
    2928     2984     3057     3113     3122     3032     2816     2521 
    2228     1966     1703     1410     1127      904      758      672 
     623      611      666      822     1065     1332     1547     1682 
    1786     1946     2219     2583     2982     3368     3724     4052 
    4351     4626     4907     5220     5559     5873     6081     6111 
    5941     5609     5189     4754     4348     4000     3719     3508 
    3372     3269     3106     2817     2420     1999     1624     1317 
    1075      892      764      691      673      681      691      722 
     787      862      946     1058     1190     1278     1309     1359 
    1476     1629     1761     1880     2022     2205     2457     2809 
    3252     3727     4155     4459     4615     4642     4583     4511 
    4480     4490     4540     4617     4693     4769     4807     4760 
    4638     4484     4315     4122     3883     3589     3238     2841 
    2440     2101     1836     1615     1429     1285     1173     1077 
     972      834      723      711      766      834      901      994 
    1135     1323     1525     1701     1873     2133     2511     2936 
    3291     3491     3565     3618     3711     3835     3955     4051 
    4143     4274     4468     4691     4849     4865     4725     4457 
    4105     3713     3319     2963     2658     2389     2141     1880 
    1590     1298     1035      845      770      828     1016     1313 
    1649     1957     2207     2381     2446     2403     2308     2232 
    2251     2420     2695     2952     3111     3204     3288     3353 
    3365     3319     3223     3133     3134     3257     3449     3650 
    3823     3936     3959     3873     3715     3569     3469     3365 
    3199     2982     2760     2543     2309     2088     1907     1748 
    1591     1445     1328     1277     1332     1455     1579     1690 
    1796     1903     2007     2099     2191     2308     2466     2685 
    2967     3271     3543     3747     3896     4018     4126     4225 
    4315     4379     4376     4266     4062     3847     3678     3572 
    3534     3554     3554     3457     3254     2968     2635     2322 
    2069     1938     2016     2276     2570     2785     2862     2795 
    2648     2512     2427     2381     2361     2349     2324     2286 
    2261     2269     2300     2324     2331     2335     2359     2400 
    2448     2509     2597     2733     2907     3063     3161     3210 
    3238     3268     3299     3331     3370     3431     3546     3700 
    3815     3852     3847     3852     3921     4064     4230     4330 
    4291     4074     3654     3099     2551     2103     1784     1617 
    1583     1594     1593     1574     1533     1480     1441     1425 
    1404     1332     1192      994      804      735      876     1185 
    1559     1926     2259     2533     2713     2785     2786     2774 
    2791     2856     2941     3021     3110     3234     3433     3734 
    4062     4320     4465     4484     4406     4283     4124     3964 
    3865     3821     3812     3820     3805     3735     3620     3496 
    3375     3272     3217     3179     3083     2876     2558     2181 
    1821     1524     1318     1205     1169     1185     1235     1289 
    1294     1215     1078      934      841      850      949     1069 
    1159     1236     1358     1541     1775     2038     2288     2494 
    2678     2878     3106     3369     3674     3993     4261     4442 
    4542     4599     4625     4592     4537     4550     4673     4899 
    5185     5417     5482     5356     5096     4737     4284     3781 
    3339     3038     2847     2675     2466     2241     2050     1922 
    1845     1777     1645     1424     1154      915      791      812 
     973     1259     1633     2012     2299     2450     2493     2466 
    2430     2462     2596     2814     3095     3404     3719     4033 
    4314     4514     4634     4672     4580     4332     3935     3434 
    2928     2521     2282     2212     2261     2374     2505     2598 
    2606     2535     2393     2172     1898     1633     1389     1174 
    1050     1044     1120     1220     1328     1476     1687     1942 
    2176     2300     2308     2255     2185     2139     2128     2145 
    2199     2307     2469     2678     2941     3265     3618     3923 
    4097     4117     4040     3931     3815     3688     3539     3392 
    3268     3153     3037     2902     2713     2466     2197     1926 
    1665     1467     1378     1390     1471     1584     1669     1691 
    1698     1706     1663     1579     1516     1512     1606     1818 
    2122     2485     2851     3145     3329     3412     3399     3312 
    3225     3157     3068     2933     2794     2739     2828     3073 
    3434     3812     4140     4390     4557     4654     4684     4633 
    4504     4332     4160     4035     3947     3843     3715     3568 
    3392     3241     3160     3088     2953     2740     2471     2212 
    2037     1981     2035     2130     2187     2182     2154     2147 
    2185     2261     2342     2394     2386     2305     2191     2080 
    2007     2020     2127     2280     2431     2551     2604     2538 
    2339     2084     1884     1813     1883     2043     2169     2153 
    2003     1821     1745     1861     2166     2583     3006     3348 
    3572     3686     3727     3716     3655     3543     3384     3190 
    2964     2687     2363     2060     1891     1933     2168     2498 
    2801     2988     3063     3060     2992     2880     2772     2714 
    2702     2671     2551     2339     2130     2030     2103     2354 
    2687     2960     3105     3137     3092     2995     2878     2794 
    2774     2781     2762     2709     2601     2423     2238     2127 
    2099     2119     2174     2250     2315     2388     2506     2658 
    2768     2787     2747     2677     2562     2384     2170     1975 
    1827     1752     1777     1892     2057     2250     2427     2523 
    2523     2469     2401     2336     2309     2393     2612     2905 
    3199     3446     3627     3761     3883     4008     4136     4259 
    4355     4415     4441     4430     4344     4149     3883     3615 
    3384     3190     2984     2724     2417     2131     1926     1798 
    1717     1687     1699     1728     1755     1728     1614     1497 
    1493     1630     1857     2115     2346     2500     2589     2670 
    2748     2789     2817     2902     3028     3122     3179     3230 
    3300     3433     3631     3824     3971     4067     4082     3997 
    3871     3755     3645     3523     3377     3210     3076     3029 
    3040     3071     3110     3096     2978     2803     2633     2463 
    2303     2199     2155     2139     2128     2110     2065     1991 
    1883     1734     1568     1456     1467     1603     1796     1985 
    2150     2312     2509     2759     3057     3364     3620     3823 
    3962     4001     3986     4002     4055     4120     4213     4342 
    4482     4581     4607     4548     4406     4191     3937     3699 
    3504     3319     3123     2943     2767     2573     2416     2344 
    2324     2292     2234     2138     1980     1795     1651     1553 
    1479     1456     1536     1733     1998     2243     2398     2474 
    2551     2689     2871     3024     3053     2970     2864     2760 
    2613     2403     2133     1825     1526     1309     1242     1352 
    1567     1776     1921     1966     1904     1815     1810     1912 
    2074     2243     2385     2508     2678     2932     3198     3404 
    3539     3622     3717     3909     4180     4440     4626     4719 
    4739     4772     4873     4995     5057     5012     4823     4488 
    4063     3642     3285     3005     2776     2560     2349     2157 
    1998     1848     1642     1389     1190     1096     1107     1229 
    1413     1595     1767     1933     2074     2180     2266     2339 
    2386     2428     2516     2671     2905     3234     3645     4066 
    4398     4581     4627     4560     4403     4225     4082     3946 
    3774     3559     3321     3130     3051     3078     3181     3319 
    3460     3599     3713     3766     3720     3554     3302     3057 
    2887     2813     2824     2898     3044     3258     3514     3784 
    4033     4228     4383     4514     4600     4619     4556     4460 
    4429     4490     4600     4696     4706     4592     4438     4363 
    4360     4347     4263     4102     3902     3689     3435     3110 
    2702     2243     1783     1348      947      575      209     -140 
    -414     -572     -633     -669     -756     -904    -1043    -1073 
    -958     -729     -391       31      444      758      980     1158 
    1331     1522     1729     1896     1995     2080     2185     2284 
    2381     2492     2602     2731     2903     3114     3341     3572 
    3823     4101     4405     4753     5138     5544     5926     6211 
    6382     6478     6516     6492     6349     6030     5595     5177 
    4862     4644     4426     4090     3603     3010     2355     1671 
     993      365     -132     -445     -618     -745     -885    -1066 
   -1289    -1516    -1692    -1788    -1777    -1637    -1379    -1042 
    -652     -211      276      812     1393     2020     2646     3192 
    3650     4072     4500     4938     5367     5745     6010     6139 
    6156     6077     5891     5593     5204     4777     4356     3962 
    3612     3331     3105     2895     2693     2501     2315     2112 
    1876     1615     1355     1120      935      793      673      557 
     472      484      639      912     1239     1547     1799     1985 
    2122     2258     2403     2511     2585     2659     2752     2880 
    3022     3144     3268     3443     3630     3717     3649     3468 
    3244     3032     2868     2727     2579     2477     2488     2582 
    2641     2574     2389     2168     1979     1841     1730     1605 
    1416     1143      855      622      441      299      210      187 
     232      303      369      444      548      679      857     1089 
    1359     1663     1999     2354     2709     3051     3388     3717 
    4024     4340     4702     5100     5520     5956     6405     6855 
    7230     7447     7495     7399     7169     6845     6508     6193 
    5867     5478     4978     4344     3581     2739     1906     1170 
     581      139     -183     -422     -650     -916    -1209    -1503 
   -1756    -1879    -1830    -1663    -1470    -1286    -1078     -803 
    -425       64      627     1202     1764     2308     2816     3285 
    3753     4225     4660     5039     5410     5788     6106     6295 
    6340     6300     6268     6276     6269     6138     5823     5367 
    4864     4365     3898     3466     3064     2685     2303     1872 
    1356      768      180     -346     -812    -1192    -1439    -1551 
   -1560    -1524    -1517    -1557    -1606    -1634    -1614    -1482 
   -1196     -784     -295      202      650     1034     1398     1798 
    2249     2724     3169     3559     3897     4198     4509     4847 
    5174     5475     5761     5984     6072     5979     5759     5529 
    5366     5277     5269     5317     5381     5474     5614     5726 
    5734     5657     5532     5382     5223     5085     5004     4999 
    5022     4980     4827     4583     4302     4072     3962     3952 
    3978     3978     3871     3597     3191     2733     2309     1961 
    1664     1383     1139      969      858      801      834      984 
    1258     1659     2173     2737     3254     3642     3886     4063 
    4263     4515     4807     5115     5406     5663     5883     6014 
    6006     5876     5668     5406     5111     4827     4603     4453 
    4352     4240     4050     3738     3350     2978     2681     2446 
    2197     1906     1625     1379     1140      893      618      286 
     -31     -225     -291     -298     -276     -218      -93      114 
     372      630      861     1073     1297     1563     1864     2135 
    2313     2423     2523     2648     2794     2899     2890     2749 
    2516     2261     2042     1864     1698     1529     1355     1194 
    1070      989      932      905      928      986     1032     1069 
    1136     1225     1327     1478     1680     1871     2034     2203 
    2365     2492     2631     2841     3109     3392     3642     3777 
    3761     3642     3473     3292     3140     3032     2951     2874 
    2774     2633     2458     2274     2089     1900     1738     1633 
    1566     1518     1505     1551     1688     1925     2246     2647 
    3102     3580     4078     4563     4990     5359     5680     5964 
    6216     6407     6488     6420     6212     5950     5713     5517 
    5347     5154     4897     4598     4301     4064     3935     3904 
    3905     3871     3773     3608     3373     3069     2729     2396 
    2115     1934     1834     1768     1722     1683     1634     1602 
    1629     1713     1807     1880     1904     1841     1695     1520 
    1356     1242     1197     1162     1053      842      548      224 
     -54     -276     -479     -649     -745     -733     -581     -329 
     -52      230      558      938     1339     1746     2170     2628 
    3152     3765     4448     5152     5846     6504     7083     7554 
    7916     8171     8311     8356     8337     8284     8229     8167 
    8078     7967     7858     7709     7420     6934     6268     5462 
    4584     3743     3017     2394     1853     1366      866      314 
    -279     -908    -1534    -2089    -2512    -2783    -2894    -2853 
   -2708    -2494    -2222    -1853    -1327     -661       45      712 
    1290     1767     2195     2647     3159     3727     4311     4876 
    5436     5994     6517     6959     7272     7449     7558     7663 
    7763     7825     7821     7731     7546     7291     7002     6682 
    6335     5946     5417     4723     3997     3342     2758     2238 
    1777     1320      838      382      -17     -353     -596     -750 
    -858     -955    -1077    -1252    -1475    -1696    -1857    -1923 
   -1879    -1748    -1567    -1358    -1151     -981     -811     -561 
    -209      233      772     1381     1984     2512     2951     3341 
    3728     4132     4534     4874     5121     5331     5533     5690 
    5784     5807     5756     5630     5422     5157     4896     4646 
    4365     4044     3663     3215     2766     2386     2074     1815 
    1595     1378     1146      922      769      754      873     1065 
    1252     1395     1524     1669     1815     1923     1998     2110 
    2308     2560     2818     3045     3217     3308     3304     3199 
    3046     2901     2763     2601     2385     2131     1891     1696 
    1540     1359     1086      722      340        9     -244     -388 
    -398     -294     -105      155      457      758     1017     1202 
    1336     1512     1807     2224     2716     3248     3788     4290 
    4729     5108     5405     5571     5583     5474     5319     5194 
    5097     4996     4892     4784     4661     4504     4294     4017 
    3678     3303     2928     2598     2367     2249     2187     2161 
    2209     2320     2434     2505     2478     2319     2103     1953 
    1927     2026     2215     2438     2641     2791     2839     2745 
    2536     2263     1962     1649     1370     1186     1113     1123 
    1185     1254     1314     1409     1583     1829     2126     2474 
    2863     3254     3642     4051     4479     4895     5266     5575 
    5833     6056     6245     6407     6527     6577     6534     6389 
    6154     5861     5543     5209     4862     4475     3985     3393 
    2797     2250     1744     1285      870      483      128     -190 
    -480     -741     -965    -1151    -1293    -1383    -1408    -1329 
   -1121     -791     -376       78      544     1005     1447     1869 
    2284     2687     3078     3456     3842     4247     4615     4897 
    5104     5247     5352     5471     5609     5709     5721     5645 
    5513     5348     5170     4962     4679     4317     3928     3535 
    3141     2763     2423     2139     1906     1721     1601     1545 
    1525     1482     1355     1152      930      727      554      410 
     321      328      429      602      818     1035     1237     1431 
    1625     1834     2057     2254     2420     2587     2767     2951 
    3125     3303     3531     3816     4117     4406     4656     4806 
    4826     4760     4689     4680     4750     4896     5080     5228 
    5312     5340     5310     5208     5036     4806     4523     4193 
    3805     3362     2894     2428     1975     1532     1111      702 
     291     -129     -561     -988    -1356    -1629    -1761    -1725 
   -1547    -1262     -876     -441      -35      318      649      981 
    1348     1782     2263     2756     3240     3720     4228     4776 
    5319     5807     6218     6511     6664     6698     6613     6405 
    6114     5778     5408     5005     4567     4093     3595     3082 
    2573     2091     1651     1275      994      822      730      683 
     658      664      716      822      950     1069     1206     1409 
    1661     1918     2146     2316     2446     2573     2710     2856 
    2999     3121     3222     3319     3418     3500     3580     3690 
    3852     4044     4218     4341     4411     4425     4383     4318 
    4244     4151     4043     3954     3889     3815     3701     3561 
    3416     3279     3142     2980     2795     2633     2528     2500 
    2567     2683     2785     2864     2922     2964     2992     2990 
    2948     2891     2851     2826     2810     2794     2774     2724 
    2641     2544     2448     2349     2200     1980     1722     1460 
    1202      981      849      819      876      992     1139     1298 
    1467     1630     1773     1908     2087     2351     2685     3021 
    3308     3545     3762     3967     4109     4144     4050     3825 
    3510     3141     2752     2376     2046     1786     1584     1416 
    1305     1270     1262     1291     1395     1555     1756     2010 
    2303     2639     3044     3523     4060     4614     5131     5570 
    5898     6127     6282     6373     6389     6326     6193     5992 
    5714     5368     4976     4538     4048     3531     3032     2562 
    2104     1647     1192      751      359       32     -229     -438 
    -575     -614     -565     -467     -346     -202      -21      191 
     438      739     1112     1522     1911     2247     2543     2820 
    3088     3361     3626     3817     3904     3929     3936     3933 
    3927     3916     3888     3831     3748     3673     3640     3643 
    3651     3658     3645     3592     3526     3480     3470     3496 
    3514     3478     3368     3203     3041     2910     2797     2674 
    2527     2354     2180     2038     1933     1852     1786     1734 
    1719     1756     1815     1869     1907     1930     1954     2004 
    2087     2216     2403     2655     2992     3381     3758     4075 
    4275     4333     4283     4179     4070     3969     3870     3765 
