Origin Time       2025/01/13 21:19:00
Lat.              31.8
Long.             131.6
Depth. (km)       30
Mag.              6.9
Station Code      YMG010
Station Lat.      34.2303
Station Long.     131.9819
Station Height(m) 61
Record Time       2025/01/13 21:20:52
Sampling Freq(Hz) 100Hz
Duration Time(s)  60
Dir.              E-W
Scale Factor      7845(gal)/8223790
Max. Acc. (gal)   1.428
Last Correction   2025/01/13 21:20:52
Memo.             
[...]
    8370     8414     8513     8617     8657     8630     8607     8644 
    8710     8761     8803     8820     8785     8745     8762     8820 
    8869     8883     8856     8780     8688     8644     8679     8775 
    8878     8943     8951     8907     8816     8689     8594     8581 
    8599     8577     8532     8510     8517     8521     8519     8553 
    8627     8703     8761     8806     8819     8823     8838     8829 
    8785     8748     8750     8791     8818     8776     8688     8635 
    8627     8631     8638     8648     8665     8688     8680     8638 
    8619     8662     8738     8775     8723     8596     8444     8326 
    8283     8283     8257     8202     8183     8233     8318     8409 
    8488     8541     8577     8623     8683     8750     8806     8816 
    8787     8733     8658     8613     8637     8703     8748     8726 
    8631     8500     8402     8368     8380     8410     8457     8532 
    8621     8707     8795     8893     8986     9039     9030     8968 
    8888     8814     8766     8752     8731     8688     8652     8625 
    8565     8483     8430     8438     8482     8521     8556     8610 
    8677     8725     8730     8718     8704     8680     8626     8553 
    8499     8495     8548     8644     8742     8800     8807     8762 
    8699     8654     8615     8536     8437     8361     8311     8271 
    8260     8341     8519     8707     8826     8858     8829     8768 
    8689     8608     8537     8465     8383     8311     8291     8352 
    8498     8679     8827     8935     9011     9030     8991     8926 
    8838     8723     8602     8486     8402     8383     8401     8424 
    8445     8478     8549     8633     8652     8607     8586     8622 
    8673     8694     8685     8683     8698     8715     8710     8673 
    8622     8573     8517     8465     8475     8577     8741     8891 
    8980     9020     9030     9034     9046     9054     9028     8968 
    8893     8842     8846     8908     8995     9039     9005     8919 
    8807     8680     8564     8484     8438     8428     8464     8542 
    8608     8608     8549     8495     8482     8498     8546     8635 
    8735     8773     8719     8644     8603     8573     8530     8472 
    8386     8279     8205     8210     8305     8432     8503     8506 
    8498     8530     8583     8588     8505     8374     8293     8307 
    8376     8463     8553     8641     8681     8634     8552     8536 
    8594     8646     8652     8635     8635     8679     8772     8874 
    8924     8928     8916     8892     8819     8699     8588     8518 
    8463     8414     8418     8532     8726     8892     8941     8893 
    8847     8865     8911     8927     8919     8895     8835     8734 
    8617     8523     8475     8440     8397     8348     8324     8364 
    8478     8591     8618     8556     8468     8402     8398     8472 
    8599     8731     8831     8897     8930     8885     8758     8621 
    8503     8368     8217     8120     8152     8302     8465     8584 
    8684     8781     8837     8802     8691     8572     8467     8374 
    8344     8410     8559     8764     8988     9159     9217     9148 
    8997     8818     8615     8407     8279     8298     8424     8548 
    8613     8646     8704     8818     8961     9081     9142     9132 
    9038     8870     8711     8629     8630     8683     8730     8704 
    8583     8422     8316     8320     8391     8432     8409     8376 
    8368     8382     8433     8552     8739     8961     9136     9202 
    9184     9158     9148     9128     9072     8976     8885     8849 
    8865     8904     8926     8896     8847     8853     8932     9023 
    9045     8964     8827     8685     8554     8448     8367     8307 
    8283     8299     8348     8459     8641     8818     8880     8789 
    8613     8455     8348     8262     8213     8230     8282     8344 
    8440     8587     8750     8897     9030     9131     9147     9051 
    8912     8818     8766     8696     8599     8526     8540     8634 
    8730     8748     8657     8509     8413     8438     8548     8638 
    8668     8667     8648     8608     8577     8577     8592     8577 
    8494     8363     8262     8226     8235     8275     8332     8383 
    8452     8563     8669     8721     8731     8706     8621     8505 
    8448     8494     8576     8576     8499     8461     8525     8642 
    8723     8723     8664     8604     8581     8563     8491     8386 
    8303     8264     8284     8391     8567     8783     9005     9165 
    9201     9120     9000     8939     8942     8943     8927     8910 
    8847     8727     8671     8814     9074     9197     9082     8857 
    8652     8518     8494     8580     8704     8800     8873     8918 
    8899     8815     8699     8575     8432     8263     8137     8104 
    8127     8162     8205     8284     8410     8534     8596     8583 
    8511     8421     8355     8328     8341     8405     8499     8564 
    8579     8573     8594     8646     8695     8730     8753     8764 
    8766     8766     8776     8826     8883     8884     8834     8795 
    8803     8870     8982     9092     9151     9128     9008     8838 
    8689     8569     8467     8413     8426     8487     8590     8722 
    8841     8905     8908     8861     8784     8696     8623     8594 
    8613     8657     8676     8658     8654     8673     8668     8622 
    8580     8575     8587     8577     8538     8523     8583     8677 
    8725     8703     8630     8541     8492     8496     8502     8488 
    8479     8486     8514     8556     8592     8608     8577     8482 
    8357     8270     8253     8328     8475     8627     8773     8942 
    9074     9067     8949     8835     8791     8779     8743     8669 
    8564     8455     8390     8411     8498     8573     8598     8602 
    8610     8626     8699     8858     9046     9181     9213     9126 
    8943     8731     8579     8527     8532     8548     8583     8635 
    8712     8806     8866     8869     8818     8706     8594     8565 
    8607     8629     8583     8499     8441     8446     8529     8694 
    8905     9085     9144     9059     8905     8807     8842     8985 
    9132     9212     9204     9100     8930     8773     8700     8704 
    8711     8677     8644     8668     8779     8920     9013     9032 
    8996     8903     8727     8484     8257     8131     8127     8225 
    8360     8459     8509     8526     8505     8429     8293     8140 
    8048     8039     8081     8133     8183     8244     8302     8321 
    8309     8311     8379     8519     8653     8711     8708     8699 
    8726     8797     8839     8770     8591     8376     8199     8105 
    8117     8214     8371     8572     8737     8760     8646     8482 
    8334     8255     8239     8278     8401     8584     8721     8769 
    8793     8822     8830     8795     8715     8599     8459     8328 
    8295     8410     8626     8872     9043     9049     8912     8718 
    8532     8392     8306     8264     8259     8267     8293     8371 
    8479     8559     8588     8561     8505     8469     8442     8413 
    8419     8491     8614     8752     8866     8941     8959     8930 
    8887     8823     8702     8549     8463     8478     8546     8644 
    8777     8918     8981     8926     8806     8673     8527     8392 
    8348     8436     8577     8640     8590     8495     8397     8303 
    8236     8198     8197     8247     8348     8507     8743     9028 
    9292     9450     9450     9320     9144     8955     8784     8689 
    8699     8773     8829     8797     8698     8581     8482     8402 
    8332     8255     8172     8116     8091     8101     8156     8232 
    8305     8376     8434     8484     8563     8654     8698     8653 
    8560     8519     8606     8773     8938     9066     9128     9086 
    8950     8783     8671     8672     8775     8942     9130     9301 
    9478     9666     9796     9806     9679     9425     9082     8722 
    8445     8318     8325     8453     8715     9008     9159     9113 
    8926     8672     8422     8243     8182     8233     8332     8392 
    8365     8272     8174     8102     8040     7973     7935     7989 
    8117     8191     8163     8136     8182     8252     8257     8132 
    7866     7569     7422     7524     7824     8168     8437     8584 
    8621     8631     8673     8677     8569     8419     8364     8471 
    8681     8864     8926     8872     8718     8502     8318     8216 
    8127     8002     7906     7928     8101     8392     8715     8976 
    9109     9069     8874     8649     8510     8476     8514     8604 
    8727     8865     9026     9177     9242     9181     9015     8810 
    8635     8521     8483     8533     8656     8823     9024     9236 
    9389     9410     9310     9198     9173     9208     9234     9244 
    9271     9340     9452     9536     9506     9378     9217     9038 
    8826     8631     8549     8613     8761     8928     9055     9065 
    8927     8707     8525     8478     8577     8764     8951     9096 
    9193     9232     9215     9181     9123     8949     8631     8264 
    7974     7857     7915     8047     8159     8233     8289     8340 
    8391     8445     8479     8461     8410     8357     8318     8306 
    8344     8422     8486     8483     8398     8222     7973     7690 
    7464     7407     7557     7844     8198     8559     8833     8961 
    8954     8834     8650     8496     8417     8382     8370     8383 
    8414     8433     8441     8472     8540     8595     8579     8513 
    8469     8517     8660     8829     8980     9135     9293     9385 
    9339     9142     8862     8608     8432     8344     8349     8405 
    8444     8461     8453     8413     8383     8405     8434     8411 
    8405     8503     8694     8901     9074     9185     9219     9174 
    9081     8969     8831     8654     8471     8330     8290     8397 
    8657     8972     9175     9213     9153     9059     8986     8977 
    9000     8986     8919     8838     8800     8835     8923     8995 
    8999     8959     8942     8965     9003     9012     8949     8831 
    8723     8675     8714     8814     8880     8837     8696     8546 
    8479     8499     8517     8483     8452     8464     8487     8494 
    8484     8479     8492     8509     8513     8527     8561     8586 
    8576     8540     8525     8592     8695     8714     8646     8592 
    8599     8619     8586     8480     8364     8317     8332     8353 
    8386     8490     8695     8922     9031     8981     8889     8860 
    8873     8878     8873     8877     8864     8791     8673     8611 
    8694     8899     9094     9157     9055     8864     8692     8596 
    8594     8725     8957     9151     9213     9197     9169     9126 
    9084     9062     9042     9012     8995     9000     9026     9054 
    9066     9057     9035     9026     9058     9131     9205     9252 
    9301     9385     9505     9656     9805     9867     9767     9501 
    9163     8907     8816     8872     9018     9177     9273     9298 
    9313     9367     9472     9593     9639     9551     9351     9103 
    8896     8819     8842     8861     8845     8819     8788     8743 
    8685     8615     8556     8521     8487     8453     8455     8486 
    8461     8330     8163     8063     8060     8105     8117     8067 
    8008     7996     8060     8199     8336     8365     8305     8239 
    8183     8097     7931     7695     7520     7500     7539     7555 
    7622     7749     7811     7773     7736     7797     7965     8144 
    8195     8094     7928     7771     7641     7528     7442     7399 
    7385     7366     7331     7296     7303     7398     7562     7730 
    7885     8060     8193     8181     8041     7889     7850     7985 
    8235     8488     8652     8667     8563     8444     8391     8410 
    8459     8495     8517     8521     8486     8438     8460     8596 
    8814     8996     9042     8964     8829     8675     8544     8491 
    8514     8587     8729     8937     9120     9215     9258     9305 
    9336     9304     9228     9189     9223     9283     9333     9401 
    9494     9537     9491     9408     9358     9356     9385     9459 
    9568     9621     9541     9387     9285     9286     9348     9371 
    9271     9065     8870     8792     8806     8818     8807     8799 
    8756     8642     8515     8422     8370     8343     8314     8275 
    8283     8364     8440     8438     8370     8271     8145     7990 
    7817     7659     7543     7453     7400     7433     7534     7616 
    7643     7642     7672     7774     7888     7916     7859     7785 
    7777     7896     8120     8356     8509     8548     8534     8529 
    8523     8491     8437     8383     8324     8210     8050     7929 
    7921     7978     7997     7950     7925     8012     8191     8384 
    8514     8527     8434     8303     8168     8001     7809     7632 
    7496     7439     7488     7597     7728     7851     7921     7921 
    7888     7843     7773     7646     7497     7452     7578     7773 
    7892     7916     7929     7959     7962     7935     7952     8090 
    8316     8521     8654     8745     8816     8845     8816     8752 
    8685     8637     8606     8621     8692     8784     8885     9011 
    9146     9282     9401     9471     9517     9597     9726     9856 
    9949    10010    10060    10107    10130    10077     9941     9802 
    9726     9647     9474     9252     9100     9061     9089     9112 
    9078     8992     8915     8900     8941     8995     9043     9103 
    9171     9202     9194     9219     9296     9346     9304     9196 
    9097     9062     9090     9175     9282     9336     9324     9292 
    9252     9189     9115     9074     9096     9135     9131     9093 
    9074     9101     9147     9173     9174     9200     9265     9317 
    9343     9386     9462     9513     9491     9421     9321     9175 
    8991     8812     8658     8525     8399     8253     8106     7997 
    7896     7797     7792     7913     8077     8195     8221     8155 
    8035     7884     7727     7619     7574     7584     7663     7807 
    7958     8060     8079     8019     7935     7916     8006     8164 
    8286     8321     8305     8282     8270     8271     8263     8224 
    8168     8116     8081     8121     8272     8475     8622     8662 
    8608     8526     8496     8530     8599     8681     8768     8862 
    8999     9192     9397     9526     9535     9445     9306     9151 
    9024     8968     8988     9055     9148     9252     9343     9400 
    9420     9375     9247     9070     8900     8760     8658     8610 
    8618     8662     8712     8754     8800     8834     8802     8704 
    8638     8656     8698     8683     8637     8640     8695     8752 
    8807     8888     8984     9057     9055     8964     8846     8770 
    8712     8611     8469     8344     8270     8222     8174     8149 
    8179     8248     8326     8399     8449     8473     8484     8509 
    8560     8641     8719     8725     8633     8507     8429     8411 
    8424     8419     8380     8293     8136     7962     7874     7888 
    7908     7863     7774     7730     7819     8046     8329     8561 
    8677     8677     8611     8511     8397     8305     8289     8333 
    8365     8388     8468     8617     8802     8982     9107     9132 
    9061     8924     8764     8615     8522     8500     8496     8460 
    8407     8351     8291     8226     8172     8168     8222     8301 
    8390     8488     8588     8696     8823     8949     9024     9036 
    9034     9054     9055     8981     8834     8633     8392     8149 
    7965     7909     8012     8212     8425     8633     8847     9059 
    9232     9342     9408     9458     9454     9359     9236     9181 
    9229     9358     9529     9691     9769     9722     9571     9367 
    9165     9038     9016     9054     9093     9097     9092     9147 
    9279     9423     9532     9579     9529     9382     9188     9032 
    8965     8972     8992     8943     8777     8536     8289     8081 
    7963     7946     7979     8024     8085     8162     8226     8267 
    8284     8266     8186     8074     8010     8041     8129     8212 
    8266     8309     8380     8518     8702     8857     8950     8996 
    8993     8932     8847     8777     8723     8661     8563     8442 
    8375     8413     8513     8613     8664     8645     8573     8498 
    8464     8463     8464     8461     8451     8425     8424     8488 
    8613     8742     8823     8810     8698     8549     8460     8456 
    8492     8533     8553     8515     8440     8419     8505     8653 
    8776     8824     8833     8827     8803     8784     8806     8865 
    8941     9020     9117     9240     9339     9333     9223     9103 
    9065     9103     9121     9040     8896     8788     8749     8757 
    8784     8802     8783     8719     8644     8592     8563     8542 
    8553     8602     8644     8633     8580     8529     8498     8440 
    8294     8097     7924     7788     7674     7605     7618     7689 
    7758     7786     7801     7851     7932     7986     7963     7870 
    7754     7646     7581     7597     7693     7836     7998     8143 
    8280     8459     8650     8765     8758     8654     8505     8365 
    8264     8201     8178     8197     8260     8338     8383     8390 
    8376     8348     8316     8301     8295     8297     8344     8452 
    8580     8683     8735     8738     8683     8571     8452     8398 
    8440     8556     8694     8791     8824     8816     8781     8718 
    8617     8473     8324     8209     8145     8149     8222     8291 
    8290     8235     8158     8083     8035     8016     8012     8014 
    8060     8185     8374     8577     8750     8868     8953     9042 
    9131     9215     9288     9337     9378     9425     9464     9458 
    9386     9289     9194     9120     9120     9231     9378     9471 
    9479     9414     9312     9225     9177     9162     9147     9105 
    9055     9016     8973     8893     8768     8649     8588     8569 
    8548     8517     8505     8550     8637     8706     8754     8818 
    8918     9045     9174     9258     9266     9217     9173     9165 
    9165     9132     9067     9013     8974     8911     8837     8829 
    8927     9096     9266     9381     9424     9416     9375     9315 
    9250     9173     9069     8957     8831     8653     8425     8202 
    8004     7840     7749     7742     7765     7758     7727     7731 
    7800     7909     7998     8017     7990     7959     7947     7974 
    8048     8168     8330     8488     8606     8708     8826     8918 
    8927     8864     8769     8689     8660     8692     8768     8838 
    8864     8819     8710     8564     8411     8279     8186     8125 
    8089     8093     8133     8187     8245     8294     8299     8267 
    8243     8248     8282     8349     8452     8569     8691     8797 
    8877     8950     9024     9065     9047     8989     8911     8830 
    8795     8815     8841     8841     8807     8745     8688     8642 
    8579     8491     8391     8302     8243     8189     8117     8041 
