Origin Time       2025/01/13 21:19:00
Lat.              31.8
Long.             131.6
Depth. (km)       30
Mag.              6.9
Station Code      YMG001
Station Lat.      34.6172
Station Long.     131.6022
Station Height(m) 5
Record Time       2025/01/13 21:20:34
Sampling Freq(Hz) 100Hz
Duration Time(s)  105
Dir.              U-D
Scale Factor      7845(gal)/8223790
Max. Acc. (gal)   0.896
Last Correction   2025/01/13 21:20:33
Memo.             
[...]
    8353     8428     8490     8537     8569     8587     8590     8569 
    8541     8518     8479     8430     8384     8326     8244     8143 
    8040     7947     7873     7820     7776     7743     7717     7688 
    7659     7661     7697     7746     7811     7892     7958     8004 
    8041     8075     8094     8086     8051     8001     7935     7852 
    7769     7690     7612     7533     7460     7396     7352     7315 
    7284     7280     7302     7334     7373     7422     7473     7519 
    7558     7601     7650     7696     7730     7749     7753     7743 
    7726     7703     7680     7665     7653     7647     7661     7688 
    7701     7701     7705     7722     7734     7739     7757     7773 
    7780     7785     7786     7794     7809     7816     7816     7823 
    7813     7788     7776     7767     7758     7755     7755     7759 
    7753     7730     7713     7697     7678     7686     7734     7792 
    7862     7928     7966     7993     8017     8032     8058     8102 
    8140     8162     8183     8202     8224     8260     8307     8353 
    8379     8386     8384     8378     8378     8379     8372     8367 
    8370     8370     8368     8372     8382     8392     8398     8402 
    8411     8413     8410     8418     8432     8442     8448     8437 
    8406     8368     8320     8260     8213     8176     8149     8136 
    8120     8098     8073     8040     8012     7985     7965     7970 
    7998     8025     8039     8048     8050     8044     8037     8039 
    8058     8086     8127     8174     8212     8249     8287     8310 
    8329     8347     8349     8340     8330     8318     8299     8284 
    8278     8278     8271     8259     8245     8214     8166     8114 
    8056     7983     7915     7848     7788     7744     7705     7665 
    7636     7624     7626     7643     7685     7747     7812     7870 
    7924     7975     8019     8062     8100     8120     8143     8174 
    8194     8202     8195     8171     8143     8117     8090     8064 
    8054     8059     8073     8075     8075     8086     8090     8083 
    8078     8075     8074     8068     8073     8083     8094     8112 
    8144     8185     8235     8297     8363     8419     8472     8506 
    8511     8514     8515     8496     8475     8464     8449     8429 
    8403     8371     8337     8306     8275     8239     8202     8171 
    8139     8104     8079     8063     8033     7990     7952     7929 
    7912     7893     7877     7859     7828     7781     7739     7705 
    7680     7669     7668     7669     7676     7678     7673     7674 
    7677     7657     7636     7632     7620     7595     7562     7530 
    7492     7461     7453     7453     7466     7496     7510     7527 
    7577     7592     7591     7645     7663     7618     7591     7578 
    7543     7508     7479     7435     7412     7411     7379     7357 
    7348     7315     7300     7294     7279     7285     7284     7271 
    7273     7275     7265     7263     7257     7244     7219     7188 
    7167     7148     7130     7129     7133     7144     7179     7226 
    7279     7339     7398     7450     7504     7562     7616     7653 
    7697     7753     7798     7843     7915     8014     8110     8210 
    8321     8422     8500     8545     8557     8550     8534     8518 
    8486     8421     8353     8293     8224     8166     8127     8089 
    8073     8073     8064     8050     8040     8039     8041     8046 
    8056     8082     8131     8181     8221     8267     8318     8365 
    8405     8446     8503     8568     8622     8668     8725     8768 
    8789     8810     8829     8837     8820     8777     8710     8622 
    8532     8444     8355     8270     8202     8151     8104     8063 
    8027     8000     7987     7970     7956     7954     7959     7982 
    8016     8044     8070     8091     8104     8116     8132     8158 
    8195     8233     8262     8289     8306     8313     8322     8338 
    8352     8360     8367     8364     8349     8330     8314     8303 
    8294     8276     8253     8232     8214     8201     8185     8160 
    8120     8075     8037     7997     7960     7940     7936     7939 
    7940     7929     7935     7963     7990     8020     8050     8075 
    8114     8154     8179     8198     8205     8195     8174     8149 
    8118     8089     8059     8029     8009     7989     7970     7977 
    7998     8019     8037     8068     8105     8132     8152     8178 
    8203     8213     8214     8213     8203     8198     8191     8178 
    8162     8124     8059     7993     7948     7917     7897     7893 
    7898     7904     7901     7900     7916     7943     7970     7992 
    7997     7978     7939     7875     7794     7724     7661     7607 
    7578     7555     7527     7506     7499     7512     7531     7531 
    7549     7592     7630     7682     7744     7793     7848     7916 
    7985     8051     8110     8160     8209     8245     8248     8236 
    8220     8179     8116     8056     7994     7921     7851     7792 
    7743     7701     7674     7658     7647     7657     7681     7708 
    7739     7777     7808     7831     7857     7875     7873     7843 
    7805     7771     7728     7692     7676     7655     7636     7646 
    7668     7688     7719     7750     7771     7793     7807     7809 
    7809     7811     7808     7796     7762     7728     7712     7707 
    7712     7728     7754     7798     7865     7935     8004     8075 
    8139     8197     8248     8279     8289     8284     8270     8248 
    8218     8186     8154     8117     8062     7997     7943     7913 
    7886     7834     7792     7784     7786     7811     7839     7859 
    7892     7921     7939     7954     7966     7970     7982     8002 
    8020     8048     8078     8102     8120     8122     8110     8090 
    8058     8008     7951     7885     7805     7720     7627     7523 
    7419     7323     7246     7188     7149     7121     7107     7110 
    7125     7149     7187     7245     7308     7384     7483     7582 
    7681     7785     7877     7948     8019     8075     8118     8167 
    8205     8218     8222     8221     8226     8249     8278     8310 
    8355     8399     8440     8487     8527     8544     8552     8559 
    8552     8527     8490     8444     8386     8306     8208     8091 
    7982     7898     7823     7744     7677     7618     7565     7534 
    7535     7557     7603     7668     7732     7800     7875     7948 
    8013     8093     8202     8305     8380     8461     8554     8654 
    8746     8777     8792     8829     8818     8791     8761     8703 
    8656     8602     8537     8476     8395     8309     8237     8160 
    8082     8028     7985     7932     7870     7811     7763     7717 
    7684     7666     7658     7678     7695     7693     7717     7743 
    7761     7785     7815     7854     7886     7911     7944     7967 
    7977     7989     7994     7987     7971     7947     7919     7875 
    7821     7773     7720     7676     7642     7591     7543     7515 
    7489     7457     7431     7422     7414     7412     7414     7411 
    7423     7443     7464     7504     7557     7612     7662     7693 
    7717     7759     7807     7859     7923     7978     8021     8063 
    8102     8136     8158     8185     8208     8212     8218     8220 
    8193     8155     8132     8120     8093     8059     8039     8023 
    8001     7978     7958     7942     7935     7940     7944     7939 
    7932     7931     7920     7902     7886     7877     7866     7847 
    7828     7827     7831     7842     7871     7901     7932     7982 
    8046     8108     8170     8217     8256     8291     8316     8337 
    8368     8402     8433     8460     8476     8473     8456     8430 
    8409     8398     8383     8367     8347     8325     8295     8244 
    8179     8114     8055     8005     7966     7920     7861     7794 
    7742     7711     7684     7659     7659     7669     7662     7646 
    7619     7588     7570     7557     7546     7557     7585     7596 
    7604     7628     7651     7684     7746     7819     7884     7942 
    7996     8035     8062     8087     8102     8102     8101     8101 
    8102     8100     8098     8106     8124     8139     8151     8162 
    8176     8195     8218     8237     8271     8321     8356     8378 
    8399     8415     8429     8444     8446     8444     8452     8449 
    8437     8424     8401     8382     8367     8340     8305     8259 
    8201     8140     8071     7987     7912     7836     7759     7705 
    7658     7595     7538     7506     7472     7434     7423     7423 
    7423     7445     7484     7510     7520     7550     7573     7573 
    7589     7599     7593     7605     7632     7658     7670     7690 
    7723     7750     7776     7811     7850     7886     7917     7954 
    7981     7987     7985     7981     7974     7960     7950     7954 
    7963     7970     7969     7959     7950     7943     7933     7927 
    7925     7911     7885     7871     7859     7843     7838     7839 
    7831     7817     7808     7804     7809     7821     7839     7862 
    7879     7893     7908     7915     7909     7904     7890     7863 
    7831     7807     7786     7785     7801     7828     7855     7884 
    7919     7955     7989     8029     8071     8102     8122     8137 
    8143     8148     8152     8145     8127     8091     8051     8008 
    7960     7931     7911     7892     7889     7896     7901     7920 
    7967     8023     8079     8129     8168     8209     8253     8289 
    8314     8337     8351     8347     8343     8333     8313     8289 
    8259     8218     8162     8105     8062     8029     8000     7970 
    7948     7936     7933     7936     7943     7952     7959     7962 
    7951     7929     7911     7888     7847     7809     7770     7720 
    7678     7649     7626     7616     7618     7618     7630     7663 
    7719     7788     7859     7925     7985     8035     8070     8087 
    8094     8090     8077     8060     8040     8024     8008     7990 
    7970     7943     7919     7894     7879     7889     7900     7902 
    7917     7944     7966     7987     7990     7967     7951     7947 
    7923     7869     7827     7804     7750     7690     7676     7665 
    7632     7634     7661     7655     7659     7678     7665     7662 
    7682     7688     7686     7701     7742     7767     7765     7793 
    7840     7858     7881     7931     7969     7989     8021     8047 
    8068     8104     8132     8144     8140     8127     8122     8117 
    8101     8089     8093     8094     8093     8097     8105     8112 
    8116     8114     8109     8109     8108     8091     8086     8094 
    8094     8078     8060     8050     8028     7990     7939     7877 
    7820     7763     7697     7645     7622     7604     7585     7573 
    7561     7558     7578     7608     7643     7688     7746     7812 
    7874     7927     7981     8041     8086     8110     8136     8162 
    8176     8187     8201     8214     8221     8213     8190     8171 
    8154     8116     8075     8050     8027     8005     7978     7954 
    7948     7954     7954     7948     7944     7942     7932     7921 
    7912     7900     7888     7884     7892     7906     7915     7919 
    7938     7960     7982     7997     7997     8001     7996     7962 
    7940     7948     7956     7951     7952     7955     7954     7960 
    7960     7962     7967     7965     7960     7952     7936     7915 
    7888     7855     7813     7762     7719     7689     7657     7626 
    7615     7616     7630     7649     7668     7697     7720     7728 
    7739     7755     7769     7788     7811     7835     7859     7875 
    7884     7900     7927     7954     7973     7986     8013     8048 
    8068     8087     8124     8151     8166     8186     8201     8209 
    8233     8262     8275     8284     8303     8305     8282     8260 
    8233     8185     8127     8062     7990     7917     7842     7758 
    7680     7620     7580     7553     7530     7514     7510     7520 
    7533     7550     7587     7627     7668     7707     7734     7767 
    7811     7832     7851     7881     7894     7890     7898     7912 
    7912     7898     7889     7884     7877     7873     7874     7873 
    7871     7873     7881     7889     7898     7905     7909     7916 
    7920     7924     7933     7952     7974     7987     8005     8048 
    8100     8136     8175     8217     8244     8262     8268     8271 
    8270     8259     8244     8230     8224     8220     8199     8171 
    8159     8137     8077     8020     7977     7909     7827     7757 
    7686     7614     7562     7531     7500     7480     7480     7497 
    7520     7551     7600     7646     7689     7740     7792     7843 
    7898     7960     8019     8056     8060     8081     8163     8232 
    8225     8228     8294     8344     8344     8345     8379     8429 
    8478     8511     8532     8559     8595     8611     8591     8571 
    8556     8513     8452     8397     8344     8270     8168     8067 
    7987     7915     7854     7809     7753     7716     7723     7713 
    7693     7712     7751     7778     7803     7846     7894     7940 
    7987     8033     8075     8118     8167     8208     8239     8289 
    8345     8392     8445     8500     8538     8569     8615     8658 
    8688     8725     8772     8814     8847     8880     8903     8891 
    8861     8823     8773     8722     8660     8580     8509     8455 
    8394     8322     8260     8206     8149     8094     8048     8006 
    7958     7915     7881     7847     7817     7796     7778     7758 
    7744     7732     7726     7728     7724     7716     7728     7747 
    7754     7754     7762     7778     7786     7780     7773     7778 
    7777     7766     7758     7761     7773     7781     7785     7797 
    7816     7843     7875     7908     7929     7946     7962     7986 
    8013     8025     8024     8035     8043     8037     8033     8023 
    8002     7975     7944     7911     7871     7821     7785     7758 
    7724     7693     7672     7655     7650     7651     7631     7601 
    7576     7549     7527     7516     7508     7493     7479     7476 
    7474     7457     7433     7419     7412     7410     7403     7387 
    7392     7418     7434     7453     7488     7531     7568     7608 
    7653     7689     7717     7749     7792     7828     7854     7875 
    7893     7905     7904     7892     7878     7871     7873     7871 
    7875     7889     7904     7923     7938     7942     7932     7920 
    7917     7909     7889     7861     7819     7767     7726     7696 
    7669     7646     7628     7616     7616     7619     7620     7618 
    7608     7603     7614     7647     7701     7742     7761     7778 
    7804     7819     7838     7882     7904     7896     7908     7919 
    7902     7884     7863     7830     7792     7769     7767     7771 
    7778     7807     7846     7879     7917     7967     8032     8085 
    8085     8058     8062     8104     8097     8013     7954     7969 
    7967     7906     7867     7874     7885     7892     7892     7892 
    7904     7919     7929     7924     7924     7944     7955     7936 
    7921     7927     7912     7885     7862     7831     7797     7754 
    7690     7636     7619     7611     7588     7570     7572     7580 
    7584     7599     7641     7682     7715     7751     7788     7812 
    7835     7862     7896     7929     7955     7974     7996     8020 
    8048     8073     8087     8105     8132     8158     8178     8202 
    8233     8268     8299     8324     8351     8380     8405     8424 
    8442     8446     8428     8403     8372     8329     8275     8230 
    8190     8131     8066     8016     7963     7898     7844     7805 
    7771     7750     7750     7774     7812     7855     7904     7960 
    8019     8070     8108     8147     8193     8236     8264     8290 
    8307     8310     8306     8297     8280     8256     8229     8212 
    8195     8172     8154     8141     8133     8129     8132     8140 
    8160     8182     8194     8203     8222     8237     8241     8237 
    8232     8230     8225     8220     8213     8191     8164     8136 
    8093     8046     8002     7952     7913     7892     7865     7838 
    7819     7796     7769     7736     7704     7673     7632     7596 
    7573     7558     7541     7531     7533     7547     7576     7607 
    7631     7659     7690     7716     7743     7778     7803     7820 
    7840     7861     7873     7874     7886     7913     7938     7967 
    8013     8067     8118     8168     8205     8230     8257     8268 
    8259     8244     8221     8187     8143     8093     8040     7986 
    7932     7892     7861     7823     7793     7773     7758     7751 
    7747     7751     7767     7777     7782     7793     7809     7823 
    7838     7865     7901     7929     7959     8010     8060     8091 
    8118     8148     8164     8163     8155     8159     8176     8191 
    8202     8212     8209     8194     8182     8179     8186     8198 
    8197     8193     8202     8222     8239     8236     8222     8205 
    8185     8181     8187     8186     8175     8160     8141     8121 
    8110     8101     8095     8095     8093     8094     8101     8106 
    8110     8105     8100     8100     8089     8067     8047     8016 
    7969     7927     7894     7858     7828     7807     7788     7784 
    7793     7805     7830     7875     7927     7975     8024     8074 
    8127     8172     8210     8255     8297     8322     8345     8364 
    8370     8372     8370     8351     8320     8275     8222     8164 
    8098     8033     7975     7927     7890     7859     7830     7813 
    7816     7821     7828     7842     7854     7857     7854     7854 
    7851     7848     7851     7857     7859     7862     7867     7874 
    7897     7925     7940     7965     8002     8020     8020     8028 
    8029     8016     8004     7982     7955     7931     7906     7892 
    7888     7893     7904     7912     7932     7971     8009     8040 
    8075     8109     8136     8166     8195     8220     8232     8241 
    8257     8266     8266     8272     8279     8274     8271     8270 
    8264     8268     8262     8236     8218     8209     8194     8179 
    8170     8167     8174     8187     8202     8217     8230     8243 
    8260     8271     8276     8280     8282     8280     8276     8268 
    8248     8224     8209     8190     8163     8135     8110     8094 
    8089     8091     8095     8102     8122     8148     8164     8171 
    8175     8168     8147     8121     8094     8068     8037     8006 
    7971     7931     7890     7838     7786     7751     7719     7680 
    7650     7639     7639     7647     7662     7686     7717     7738 
    7755     7776     7785     7790     7800     7807     7808     7808 
    7800     7797     7815     7824     7815     7807     7798     7780 
    7754     7734     7717     7695     7674     7662     7642     7615 
    7612     7626     7628     7638     7651     7670     7715     7761 
    7796     7836     7874     7902     7919     7924     7933     7935 
