Origin Time       2025/01/13 21:19:00
Lat.              31.8
Long.             131.6
Depth. (km)       30
Mag.              6.9
Station Code      YMG018
Station Lat.      33.9091
Station Long.     132.3559
Station Height(m) 3
Record Time       2025/01/13 21:20:23
Sampling Freq(Hz) 100Hz
Duration Time(s)  111
Dir.              N-S
Scale Factor      7845(gal)/8223790
Max. Acc. (gal)   12.232
Last Correction   2025/01/13 21:20:23
Memo.             
[...]
   -8156    -7928    -7755    -7674    -7680    -7758    -7869    -7940 
   -7963    -7990    -8025    -8021    -7940    -7778    -7557    -7311 
   -7063    -6835    -6660    -6552    -6492    -6509    -6627    -6754 
   -6814    -6875    -6995    -7080    -7084    -7141    -7342    -7616 
   -7915    -8255    -8596    -8853    -9031    -9212    -9408    -9531 
   -9547    -9549    -9586    -9601    -9593    -9606    -9622    -9598 
   -9549    -9504    -9396    -9163    -8883    -8640    -8430    -8233 
   -8058    -7906    -7759    -7616    -7488    -7360    -7213    -7065 
   -6952    -6893    -6879    -6891    -6891    -6813    -6658    -6502 
   -6413    -6420    -6511    -6652    -6833    -7052    -7275    -7446 
   -7573    -7744    -7985    -8206    -8372    -8530    -8673    -8721 
   -8658    -8525    -8326    -8073    -7823    -7589    -7379    -7252 
   -7221    -7223    -7240    -7323    -7477    -7615    -7711    -7803 
   -7882    -7921    -7938    -7979    -8090    -8284    -8554    -8862 
   -9134    -9313    -9397    -9391    -9336    -9286    -9278    -9329 
   -9468    -9672    -9895   -10088   -10169   -10120   -10002    -9815 
   -9513    -9126    -8742    -8384    -8004    -7574    -7117    -6648 
   -6204    -5853    -5653    -5576    -5553    -5540    -5508    -5432 
   -5312    -5175    -5044    -4915    -4756    -4579    -4469    -4495 
   -4631    -4853    -5147    -5476    -5814    -6176    -6577    -6997 
   -7407    -7820    -8274    -8784    -9313    -9810   -10246   -10597 
  -10831   -10948   -10999   -11074   -11213   -11381   -11519   -11597 
  -11557   -11344   -11016   -10658   -10285    -9933    -9655    -9401 
   -9126    -8891    -8699    -8433    -8019    -7493    -6929    -6380 
   -5880    -5456    -5123    -4887    -4729    -4623    -4577    -4607 
   -4693    -4792    -4895    -5035    -5240    -5520    -5861    -6232 
   -6598    -6937    -7267    -7619    -8023    -8479    -8946    -9364 
   -9693    -9907   -10017   -10038   -10004    -9954    -9933    -9980 
  -10122   -10309   -10458   -10559   -10635   -10627   -10505   -10327 
  -10147    -9981    -9826    -9682    -9516    -9294    -9030    -8722 
   -8325    -7844    -7330    -6844    -6446    -6164    -6026    -6038 
   -6131    -6250    -6372    -6436    -6419    -6403    -6469    -6586 
   -6677    -6704    -6666    -6574    -6439    -6289    -6135    -5981 
   -5853    -5807    -5872    -6014    -6178    -6363    -6605    -6924 
   -7310    -7716    -8112    -8475    -8752    -8903    -8989    -9080 
   -9198    -9343    -9512    -9682    -9784    -9748    -9566    -9301 
   -9051    -8888    -8833    -8872    -8939    -8976    -8985    -8972 
   -8903    -8784    -8646    -8480    -8268    -8078    -7997    -7977 
   -7906    -7759    -7599    -7488    -7450    -7476    -7541    -7577 
   -7543    -7454    -7329    -7210    -7187    -7279    -7399    -7477 
   -7523    -7514    -7418    -7277    -7148    -7052    -7011    -7055 
   -7173    -7315    -7462    -7619    -7727    -7739    -7697    -7645 
   -7611    -7647    -7769    -7924    -8074    -8225    -8371    -8461 
   -8490    -8482    -8419    -8279    -8118    -8054    -8120    -8266 
   -8468    -8742    -9076    -9421    -9702    -9844    -9842    -9733 
   -9532    -9278    -9028    -8804    -8614    -8502    -8479    -8505 
   -8523    -8499    -8421    -8298    -8164    -8048    -7939    -7807 
   -7627    -7425    -7250    -7075    -6883    -6737    -6670    -6691 
   -6795    -6885    -6885    -6816    -6705    -6594    -6551    -6589 
   -6670    -6812    -7028    -7261    -7456    -7585    -7668    -7739 
   -7811    -7885    -7978    -8074    -8143    -8212    -8302    -8379 
   -8449    -8534    -8587    -8634    -8773    -9032    -9354    -9651 
   -9879   -10042   -10112   -10053    -9882    -9660    -9470    -9348 
   -9239    -9059    -8788    -8475    -8139    -7757    -7371    -7063 
   -6864    -6789    -6844    -6966    -7007    -6868    -6602    -6305 
   -5995    -5688    -5408    -5134    -4878    -4698    -4635    -4695 
   -4889    -5248    -5755    -6338    -6939    -7531    -8083    -8563 
   -8953    -9265    -9532    -9769    -9960   -10095   -10188   -10237 
  -10242   -10216   -10166   -10154   -10226   -10312   -10350   -10393 
  -10496   -10624   -10743   -10874   -10991   -10979   -10779   -10401 
   -9842    -9140    -8398    -7692    -7044    -6481    -6038    -5749 
   -5626    -5630    -5697    -5782    -5863    -5917    -5931    -5907 
   -5854    -5796    -5714    -5543    -5266    -4935    -4603    -4302 
   -4060    -3893    -3807    -3828    -3985    -4302    -4795    -5445 
   -6199    -6997    -7794    -8527    -9107    -9490    -9728    -9898 
  -10021   -10076   -10081   -10102   -10162   -10227   -10266   -10292 
  -10304   -10282   -10245   -10239   -10277   -10366   -10474   -10539 
  -10558   -10534   -10430   -10234    -9981    -9721    -9451    -9139 
   -8792    -8445    -8102    -7736    -7342    -6963    -6606    -6251 
   -5960    -5809    -5780    -5833    -5964    -6134    -6276    -6365 
   -6427    -6469    -6466    -6419    -6378    -6357    -6292    -6174 
   -6130    -6228    -6381    -6493    -6596    -6708    -6789    -6872 
   -7036    -7272    -7543    -7847    -8194    -8568    -8945    -9316 
   -9660    -9933   -10110   -10184   -10224   -10323   -10467   -10600 
  -10723   -10849   -10951   -10986   -10939   -10797   -10565   -10282 
   -9969    -9641    -9351    -9116    -8895    -8691    -8540    -8402 
   -8187    -7866    -7477    -7084    -6764    -6558    -6421    -6276 
   -6077    -5856    -5656    -5460    -5233    -5001    -4806    -4631 
   -4495    -4472    -4572    -4770    -5077    -5486    -5957    -6435 
   -6886    -7317    -7686    -7911    -7996    -8027    -8059    -8143 
   -8320    -8545    -8722    -8834    -8947    -9112    -9339    -9653 
  -10060   -10525   -11011   -11489   -11946   -12352   -12649   -12838 
  -12969   -13020   -12920   -12668   -12291   -11807   -11259   -10721 
  -10242    -9849    -9574    -9402    -9255    -9036    -8703    -8241 
   -7685    -7083    -6477    -5921    -5445    -5020    -4617    -4230 
   -3819    -3342    -2844    -2388    -1999    -1698    -1518    -1468 
   -1536    -1736    -2096    -2604    -3195    -3813    -4422    -5003 
   -5570    -6201    -6970    -7866    -8808    -9667   -10326   -10795 
  -11196   -11591   -11977   -12356   -12685   -12887   -12969   -13024 
  -13088   -13111   -13036   -12885   -12722   -12610   -12607   -12733 
  -12901   -12968   -12816   -12394   -11711   -10827    -9852    -8893 
   -7958    -7034    -6177    -5405    -4676    -3979    -3342    -2795 
   -2371    -2083    -1923    -1884    -1953    -2126    -2396    -2739 
   -3113    -3477    -3811    -4087    -4276    -4376    -4449    -4542 
   -4699    -4996    -5486    -6129    -6841    -7568    -8282    -8955 
   -9568   -10110   -10561   -10912   -11225   -11572   -11977   -12436 
  -12914   -13333   -13641   -13817   -13853   -13745   -13513   -13201 
  -12842   -12459   -12097   -11805   -11599   -11462   -11383   -11308 
  -11113   -10710   -10158    -9541    -8895    -8239    -7601    -6983 
   -6332    -5621    -4872    -4121    -3433    -2875    -2443    -2056 
   -1647    -1267    -1007     -880     -891    -1042    -1286    -1597 
   -1971    -2351    -2705    -3088    -3518    -3925    -4311    -4765 
   -5306    -5891    -6508    -7144    -7746    -8244    -8640    -9032 
   -9485    -9971   -10457   -10886   -11205   -11414   -11533   -11595 
  -11642   -11695   -11753   -11785   -11720   -11479   -11026   -10450 
   -9900    -9433    -9038    -8735    -8522    -8337    -8105    -7785 
   -7407    -7022    -6642    -6264    -5931    -5695    -5553    -5487 
   -5501    -5557    -5586    -5617    -5730    -5949    -6249    -6583 
   -6868    -7087    -7304    -7557    -7843    -8129    -8328    -8410 
   -8415    -8361    -8239    -8087    -8006    -8068    -8271    -8581 
   -8924    -9231    -9499    -9729    -9899   -10031   -10158   -10282 
  -10393   -10492   -10561   -10546   -10399   -10119    -9763    -9437 
   -9227    -9113    -9008    -8866    -8734    -8658    -8635    -8637 
   -8607    -8487    -8266    -8005    -7790    -7632    -7495    -7364 
   -7245    -7177    -7209    -7315    -7457    -7618    -7792    -7989 
   -8221    -8518    -8846    -9112    -9323    -9535    -9741    -9953 
  -10212   -10455   -10589   -10582   -10467   -10285   -10071    -9867 
   -9686    -9490    -9285    -9115    -8995    -8916    -8889    -8945 
   -9054    -9147    -9196    -9209    -9162    -9042    -8895    -8743 
   -8565    -8349    -8106    -7835    -7523    -7164    -6790    -6490 
   -6309    -6227    -6230    -6328    -6473    -6551    -6527    -6431 
   -6254    -5984    -5682    -5445    -5309    -5259    -5271    -5319 
   -5371    -5394    -5362    -5297    -5258    -5281    -5402    -5671 
   -6123    -6750    -7474    -8185    -8833    -9396    -9830   -10168 
  -10490   -10783   -10993   -11117   -11184   -11244   -11321   -11400 
  -11450   -11466   -11449   -11379   -11252   -11136   -11103   -11148 
  -11190   -11130   -10885   -10426    -9825    -9185    -8510    -7747 
   -6947    -6180    -5439    -4714    -4044    -3447    -2918    -2434 
   -1979    -1609    -1371    -1248    -1223    -1262    -1317    -1387 
   -1502    -1696    -1957    -2219    -2470    -2760    -3119    -3558 
   -4110    -4811    -5616    -6439    -7242    -7989    -8621    -9131 
   -9580   -10045   -10546   -11052   -11546   -11997   -12347   -12564 
  -12664   -12672   -12631   -12610   -12665   -12810   -13023   -13246 
  -13389   -13375   -13153   -12721   -12125   -11453   -10787   -10181 
   -9637    -9128    -8618    -8078    -7488    -6848    -6203    -5613 
   -5131    -4793    -4575    -4428    -4317    -4241    -4222    -4240 
   -4244    -4232    -4230    -4256    -4309    -4405    -4604    -4951 
   -5374    -5760    -6102    -6444    -6813    -7209    -7592    -7924 
   -8221    -8482    -8675    -8796    -8874    -8916    -8896    -8822 
   -8729    -8614    -8453    -8267    -8124    -8073    -8093    -8127 
   -8149    -8187    -8263    -8368    -8494    -8653    -8847    -9043 
   -9208    -9337    -9408    -9373    -9220    -8985    -8725    -8499 
   -8329    -8225    -8191    -8203    -8221    -8209    -8166    -8116 
   -8059    -8028    -8086    -8182    -8221    -8198    -8155    -8097 
   -8032    -7996    -7967    -7866    -7680    -7466    -7248    -7029 
   -6880    -6895    -7078    -7362    -7715    -8110    -8484    -8811 
   -9136    -9458    -9737    -9987   -10226   -10413   -10489   -10442 
  -10293   -10072    -9821    -9583    -9381    -9185    -8957    -8721 
   -8514    -8309    -8056    -7762    -7457    -7165    -6928    -6762 
   -6609    -6388    -6033    -5559    -5047    -4531    -4035    -3622 
   -3337    -3195    -3188    -3314    -3589    -3990    -4473    -5054 
   -5736    -6475    -7210    -7869    -8429    -8931    -9423    -9911 
  -10369   -10783   -11163   -11500   -11815   -12150   -12530   -12924 
  -13278   -13586   -13865   -14076   -14143   -14041   -13772   -13343 
  -12787   -12152   -11438   -10624    -9741    -8824    -7850    -6787 
   -5684    -4603    -3572    -2604    -1730    -1026     -513     -175 
      -1       20      -86     -278     -473     -608     -711     -855 
   -1107    -1544    -2216    -3094    -4113    -5196    -6259    -7237 
   -8098    -8881    -9647   -10413   -11188   -11966   -12715   -13406 
  -14029   -14596   -15124   -15579   -15889   -16031   -16048   -15975 
  -15797   -15492   -15060   -14543   -13991   -13404   -12752   -12060 
  -11381   -10737   -10111    -9470    -8791    -8101    -7470    -6949 
   -6511    -6102    -5714    -5354    -5039    -4783    -4572    -4382 
   -4194    -4009    -3807    -3557    -3300    -3111    -3014    -3005 
   -3119    -3384    -3758    -4162    -4554    -4919    -5236    -5544 
   -5914    -6336    -6782    -7267    -7809    -8383    -8943    -9464 
   -9950   -10384   -10736   -10986   -11126   -11200   -11271   -11334 
  -11335   -11268   -11188   -11103   -11013   -10974   -10971   -10916 
  -10774   -10552   -10274    -9973    -9687    -9450    -9283    -9189 
   -9170    -9188    -9162    -9051    -8829    -8506    -8172    -7875 
   -7564    -7202    -6824    -6500    -6257    -6084    -6007    -6043 
   -6146    -6270    -6373    -6408    -6338    -6150    -5869    -5584 
   -5387    -5305    -5298    -5314    -5323    -5332    -5378    -5440 
   -5428    -5343    -5305    -5404    -5622    -5883    -6133    -6378 
   -6640    -6952    -7318    -7678    -7982    -8243    -8518    -8827 
   -9144    -9462    -9796   -10147   -10497   -10828   -11136   -11442 
  -11763   -12110   -12492   -12895   -13275   -13599   -13834   -13952 
  -13921   -13707   -13302   -12739   -12085   -11391   -10651    -9853 
   -8999    -8070    -7052    -5987    -4941    -3978    -3140    -2413 
   -1728    -1035     -363      256      792     1186     1429     1559 
    1576     1482     1309     1031      581      -67     -931    -1996 
   -3206    -4480    -5767    -7075    -8409    -9710   -10932   -12070 
  -13128   -14131   -15149   -16202   -17172   -17928   -18458   -18819 
  -19051   -19187   -19211   -19091   -18802   -18314   -17602   -16680 
  -15593   -14374   -13036   -11608   -10146    -8715    -7348    -6022 
   -4704    -3369    -2033     -738      477     1598     2609     3476 
    4148     4606     4860     4889     4684     4328     3927     3470 
    2880     2108     1166      128     -942    -2037    -3173    -4365 
   -5617    -6901    -8164    -9356   -10458   -11477   -12428   -13289 
  -14064   -14782   -15468   -16132   -16808   -17467   -17979   -18252 
  -18256   -17984   -17481   -16822   -16044   -15191   -14372   -13674 
  -13089   -12540   -11982   -11453   -10983   -10573   -10195    -9783 
   -9301    -8779    -8251    -7734    -7264    -6859    -6486    -6065 
   -5570    -5067    -4635    -4313    -4109    -3979    -3892    -3892 
   -4008    -4202    -4437    -4685    -4920    -5136    -5328    -5482 
   -5606    -5719    -5819    -5904    -5980    -6039    -6076    -6115 
   -6169    -6224    -6292    -6399    -6556    -6789    -7133    -7585 
   -8121    -8710    -9313    -9887   -10395   -10817   -11169   -11484 
  -11808   -12191   -12640   -13105   -13536   -13903   -14181   -14362 
  -14446   -14418   -14270   -14033   -13757   -13464   -13144   -12780 
  -12330   -11739   -11011   -10219    -9420    -8626    -7827    -7017 
   -6195    -5360    -4533    -3715    -2903    -2134    -1460     -907 
    -473     -166       18       98       76      -51     -249     -480 
    -783    -1205    -1744    -2374    -3068    -3774    -4429    -5031 
   -5621    -6220    -6832    -7446    -8031    -8580    -9132    -9709 
  -10288   -10840   -11365   -11870   -12312   -12634   -12818   -12847 
  -12731   -12537   -12341   -12213   -12158   -12132   -12109   -12081 
  -12015   -11880   -11669   -11416   -11149   -10898   -10685   -10486 
  -10243    -9894    -9444    -8941    -8398    -7803    -7142    -6405 
   -5563    -4638    -3703    -2820    -2025    -1331     -756     -317 
     -13      190      307      334      255       33     -365     -946 
   -1663    -2415    -3154    -3913    -4703    -5535    -6424    -7338 
   -8244    -9155   -10071   -10952   -11759   -12506   -13213   -13844 
  -14374   -14831   -15207   -15487   -15676   -15762   -15730   -15592 
  -15372   -15059   -14634   -14122   -13552   -12915   -12183   -11395 
  -10624    -9894    -9220    -8633    -8109    -7595    -7047    -6465 
   -5888    -5340    -4838    -4415    -4075    -3781    -3518    -3314 
   -3211    -3215    -3312    -3483    -3678    -3840    -3974    -4108 
   -4245    -4414    -4661    -4993    -5417    -5954    -6588    -7258 
   -7924    -8571    -9186    -9744   -10238   -10677   -11053   -11354 
  -11570   -11692   -11715   -11659   -11564   -11491   -11504   -11616 
  -11780   -11946   -12110   -12309   -12526   -12735   -12935   -13101 
  -13182   -13139   -12958   -12636   -12151   -11515   -10771    -9968 
   -9143    -8359    -7670    -7052    -6439    -5811    -5179    -4552 
   -3939    -3353    -2783    -2223    -1684    -1179     -741     -423 
    -233     -145     -135     -206     -361     -594     -896    -1259 
   -1694    -2223    -2843    -3551    -4338    -5158    -5964    -6739 
   -7473    -8149    -8777    -9416   -10089   -10783   -11518   -12318 
  -13116   -13824   -14427   -14940   -15354   -15658   -15863   -15981 
  -15993   -15890   -15688   -15369   -14886   -14237   -13495   -12729 
  -11959   -11184   -10401    -9644    -8934    -8264    -7635    -7055 
   -6505    -5958    -5410    -4873    -4334    -3778    -3222    -2702 
   -2255    -1922    -1722    -1628    -1624    -1742    -1985    -2290 
   -2614    -2978    -3415    -3946    -4550    -5197    -5850    -6467 
   -7021    -7495    -7873    -8151    -8344    -8480    -8594    -8702 
   -8831    -8986    -9143    -9296    -9467    -9684    -9965   -10280 
  -10588   -10858   -11041   -11102   -11051   -10898   -10651   -10327 
   -9963    -9605    -9266    -8954    -8710    -8544    -8424    -8343 
   -8297    -8266    -8243    -8222    -8195    -8162    -8104    -8023 
   -7939    -7866    -7805    -7774    -7766    -7754    -7708    -7592 
   -7356    -6984    -6543    -6110    -5710    -5355    -5062    -4849 
   -4718    -4666    -4700    -4816    -5001    -5256    -5607    -6042 
   -6515    -7003    -7510    -8013    -8499    -8989    -9467    -9882 
  -10222   -10515   -10755   -10928   -11056   -11155   -11211   -11229 
  -11244   -11294   -11391   -11511   -11626   -11736   -11835   -11890 
  -11878   -11772   -11561   -11256   -10856   -10355    -9751    -9074 
   -8394    -7766    -7198    -6666    -6161    -5703    -5305    -4980 
   -4745    -4554    -4360    -4183    -4064    -4028    -4058    -4104 
   -4125    -4090    -3998    -3877    -3762    -3689    -3674    -3717 
   -3836    -4058    -4378    -4745    -5107    -5449    -5787    -6133 
   -6497    -6889    -7319    -7793    -8274    -8730    -9161    -9566 
   -9952   -10314   -10644   -10951   -11254   -11584   -11931   -12267 
  -12587   -12880   -13132   -13355   -13545   -13676   -13706   -13610 
  -13417   -13171   -12872   -12501   -12087   -11650   -11157   -10589 
   -9987    -9387    -8779    -8141    -7477    -6821    -6212    -5655 
   -5142    -4666    -4206    -3755    -3361    -3057    -2832    -2690 
   -2660    -2741    -2889    -3045    -3199    -3372    -3589    -3875 
   -4230    -4653    -5162    -5760    -6430    -7148    -7866    -8548 
   -9181    -9757   -10274   -10721   -11083   -11385   -11646   -11862 
  -12040   -12190   -12290   -12294   -12182   -11973   -11695   -11360 
  -11018   -10756   -10601   -10490   -10346   -10149    -9894    -9560 
   -9157    -8722    -8259    -7771    -7272    -6786    -6335    -5921 
   -5540    -5192    -4870    -4592    -4380    -4243    -4193    -4240 
   -4374    -4588    -4881    -5231    -5620    -6045    -6523    -7047 
   -7578    -8082    -8550    -9004    -9443    -9823   -10116   -10318 
  -10450   -10546   -10620   -10660   -10655   -10621   -10592   -10569 
  -10546   -10511   -10424   -10242    -9958    -9618    -9242    -8814 
