Origin Time       2025/01/13 21:19:00
Lat.              31.8
Long.             131.6
Depth. (km)       30
Mag.              6.9
Station Code      YMG003
Station Lat.      34.3830
Station Long.     131.5999
Station Height(m) 289
Record Time       2025/01/13 21:20:57
Sampling Freq(Hz) 100Hz
Duration Time(s)  60
Dir.              E-W
Scale Factor      7845(gal)/8223790
Max. Acc. (gal)   1.482
Last Correction   2025/01/13 21:20:58
Memo.             
[...]
    2290     2255     2218     2178     2147     2141     2153     2168 
    2174     2164     2135     2101     2069     2039     2022     2025 
    2039     2054     2062     2062     2069     2091     2127     2172 
    2214     2239     2257     2277     2293     2296     2289     2280 
    2273     2268     2265     2262     2261     2265     2273     2274 
    2273     2269     2257     2242     2228     2220     2227     2235 
    2234     2226     2222     2231     2247     2261     2269     2277 
    2292     2303     2297     2280     2263     2255     2257     2249 
    2214     2160     2110     2070     2053     2065     2092     2130 
    2172     2218     2261     2290     2300     2297     2282     2255 
    2222     2178     2126     2072     2015     1952     1895     1860 
    1845     1849     1877     1935     2015     2096     2166     2216 
    2245     2257     2246     2208     2160     2115     2081     2058 
    2050     2062     2095     2142     2199     2262     2328     2380 
    2415     2432     2424     2394     2362     2332     2316     2315 
    2307     2284     2257     2236     2228     2228     2234     2249 
    2266     2276     2274     2268     2268     2288     2323     2361 
    2390     2408     2412     2416     2428     2439     2444     2454 
    2471     2493     2500     2479     2447     2427     2415     2403 
    2393     2385     2377     2380     2392     2409     2435     2462 
    2473     2469     2466     2466     2459     2446     2431     2405 
    2370     2334     2300     2270     2243     2216     2182     2145 
    2118     2103     2095     2089     2092     2099     2107     2122 
    2135     2147     2162     2173     2170     2157     2139     2123 
    2110     2100     2097     2097     2093     2089     2091     2100 
    2116     2133     2150     2172     2196     2220     2236     2231 
    2212     2192     2174     2161     2155     2157     2158     2160 
    2162     2165     2164     2162     2172     2187     2203     2212 
    2222     2231     2230     2219     2209     2205     2204     2204 
    2212     2219     2214     2193     2173     2166     2174     2192 
    2216     2239     2255     2259     2247     2228     2215     2218 
    2235     2261     2273     2266     2250     2227     2204     2181 
    2165     2157     2150     2127     2092     2058     2038     2037 
    2054     2087     2124     2166     2208     2245     2266     2266 
    2249     2231     2222     2214     2204     2200     2214     2247 
    2295     2343     2385     2421     2458     2485     2489     2465 
    2425     2382     2339     2300     2265     2235     2214     2203 
    2205     2223     2243     2254     2254     2239     2205     2160 
    2114     2064     2011     1966     1934     1912     1904     1910 
    1930     1964     2003     2042     2070     2087     2100     2110 
    2123     2151     2189     2223     2245     2257     2269     2288 
    2313     2335     2358     2385     2408     2416     2397     2365 
    2344     2340     2359     2393     2420     2439     2458     2478 
    2494     2505     2515     2531     2544     2540     2513     2474 
    2432     2390     2353     2328     2317     2316     2311     2293 
    2265     2234     2200     2155     2104     2054     2014     1989 
    1975     1956     1925     1894     1883     1899     1937     1987 
    2039     2085     2127     2166     2203     2236     2272     2309 
    2343     2380     2424     2466     2502     2539     2574     2604 
    2625     2632     2617     2594     2585     2579     2570     2558 
    2544     2528     2511     2493     2463     2425     2389     2351 
    2313     2288     2273     2262     2265     2280     2301     2326 
    2340     2339     2326     2297     2268     2243     2219     2192 
    2180     2189     2207     2220     2228     2227     2204     2166 
    2122     2076     2038     2015     2000     1992     1992     2000 
    2008     2011     2016     2031     2050     2074     2103     2134 
    2162     2188     2207     2214     2205     2201     2218     2242 
    2254     2262     2268     2273     2280     2278     2261     2231 
    2191     2138     2069     1999     1933     1867     1811     1780 
    1779     1806     1854     1915     1985     2061     2122     2157 
    2174     2187     2199     2212     2224     2245     2278     2311 
    2331     2336     2335     2344     2369     2397     2425     2455 
    2482     2501     2508     2501     2478     2443     2394     2332 
    2272     2220     2174     2139     2112     2091     2085     2103 
    2135     2189     2266     2349     2420     2471     2496     2502 
    2497     2485     2481     2485     2479     2457     2432     2416 
    2408     2404     2401     2400     2403     2405     2404     2403 
    2400     2385     2365     2353     2354     2365     2382     2401 
    2421     2434     2442     2447     2444     2436     2425     2419 
    2421     2431     2451     2469     2454     2408     2343     2262 
    2178     2118     2087     2080     2087     2100     2110     2107 
    2093     2084     2077     2070     2065     2052     2027     1998 
    1968     1949     1945     1944     1949     1966     1992     2012 
    2022     2015     2007     2012     2029     2053     2089     2126 
    2154     2177     2196     2201     2192     2174     2158     2158 
    2173     2197     2231     2272     2315     2347     2365     2374 
    2386     2394     2397     2396     2385     2363     2338     2313 
    2289     2277     2281     2293     2303     2300     2296     2296 
    2290     2270     2243     2224     2219     2215     2197     2174 
    2165     2169     2181     2196     2203     2205     2219     2242 
    2263     2284     2309     2349     2396     2440     2474     2505 
    2532     2550     2554     2546     2525     2506     2494     2489 
    2492     2500     2498     2488     2474     2469     2470     2475 
    2477     2477     2469     2454     2432     2405     2381     2351 
    2315     2277     2239     2193     2137     2073     2011     1966 
    1935     1907     1887     1876     1873     1880     1892     1910 
    1939     1975     2002     2029     2057     2077     2083     2064 
    2027     1984     1946     1929     1939     1983     2061     2157 
    2254     2336     2385     2405     2403     2377     2323     2246 
    2160     2083     2026     1987     1966     1971     2007     2076 
    2155     2232     2301     2361     2404     2421     2409     2377 
    2343     2303     2259     2220     2184     2154     2138     2141 
    2170     2222     2285     2354     2417     2458     2485     2502 
    2501     2485     2461     2439     2431     2439     2454     2470 
    2474     2451     2404     2355     2323     2304     2282     2261 
    2249     2257     2281     2303     2322     2347     2373     2384 
    2382     2370     2339     2296     2253     2216     2189     2166 
    2138     2107     2076     2042     2010     1985     1975     1965 
    1953     1941     1927     1906     1883     1864     1849     1848 
    1857     1863     1852     1831     1809     1792     1794     1822 
    1873     1949     2043     2141     2222     2290     2349     2386 
    2405     2408     2401     2393     2388     2386     2390     2388 
    2367     2335     2301     2276     2262     2255     2261     2274 
    2280     2274     2263     2245     2235     2234     2234     2239 
    2249     2255     2258     2254     2242     2230     2220     2212 
    2199     2182     2168     2147     2120     2092     2061     2029 
    2006     2000     2008     2026     2042     2062     2088     2110 
    2120     2127     2130     2126     2111     2097     2100     2127 
    2178     2251     2347     2463     2593     2716     2813     2882 
    2932     2956     2947     2899     2824     2735     2651     2592 
    2562     2554     2555     2566     2582     2601     2621     2648 
    2689     2747     2813     2862     2876     2856     2810     2745 
    2673     2600     2521     2442     2370     2301     2234     2184 
    2166     2178     2224     2296     2367     2413     2420     2394 
    2344     2282     2220     2164     2115     2074     2039     2015 
    1993     1973     1966     1979     2008     2043     2066     2064 
    2038     2003     1964     1918     1860     1792     1729     1680 
    1647     1630     1640     1672     1719     1773     1822     1853 
    1869     1879     1891     1908     1921     1925     1921     1907 
    1892     1887     1892     1917     1956     2002     2045     2080 
    2108     2128     2137     2139     2147     2165     2189     2208 
    2203     2176     2142     2114     2092     2076     2062     2060 
    2079     2110     2146     2184     2215     2232     2234     2227 
    2209     2189     2169     2143     2111     2080     2047     2016 
    1998     2000     2020     2053     2087     2114     2133     2134 
    2099     2033     1960     1902     1867     1852     1846     1841 
    1836     1837     1850     1894     1964     2042     2119     2195 
    2272     2347     2412     2463     2506     2539     2558     2567 
    2566     2558     2551     2554     2567     2585     2610     2635 
    2660     2697     2744     2793     2826     2849     2868     2884 
    2897     2897     2895     2897     2890     2871     2839     2794 
    2741     2693     2662     2639     2613     2587     2559     2525 
    2496     2477     2465     2454     2442     2430     2415     2396 
    2378     2362     2342     2311     2263     2208     2161     2127 
    2100     2073     2043     2012     1981     1957     1945     1949 
    1966     2000     2046     2100     2149     2182     2208     2235 
    2261     2274     2268     2246     2218     2193     2187     2191 
    2205     2234     2269     2307     2349     2388     2424     2461 
    2498     2538     2566     2581     2593     2610     2624     2621 
    2600     2560     2508     2447     2382     2324     2282     2261 
    2254     2253     2258     2261     2250     2241     2243     2249 
    2261     2274     2274     2262     2239     2195     2127     2054 
    1987     1926     1877     1836     1795     1757     1725     1710 
    1719     1756     1826     1933     2062     2197     2316     2412 
    2485     2542     2582     2608     2617     2605     2560     2497 
    2431     2369     2316     2286     2278     2285     2303     2319 
    2320     2309     2292     2269     2242     2207     2160     2106 
    2054     2018     2000     1999     2008     2019     2031     2045 
    2050     2039     2007     1965     1918     1869     1818     1768 
    1722     1691     1672     1660     1653     1648     1642     1648 
    1664     1696     1746     1806     1869     1937     1991     2019 
    2030     2030     2030     2042     2060     2073     2085     2103 
    2124     2145     2162     2184     2214     2254     2299     2339 
    2371     2389     2390     2376     2351     2327     2316     2322 
    2336     2359     2384     2398     2398     2388     2380     2378 
    2381     2381     2378     2373     2354     2328     2309     2303 
    2309     2334     2358     2366     2355     2317     2245     2146 
    2042     1941     1850     1773     1709     1652     1598     1545 
    1502     1472     1456     1451     1459     1490     1545     1630 
    1734     1830     1910     1987     2057     2111     2143     2155 
    2157     2150     2141     2128     2115     2103     2092     2077 
    2062     2042     2011     1976     1946     1930     1923     1918 
    1919     1939     1979     2035     2100     2166     2232     2289 
    2324     2342     2349     2344     2338     2343     2361     2396 
    2443     2488     2524     2550     2562     2569     2571     2560 
    2533     2497     2458     2427     2408     2400     2412     2446 
    2488     2532     2573     2612     2641     2662     2671     2667 
    2641     2594     2536     2478     2427     2384     2349     2326 
    2320     2331     2349     2365     2378     2396     2409     2404 
    2382     2354     2338     2336     2334     2326     2313     2284 
    2239     2189     2141     2100     2081     2087     2110     2154 
    2220     2304     2397     2498     2594     2668     2716     2732 
    2714     2677     2631     2573     2505     2430     2353     2284 
    2232     2197     2185     2199     2228     2261     2292     2309 
    2315     2322     2332     2357     2403     2467     2540     2619 
    2693     2759     2822     2875     2907     2925     2944     2972 
    3013     3065     3129     3203     3283     3357     3422     3473 
    3507     3519     3516     3493     3447     3369     3257     3130 
    3002     2882     2791     2731     2695     2682     2675     2660 
    2640     2610     2552     2467     2380     2293     2209     2133 
    2064     2007     1976     1972     1985     2011     2046     2079 
    2099     2104     2093     2062     2008     1945     1888     1844 
    1819     1819     1836     1860     1885     1902     1903     1890 
    1865     1838     1818     1806     1809     1825     1848     1873 
    1899     1915     1907     1863     1787     1691     1588     1486 
    1391     1306     1233     1171     1117     1066     1012      946 
     876      811      750      703      681      679      696      749 
     830      919     1011     1094     1163     1216     1252     1278 
    1302     1333     1374     1429     1491     1557     1626     1694 
    1763     1829     1885     1933     1968     1995     2018     2037 
    2058     2084     2107     2128     2151     2173     2189     2204 
    2214     2214     2214     2216     2222     2228     2238     2254 
    2280     2316     2358     2396     2421     2434     2450     2488 
    2544     2623     2713     2803     2899     2998     3083     3146 
    3191     3226     3254     3272     3285     3306     3342     3395 
    3457     3523     3581     3620     3643     3654     3649     3632 
    3607     3564     3505     3446     3385     3327     3271     3215 
    3160     3098     3025     2938     2843     2748     2663     2598 
    2554     2517     2485     2462     2454     2450     2448     2455 
    2465     2474     2486     2501     2519     2542     2570     2601 
    2631     2659     2686     2710     2731     2741     2733     2698 
    2637     2550     2443     2327     2215     2116     2034     1960 
    1888     1822     1763     1706     1652     1597     1533     1466 
    1398     1332     1279     1244     1217     1201     1198     1202 
    1219     1254     1317     1402     1499     1599     1688     1757 
    1813     1863     1907     1946     1979     2003     2018     2034 
    2060     2092     2133     2181     2231     2282     2323     2336 
    2334     2327     2316     2300     2276     2243     2214     2201 
    2208     2224     2246     2259     2255     2238     2209     2176 
    2143     2110     2074     2039     1996     1948     1899     1854 
    1826     1817     1811     1807     1802     1787     1769     1755 
    1742     1728     1719     1723     1725     1723     1718     1710 
    1714     1736     1760     1783     1814     1861     1934     2026 
    2126     2223     2308     2381     2442     2486     2517     2543 
    2569     2590     2610     2628     2641     2660     2686     2714 
    2740     2754     2754     2744     2728     2714     2702     2694 
    2695     2698     2694     2691     2689     2679     2658     2623 
    2573     2505     2431     2347     2250     2154     2065     1971 
    1872     1782     1703     1634     1579     1539     1513     1495 
    1476     1455     1426     1395     1374     1370     1382     1409 
    1439     1460     1476     1489     1494     1503     1518     1533 
    1549     1557     1543     1510     1467     1412     1358     1318 
    1290     1270     1260     1263     1279     1310     1344     1372 
    1391     1397     1389     1368     1337     1306     1289     1297 
    1331     1389     1467     1556     1637     1705     1759     1795 
    1810     1811     1809     1803     1802     1814     1836     1854 
    1872     1898     1937     1987     2042     2093     2149     2215 
    2280     2331     2373     2411     2444     2485     2532     2586 
    2648     2713     2778     2845     2913     2975     3029     3071 
    3091     3095     3076     3024     2949     2864     2771     2681 
    2598     2532     2478     2434     2405     2394     2394     2407 
    2439     2488     2546     2602     2654     2694     2736     2794 
    2867     2952     3049     3149     3241     3329     3408     3474 
    3527     3565     3584     3592     3586     3569     3542     3514 
    3484     3450     3412     3373     3330     3275     3213     3152 
    3090     3019     2955     2895     2832     2764     2689     2602 
    2517     2438     2365     2308     2269     2235     2203     2173 
    2138     2096     2050     2006     1962     1919     1868     1807 
    1752     1706     1671     1652     1649     1649     1641     1629 
    1617     1597     1576     1570     1574     1580     1595     1615 
    1637     1665     1702     1741     1784     1831     1883     1941 
    1999     2052     2093     2126     2150     2165     2170     2166 
    2161     2150     2138     2127     2124     2138     2176     2232 
    2301     2380     2463     2533     2577     2594     2597     2590 
    2581     2578     2586     2610     2654     2712     2771     2825 
    2875     2917     2944     2959     2963     2955     2930     2890 
    2843     2786     2714     2629     2531     2430     2330     2232 
    2135     2045     1972     1919     1883     1864     1858     1854 
    1846     1833     1821     1813     1811     1815     1834     1858 
    1871     1861     1834     1800     1772     1750     1744     1756 
    1792     1856     1934     2016     2101     2187     2268     2335 
    2382     2413     2431     2439     2435     2430     2435     2448 
    2474     2500     2515     2520     2519     2500     2469     2435 
    2405     2380     2358     2338     2315     2290     2265     2239 
    2215     2193     2185     2195     2215     2238     2259     2274 
    2276     2259     2230     2192     2149     2104     2054     1998 
    1937     1873     1815     1767     1730     1709     1701     1701 
    1705     1707     1699     1686     1675     1671     1678     1694 
    1721     1753     1784     1817     1853     1899     1957     2034 
    2124     2214     2297     2377     2458     2547     2636     2721 
    2805     2893     2984     3072     3146     3208     3260     3307 
    3350     3381     3396     3393     3377     3360     3342     3330 
    3312     3281     3240     3186     3119     3046     2965     2876 
    2787     2704     2631     2567     2513     2463     2413     2362 
    2311     2247     2164     2066     1964     1871     1791     1725 
    1675     1649     1653     1680     1728     1790     1853     1910 
    1954     1984     1996     1998     1991     1975     1950     1929 
