Origin Time       2025/01/13 21:19:00
Lat.              31.8
Long.             131.6
Depth. (km)       30
Mag.              6.9
Station Code      YMG017
Station Lat.      33.9649
Station Long.     132.1011
Station Height(m) 1
Record Time       2025/01/13 21:20:25
Sampling Freq(Hz) 100Hz
Duration Time(s)  109
Dir.              E-W
Scale Factor      7845(gal)/8223790
Max. Acc. (gal)   9.116
Last Correction   2025/01/13 21:20:25
Memo.             
[...]
   -6673    -7168    -7569    -7857    -8095    -8352    -8622    -8884 
   -9135    -9354    -9510    -9601    -9643    -9676    -9761    -9915 
  -10093   -10220   -10255   -10211   -10127   -10033    -9926    -9838 
   -9805    -9815    -9836    -9844    -9822    -9764    -9676    -9590 
   -9528    -9470    -9373    -9184    -8861    -8430    -7940    -7441 
   -7033    -6826    -6806    -6886    -6998    -7088    -7157    -7252 
   -7418    -7649    -7921    -8220    -8514    -8761    -8951    -9105 
   -9217    -9292    -9373    -9485    -9585    -9629    -9625    -9594 
   -9544    -9458    -9304    -9069    -8773    -8448    -8145    -7894 
   -7708    -7609    -7581    -7585    -7609    -7591    -7439    -7115 
   -6623    -6006    -5381    -4847    -4413    -4054    -3784    -3628 
   -3564    -3546    -3589    -3727    -3960    -4318    -4826    -5462 
   -6185    -6955    -7739    -8515    -9251    -9913   -10482   -10951 
  -11304   -11569   -11784   -11923   -11946   -11865   -11718   -11537 
  -11327   -11083   -10785   -10427   -10054    -9720    -9454    -9269 
   -9159    -9085    -9015    -8937    -8829    -8662    -8440    -8182 
   -7906    -7645    -7418    -7211    -6999    -6756    -6469    -6124 
   -5724    -5279    -4839    -4484    -4279    -4228    -4306    -4480 
   -4703    -4939    -5194    -5517    -5915    -6336    -6745    -7114 
   -7402    -7601    -7746    -7848    -7889    -7859    -7804    -7770 
   -7765    -7759    -7689    -7533    -7371    -7300    -7384    -7632 
   -7983    -8367    -8741    -9065    -9340    -9605    -9873   -10137 
  -10381   -10567   -10671   -10721   -10735   -10686   -10563   -10385 
  -10169    -9933    -9691    -9459    -9238    -9013    -8764    -8469 
   -8145    -7859    -7659    -7557    -7520    -7491    -7449    -7415 
   -7376    -7288    -7146    -6968    -6768    -6583    -6450    -6369 
   -6320    -6278    -6258    -6300    -6430    -6636    -6883    -7119 
   -7267    -7295    -7256    -7188    -7102    -7044    -7067    -7190 
   -7407    -7678    -7919    -8063    -8108    -8086    -8039    -7966 
   -7832    -7630    -7396    -7203    -7126    -7153    -7195    -7215 
   -7263    -7389    -7647    -8043    -8515    -9001    -9470    -9886 
  -10242   -10559   -10848   -11121   -11414   -11749   -12104   -12463 
  -12816   -13115   -13289   -13321   -13232   -13042   -12761   -12415 
  -12040   -11655   -11256   -10847   -10450   -10073    -9699    -9283 
   -8806    -8272    -7690    -7076    -6439    -5736    -4954    -4143 
   -3354    -2627    -2014    -1552    -1242    -1065    -1024    -1128 
   -1372    -1723    -2143    -2633    -3231    -3925    -4668    -5414 
   -6118    -6782    -7447    -8121    -8789    -9443   -10048   -10586 
  -11067   -11458   -11719   -11834   -11799   -11639   -11412   -11169 
  -10928   -10694   -10477   -10273   -10102    -9994    -9937    -9904 
   -9877    -9841    -9784    -9678    -9472    -9154    -8746    -8295 
   -7859    -7466    -7105    -6766    -6474    -6232    -6019    -5826 
   -5664    -5549    -5498    -5502    -5557    -5667    -5837    -6087 
   -6442    -6895    -7420    -7997    -8587    -9143    -9636   -10042 
  -10363   -10604   -10758   -10851   -10932   -11041   -11182   -11310 
  -11364   -11323   -11223   -11138   -11098   -11070   -11003   -10879 
  -10712   -10513   -10285   -10038    -9799    -9589    -9405    -9240 
   -9089    -8919    -8696    -8405    -8066    -7715    -7377    -7051 
   -6712    -6334    -5895    -5389    -4828    -4221    -3592    -3010 
   -2535    -2199    -2007    -1938    -1981    -2162    -2511    -3011 
   -3645    -4383    -5186    -6021    -6858    -7653    -8374    -9027 
   -9648   -10281   -10943   -11607   -12241   -12815   -13309   -13705 
  -13972   -14110   -14169   -14207   -14233   -14235   -14219   -14196 
  -14168   -14129   -14096   -14060   -13979   -13814   -13551   -13213 
  -12818   -12349   -11801   -11159   -10435    -9675    -8914    -8167 
   -7461    -6825    -6276    -5829    -5479    -5189    -4923    -4689 
   -4507    -4364    -4243    -4137    -4074    -4081    -4175    -4364 
   -4635    -4946    -5290    -5692    -6137    -6589    -7052    -7516 
   -7940    -8287    -8568    -8808    -9028    -9240    -9460    -9691 
   -9918   -10111   -10266   -10401   -10519   -10597   -10620   -10582 
  -10482   -10327   -10125    -9879    -9617    -9377    -9181    -9027 
   -8892    -8768    -8683    -8611    -8459    -8174    -7800    -7422 
   -7098    -6863    -6745    -6740    -6816    -6957    -7125    -7263 
   -7361    -7446    -7534    -7582    -7534    -7408    -7267    -7134 
   -7024    -6957    -6937    -6932    -6951    -7024    -7133    -7250 
   -7372    -7485    -7581    -7681    -7801    -7932    -8046    -8109 
   -8079    -7925    -7655    -7306    -6934    -6619    -6405    -6282 
   -6192    -6066    -5881    -5659    -5452    -5296    -5169    -5043 
   -4914    -4801    -4720    -4654    -4585    -4492    -4351    -4170 
   -4002    -3890    -3851    -3881    -3979    -4168    -4450    -4833 
   -5313    -5849    -6385    -6910    -7449    -8008    -8565    -9076 
   -9498    -9834   -10103   -10324   -10509   -10654   -10760   -10871 
  -11030   -11244   -11483   -11700   -11855   -11944   -11983   -11994 
  -11985   -11934   -11809   -11616   -11372   -11092   -10779   -10422 
  -10022    -9598    -9159    -8680    -8154    -7593    -7034    -6515 
   -6037    -5599    -5213    -4889    -4645    -4498    -4445    -4484 
   -4604    -4814    -5138    -5576    -6099    -6639    -7114    -7484 
   -7766    -8014    -8260    -8496    -8696    -8833    -8915    -9009 
   -9165    -9362    -9555    -9699    -9792    -9880   -10010   -10203 
  -10461   -10766   -11071   -11356   -11616   -11807   -11884   -11859 
  -11750   -11545   -11217   -10752   -10184    -9525    -8758    -7896 
   -6994    -6110    -5300    -4603    -4024    -3558    -3222    -3011 
   -2910    -2906    -2999    -3202    -3512    -3889    -4280    -4671 
   -5061    -5437    -5779    -6070    -6288    -6421    -6474    -6467 
   -6442    -6446    -6502    -6612    -6775    -7007    -7314    -7695 
   -8151    -8661    -9193    -9753   -10365   -11020   -11677   -12289 
  -12810   -13219   -13518   -13724   -13818   -13757   -13505   -13053 
  -12422   -11669   -10851   -10045    -9308    -8657    -8137    -7797 
   -7622    -7599    -7720    -7938    -8230    -8587    -8968    -9327 
   -9618    -9798    -9861    -9838    -9755    -9651    -9558    -9471 
   -9363    -9190    -8927    -8579    -8171    -7736    -7300    -6856 
   -6399    -5988    -5709    -5595    -5625    -5751    -5958    -6264 
   -6662    -7115    -7570    -7959    -8230    -8363    -8360    -8221 
   -7962    -7627    -7285    -6976    -6701    -6469    -6293    -6154 
   -6025    -5908    -5845    -5842    -5875    -5952    -6088    -6276 
   -6500    -6763    -7057    -7375    -7712    -8090    -8534    -9015 
   -9472    -9855   -10119   -10239   -10231   -10146   -10035    -9937 
   -9883    -9882    -9904    -9906    -9863    -9791    -9717    -9637 
   -9526    -9362    -9150    -8919    -8684    -8438    -8172    -7889 
   -7604    -7337    -7106    -6921    -6747    -6528    -6226    -5836 
   -5395    -4955    -4552    -4207    -3923    -3703    -3555    -3453 
   -3365    -3314    -3330    -3451    -3709    -4079    -4514    -4996 
   -5503    -6025    -6566    -7123    -7674    -8220    -8777    -9343 
   -9918   -10494   -11037   -11518   -11928   -12270   -12552   -12776 
  -12949   -13107   -13289   -13482   -13653   -13795   -13934   -14072 
  -14172   -14233   -14303   -14400   -14500   -14582   -14613   -14544 
  -14353   -14048   -13640   -13104   -12418   -11615   -10735    -9805 
   -8851    -7911    -7010    -6173    -5421    -4766    -4198    -3689 
   -3235    -2839    -2485    -2165    -1884    -1657    -1497    -1422 
   -1462    -1610    -1837    -2131    -2485    -2874    -3304    -3792 
   -4295    -4766    -5201    -5601    -5998    -6439    -6922    -7419 
   -7932    -8452    -8978    -9520   -10065   -10578   -11020   -11353 
  -11570   -11709   -11792   -11803   -11731   -11607   -11477   -11360 
  -11238   -11105   -10943   -10731   -10461   -10125    -9706    -9197 
   -8618    -8028    -7485    -6998    -6546    -6119    -5726    -5382 
   -5101    -4900    -4765    -4656    -4527    -4369    -4186    -3982 
   -3781    -3636    -3597    -3690    -3927    -4297    -4762    -5266 
   -5765    -6245    -6690    -7078    -7392    -7643    -7863    -8087 
   -8333    -8595    -8869    -9167    -9499    -9876   -10303   -10751 
  -11211   -11715   -12266   -12811   -13301   -13738   -14141   -14500 
  -14777   -14922   -14921   -14794   -14567   -14239   -13815   -13306 
  -12710   -12024   -11275   -10509    -9768    -9085    -8456    -7839 
   -7221    -6639    -6142    -5753    -5476    -5292    -5163    -5061 
   -4969    -4896    -4857    -4882    -4966    -5062    -5157    -5256 
   -5371    -5532    -5759    -6030    -6326    -6646    -6993    -7353 
   -7709    -8037    -8311    -8548    -8787    -9036    -9270    -9467 
   -9630    -9751    -9791    -9715    -9518    -9236    -8930    -8654 
   -8401    -8121    -7813    -7520    -7265    -7059    -6899    -6785 
   -6735    -6739    -6755    -6794    -6903    -7095    -7348    -7622 
   -7866    -8051    -8182    -8279    -8364    -8471    -8635    -8861 
   -9130    -9418    -9714    -9990   -10227   -10438   -10635   -10818 
  -10974   -11105   -11203   -11250   -11233   -11132   -10940   -10713 
  -10505   -10332   -10184   -10029    -9829    -9571    -9235    -8796 
   -8287    -7773    -7300    -6864    -6446    -6045    -5671    -5325 
   -5019    -4762    -4553    -4378    -4226    -4099    -3987    -3870 
   -3757    -3661    -3593    -3574    -3628    -3753    -3940    -4191 
   -4506    -4889    -5337    -5837    -6377    -6937    -7500    -8063 
   -8619    -9144    -9618   -10031   -10382   -10671   -10905   -11076 
  -11165   -11191   -11179   -11126   -11022   -10858   -10616   -10305 
   -9967    -9649    -9364    -9099    -8862    -8658    -8478    -8324 
   -8206    -8135    -8094    -8055    -7996    -7892    -7720    -7489 
   -7236    -6986    -6763    -6588    -6459    -6370    -6324    -6305 
   -6277    -6228    -6173    -6143    -6185    -6328    -6590    -6978 
   -7447    -7950    -8460    -8962    -9462    -9991   -10561   -11134 
  -11664   -12131   -12503   -12739   -12861   -12915   -12916   -12872 
  -12791   -12661   -12482   -12264   -12020   -11726   -11345   -10863 
  -10276    -9606    -8899    -8159    -7358    -6534    -5736    -4972 
   -4247    -3570    -2945    -2369    -1854    -1416    -1051     -791 
    -670     -673     -769     -949    -1188    -1467    -1763    -2064 
   -2409    -2839    -3334    -3882    -4464    -5051    -5638    -6241 
   -6860    -7488    -8117    -8753    -9400   -10048   -10678   -11268 
  -11803   -12294   -12780   -13289   -13806   -14311   -14785   -15215 
  -15593   -15904   -16117   -16209   -16181   -16042   -15803   -15473 
  -15053   -14559   -14022   -13473   -12915   -12337   -11742   -11137 
  -10523    -9904    -9270    -8591    -7859    -7105    -6338    -5559 
   -4780    -4037    -3369    -2799    -2355    -2060    -1899    -1823 
   -1800    -1810    -1849    -1949    -2139    -2396    -2677    -2952 
   -3200    -3457    -3765    -4098    -4422    -4756    -5121    -5540 
   -6006    -6500    -7025    -7576    -8124    -8653    -9181    -9741 
  -10357   -11010   -11662   -12299   -12928   -13552   -14145   -14677 
  -15137   -15511   -15774   -15890   -15851   -15695   -15469   -15195 
  -14864   -14463   -14006   -13510   -12977   -12360   -11622   -10791 
   -9930    -9067    -8209    -7341    -6470    -5644    -4909    -4290 
   -3788    -3388    -3068    -2824    -2633    -2459    -2311    -2216 
   -2172    -2146    -2106    -2050    -2030    -2083    -2205    -2400 
   -2664    -2992    -3422    -3969    -4596    -5260    -5946    -6642 
   -7342    -8054    -8795    -9583   -10384   -11148   -11851   -12469 
  -12980   -13383   -13679   -13871   -13957   -13930   -13802   -13595 
  -13331   -13034   -12721   -12401   -12094   -11801   -11518   -11257 
  -10999   -10710   -10382   -10021    -9632    -9224    -8822    -8415 
   -7955    -7418    -6826    -6193    -5521    -4823    -4132    -3465 
   -2816    -2169    -1543     -966     -444        4      342      562 
     668      656      498      183     -290     -922    -1679    -2524 
   -3443    -4422    -5454    -6525    -7592    -8603    -9528   -10355 
  -11091   -11738   -12310   -12837   -13325   -13768   -14152   -14472 
  -14744   -14968   -15142   -15286   -15410   -15500   -15553   -15549 
  -15480   -15356   -15169   -14910   -14563   -14126   -13614   -13028 
  -12351   -11573   -10713    -9784    -8796    -7771    -6732    -5702 
   -4711    -3781    -2920    -2134    -1429     -831     -359      -18 
     202      314      336      279      149      -52     -319     -666 
   -1098    -1586    -2128    -2752    -3446    -4198    -5015    -5867 
   -6723    -7601    -8502    -9405   -10291   -11126   -11907   -12636 
  -13305   -13921   -14481   -14974   -15381   -15700   -15938   -16110 
  -16213   -16220   -16136   -15988   -15776   -15489   -15120   -14646 
  -14080   -13456   -12793   -12089   -11331   -10534    -9724    -8905 
   -8055    -7157    -6218    -5250    -4284    -3360    -2498    -1707 
    -980     -324      238      696     1054     1304     1436     1455 
    1362     1159      841      413     -117     -753    -1471    -2243 
   -3059    -3919    -4822    -5773    -6762    -7742    -8668    -9522 
  -10299   -11001   -11653   -12266   -12820   -13305   -13707   -14031 
  -14292   -14496   -14646   -14723   -14712   -14644   -14544   -14403 
  -14223   -14018   -13772   -13468   -13111   -12733   -12368   -12025 
  -11695   -11360   -10993   -10561   -10075    -9574    -9080    -8595 
   -8122    -7649    -7171    -6724    -6330    -5972    -5629    -5298 
   -5004    -4770    -4591    -4463    -4375    -4303    -4264    -4294 
   -4383    -4504    -4665    -4862    -5073    -5304    -5564    -5830 
   -6075    -6293    -6494    -6704    -6939    -7186    -7426    -7668 
   -7946    -8283    -8681    -9119    -9582   -10052   -10485   -10848 
  -11140   -11352   -11489   -11583   -11638   -11647   -11639   -11639 
  -11624   -11576   -11503   -11412   -11300   -11171   -11017   -10824 
  -10571   -10262    -9915    -9547    -9159    -8756    -8345    -7935 
   -7531    -7146    -6789    -6453    -6134    -5832    -5536    -5239 
   -4932    -4634    -4374    -4187    -4097    -4095    -4178    -4352 
   -4602    -4903    -5254    -5645    -6037    -6399    -6717    -6979 
   -7191    -7376    -7545    -7709    -7874    -8040    -8232    -8457 
   -8698    -8923    -9109    -9243    -9332    -9389    -9416    -9428 
   -9437    -9448    -9458    -9472    -9502    -9551    -9599    -9620 
   -9605    -9552    -9444    -9270    -9031    -8725    -8357    -7956 
   -7557    -7175    -6814    -6494    -6237    -6050    -5925    -5848 
   -5802    -5767    -5749    -5782    -5869    -5985    -6100    -6201 
   -6307    -6438    -6608    -6829    -7094    -7352    -7584    -7807 
   -8019    -8208    -8363    -8478    -8560    -8629    -8696    -8781 
   -8897    -9035    -9188    -9364    -9566    -9790   -10044   -10307 
  -10552   -10756   -10885   -10930   -10913   -10832   -10677   -10451 
  -10169    -9859    -9543    -9213    -8866    -8537    -8249    -7994 
   -7773    -7596    -7458    -7345    -7231    -7105    -6966    -6828 
   -6708    -6596    -6473    -6347    -6237    -6150    -6080    -6015 
   -5952    -5890    -5819    -5744    -5661    -5579    -5536    -5568 
   -5687    -5887    -6133    -6396    -6677    -6995    -7358    -7755 
   -8175    -8606    -9040    -9477    -9888   -10241   -10532   -10781 
  -11003   -11206   -11384   -11531   -11632   -11674   -11657   -11576 
  -11439   -11276   -11099   -10902   -10700   -10534   -10455   -10481 
  -10577   -10700   -10828   -10943   -11009   -11001   -10910   -10724 
  -10449   -10115    -9742    -9313    -8811    -8243    -7647    -7071 
   -6539    -6056    -5606    -5178    -4773    -4391    -4023    -3667 
   -3343    -3071    -2879    -2793    -2812    -2920    -3096    -3329 
   -3611    -3925    -4259    -4612    -4957    -5266    -5549    -5803 
   -6046    -6326    -6655    -7032    -7485    -8027    -8648    -9336 
  -10064   -10786   -11472   -12109   -12690   -13196   -13622   -13996 
  -14320   -14566   -14725   -14827   -14872   -14847   -14746   -14559 
  -14276   -13879   -13358   -12706   -11943   -11107   -10218    -9285 
   -8345    -7435    -6586    -5815    -5107    -4430    -3784    -3183 
   -2651    -2195    -1787    -1408    -1084     -838     -664     -568 
    -575     -687     -900    -1209    -1615    -2100    -2625    -3169 
   -3719    -4260    -4806    -5382    -5991    -6609    -7240    -7917 
   -8642    -9405   -10201   -11006   -11799   -12592   -13377   -14106 
  -14743   -15268   -15668   -15950   -16128   -16208   -16204   -16124 
  -15962   -15732   -15450   -15113   -14728   -14296   -13797   -13224 
  -12600   -11939   -11240   -10517    -9787    -9035    -8267    -7523 
   -6802    -6085    -5367    -4672    -4028    -3433    -2875    -2358 
   -1868    -1391     -955     -569     -226       43      214      278 
     233       99     -118     -423     -810    -1281    -1844    -2478 
   -3188    -3993    -4884    -5837    -6848    -7890    -8924    -9923 
  -10886   -11815   -12680   -13444   -14104   -14670   -15117   -15434 
  -15643   -15759   -15789   -15750   -15638   -15446   -15182   -14836 
  -14404   -13888   -13279   -12588   -11850   -11079   -10289    -9493 
   -8679    -7852    -7059    -6326    -5644    -5003    -4409    -3858 
   -3337    -2867    -2465    -2120    -1834    -1625    -1494    -1431 
   -1448    -1555    -1752    -2034    -2392    -2808    -3265    -3757 
   -4293    -4878    -5486    -6103    -6739    -7366    -7970    -8571 
   -9166    -9725   -10237   -10710   -11140   -11526   -11877   -12194 
  -12464   -12700   -12918   -13109   -13273   -13414   -13527   -13603 
  -13624   -13575   -13479   -13332   -13123   -12846   -12490   -12070 
  -11619   -11132   -10594   -10027    -9439    -8845    -8272    -7713 
   -7156    -6617    -6107    -5607    -5113    -4630    -4178    -3777 
   -3426    -3117    -2862    -2693    -2608    -2582    -2616    -2710 
   -2857    -3048    -3260    -3472    -3693    -3951    -4255    -4592 
   -4962    -5366    -5809    -6293    -6810    -7337    -7863    -8388 
   -8910    -9420    -9910   -10370   -10795   -11165   -11465   -11708 
  -11913   -12070   -12175   -12235   -12256   -12253   -12235   -12185 
  -12081   -11915   -11713   -11496   -11263   -11014   -10748   -10449 
  -10114    -9755    -9386    -9011    -8631    -8232    -7811    -7385 
   -6968    -6561    -6173    -5810    -5475    -5171    -4911    -4700 
   -4548    -4477    -4486    -4552    -4681    -4868    -5100    -5375 
   -5684    -6006    -6324    -6629    -6910    -7165    -7399    -7616 
   -7830    -8047    -8272    -8498    -8727    -8972    -9221    -9471 
   -9724    -9977   -10215   -10435   -10635   -10798   -10921   -11018 
