Origin Time       2025/01/13 21:19:00
Lat.              31.8
Long.             131.6
Depth. (km)       30
Mag.              6.9
Station Code      YMG009
Station Lat.      34.2315
Station Long.     131.8175
Station Height(m) 377
Record Time       2025/01/13 21:20:55
Sampling Freq(Hz) 100Hz
Duration Time(s)  60
Dir.              U-D
Scale Factor      7845(gal)/8223790
Max. Acc. (gal)   1.674
Last Correction   2025/01/13 21:20:55
Memo.             
[...]
    1178     1167     1142     1120     1111     1104     1112     1129 
    1138     1128     1088     1039     1019      997      962      943 
     947      957      966      982      994      984      969      974 
     973      931      878      839      804      773      750      730 
     711      681      661      670      681      673      669      677 
     689      714      768      850      936     1005     1048     1077 
    1097     1108     1128     1159     1181     1197     1219     1225 
    1227     1242     1251     1243     1231     1216     1192     1174 
    1165     1148     1143     1150     1140     1105     1078     1069 
    1055     1035     1027     1026     1034     1059     1080     1077 
    1077     1094     1119     1147     1178     1197     1209     1224 
    1239     1240     1216     1188     1177     1174     1165     1154 
    1150     1150     1155     1162     1161     1158     1156     1138 
    1096     1062     1044     1032     1030     1035     1031     1007 
     959      893      841      814      797      791      793      800 
     818      831      828      834      847      858      869      878 
     889      911      935      951      969     1000     1030     1061 
    1096     1113     1104     1097     1100     1101     1098     1074 
    1030      989      965      967      985      992      997     1011 
    1017     1031     1055     1077     1097     1112     1119     1132 
    1165     1213     1269     1310     1345     1370     1370     1343 
    1300     1248     1193     1148     1123     1112     1134     1178 
    1216     1233     1244     1256     1258     1246     1248     1270 
    1281     1267     1239     1208     1179     1158     1143     1128 
    1124     1132     1135     1121     1094     1058     1024      997 
     967      928      899      884      870      854      834      816 
     823      841      837      826      842      884      938      999 
    1048     1081     1104     1113     1115     1127     1134     1132 
    1140     1154     1171     1202     1224     1217     1217     1244 
    1259     1244     1224     1205     1189     1192     1197     1182 
    1162     1156     1155     1143     1124     1111     1098     1085 
    1088     1112     1124     1111     1094     1073     1028      982 
     959      940      928      938      959      997     1047     1097 
    1152     1213     1258     1291     1320     1335     1343     1343 
    1324     1290     1263     1233     1197     1163     1142     1131 
    1113     1089     1070     1046     1020     1004      988      978 
     992     1012     1023     1038     1057     1059     1055     1061 
    1062     1046     1026     1013     1003      989      986      988 
     980      972      955      924      903      896      907      949 
    1003     1048     1097     1132     1135     1125     1128     1134 
    1143     1171     1212     1252     1281     1294     1293     1278 
    1240     1192     1142     1096     1062     1043     1030     1015 
     992      980      992     1015     1027     1016     1000      999 
     994      993     1009     1030     1043     1051     1054     1063 
    1080     1092     1094     1097     1104     1113     1123     1129 
    1144     1165     1169     1155     1148     1148     1144     1148 
    1150     1135     1131     1140     1123     1089     1063     1036 
    1005      990      989      996     1003     1007     1004     1003 
    1004     1000      993     1003     1026     1048     1067     1101 
    1148     1196     1251     1302     1327     1327     1324     1323 
    1318     1312     1312     1320     1328     1348     1378     1391 
    1394     1405     1421     1437     1447     1447     1441     1424 
    1404     1391     1371     1345     1324     1297     1274     1262 
    1252     1251     1244     1228     1219     1208     1190     1169 
    1151     1134     1115     1092     1067     1042     1019      989 
     942      891      853      824      793      776      789      811 
     838      881      923      959     1003     1046     1074     1094 
    1101     1084     1057     1034     1009      974      926      873 
     826      788      762      758      776      796      803      801 
     807      820      839      864      889      909      923      936 
     949      965      977      982      984      990     1015     1048 
    1066     1073     1077     1074     1071     1070     1070     1071 
    1063     1043     1031     1035     1046     1062     1080     1094 
    1098     1081     1053     1028     1011      993      969      938 
     913      896      873      843      805      770      754      758 
     774      799      831      862      903      953      976      965 
     950      940      935      934      932      949      973      978 
     970      984     1009     1008      986      981      988      992 
     994     1003     1027     1057     1055     1028     1017     1021 
    1027     1034     1030     1028     1046     1069     1101     1142 
    1162     1158     1147     1135     1135     1144     1148     1150 
    1144     1132     1138     1162     1181     1196     1215     1235 
    1252     1258     1248     1246     1254     1262     1270     1262 
    1240     1228     1235     1240     1240     1243     1246     1229 
    1190     1150     1117     1096     1081     1066     1047     1039 
    1036     1032     1008      962      924      903      885      878 
     878      873      866      857      853      864      869      866 
     868      872      876      876      873      865      841      810 
     800      800      780      754      742      739      749      773 
     792      801      819      841      858      882      931      993 
    1043     1077     1104     1111     1097     1081     1051     1008 
     986      988      985      961      915      862      814      766 
     708      646      592      567      565      567      579      619 
     661      700      762      832      897      972     1040     1085 
    1125     1163     1188     1206     1229     1239     1220     1188 
    1161     1138     1116     1107     1112     1125     1140     1162 
    1179     1175     1142     1098     1066     1050     1055     1074 
    1092     1109     1123     1116     1105     1105     1107     1113 
    1135     1170     1213     1255     1278     1269     1233     1178 
    1117     1066     1024      984      957      943      945      970 
    1007     1032     1043     1046     1047     1042     1026      999 
     963      940      934      936      949      965      974      986 
     994      981      946      918      907      905      903      899 
     912      951     1001     1039     1055     1053     1050     1057 
    1062     1077     1108     1134     1151     1161     1155     1146 
    1142     1131     1113     1102     1100     1096     1078     1054 
    1027      994      950      901      862      837      804      772 
     769      789      804      810      823      861      916      973 
    1020     1061     1100     1128     1150     1181     1204     1221 
    1243     1252     1250     1264     1297     1336     1391     1458 
    1516     1557     1588     1621     1644     1640     1617     1599 
    1580     1559     1557     1570     1571     1571     1579     1580 
    1580     1595     1611     1625     1642     1659     1669     1684 
    1696     1688     1672     1671     1684     1696     1686     1655 
    1629     1601     1555     1518     1506     1485     1443     1401 
    1360     1310     1271     1250     1236     1233     1236     1239 
    1227     1194     1143     1085     1032      986      945      907 
     869      826      781      733      676      634      627      619 
     600      595      591      580      585      607      630      654 
     695      739      765      783      797      805      803      791 
     772      751      730      711      704      706      711      700 
     664      619      568      508      453      411      394      415 
     467      527      592      662      734      792      834      868 
     895      923      947      967      990     1030     1078     1120 
    1147     1161     1162     1147     1120     1097     1082     1077 
    1082     1102     1125     1143     1163     1185     1210     1256 
    1300     1337     1382     1408     1412     1414     1410     1404 
    1401     1394     1393     1397     1397     1397     1412     1439 
    1460     1471     1480     1476     1464     1466     1480     1495 
    1509     1529     1547     1564     1587     1605     1624     1656 
    1702     1752     1791     1830     1871     1898     1918     1945 
    1976     2002     2025     2031     2012     1981     1949     1925 
    1917     1918     1918     1910     1877     1809     1721     1633 
    1547     1464     1397     1348     1296     1224     1150     1074 
     997      946      932      938      940      936      919      882 
     831      762      683      607      548      502      457      409 
     365      340      324      310      292      276      271      272 
     257      230      213      206      209      236      282      324 
     373      446      517      573      630      684      731      765 
     795      838      892      940      986     1023     1048     1078 
    1116     1151     1183     1215     1227     1209     1178     1146 
    1119     1109     1111     1120     1144     1166     1179     1202 
    1236     1278     1317     1341     1375     1417     1431     1424 
    1432     1448     1463     1478     1485     1476     1468     1471 
    1483     1494     1498     1499     1494     1472     1440     1401 
    1363     1339     1316     1269     1205     1148     1093     1038 
     988      940      900      874      868      876      873      846 
     826      815      791      758      733      700      660      642 
     639      633      638      654      673      692      712      742 
     785      834      880      911      922      926      934      940 
     957      984     1007     1017     1020     1019     1009      985 
     976      994     1016     1030     1042     1053     1074     1097 
    1115     1136     1155     1162     1155     1140     1135     1146 
    1159     1173     1190     1220     1255     1282     1309     1341 
    1377     1405     1418     1409     1374     1325     1279     1227 
    1174     1146     1135     1139     1166     1174     1146     1121 
    1094     1059     1036     1021     1007      999      992      988 
     984      965      935      913      893      861      831      819 
     816      830      858      880      888      885      882      881 
     878      877      876      874      874      864      828      789 
     758      722      693      680      668      642      612      585 
     550      498      429      361      313      282      257      241 
     224      209      217      249      302      364      425      492 
     567      638      708      768      810      849      889      916 
     934      953      973      989     1008     1021     1023     1024 
    1027     1015      996      977      976      993     1011     1019 
    1016      997      977      951      913      873      839      804 
     761      718      688      679      683      689      700      722 
     754      784      819      865      908      945      970      984 
    1007     1043     1069     1082     1097     1112     1111     1089 
    1054      997      945      920      907      891      882      886 
     899      920      935      953      990     1036     1058     1058 
    1051     1048     1058     1081     1105     1129     1165     1215 
    1274     1332     1385     1444     1512     1568     1618     1672 
    1710     1726     1732     1736     1740     1744     1749     1752 
    1750     1750     1740     1713     1678     1630     1571     1521 
    1482     1439     1391     1356     1344     1343     1341     1340 
    1336     1327     1312     1297     1293     1304     1314     1320 
    1321     1324     1331     1328     1314     1300     1279     1262 
    1246     1216     1188     1161     1129     1105     1089     1071 
    1057     1043     1028     1019     1009      989      969      963 
     974      992     1016     1039     1059     1080     1097     1117 
    1128     1125     1120     1120     1125     1128     1131     1134 
    1140     1155     1178     1196     1204     1212     1217     1229 
    1248     1255     1254     1263     1278     1290     1314     1362 
    1418     1474     1525     1575     1633     1710     1791     1861 
    1926     1977     2015     2049     2074     2088     2103     2119 
    2128     2120     2087     2030     1966     1918     1881     1850 
    1827     1815     1810     1817     1830     1838     1854     1885 
    1923     1965     2003     2039     2070     2095     2122     2165 
    2211     2239     2251     2257     2250     2218     2169     2111 
    2045     1977     1914     1848     1786     1725     1653     1574 
    1491     1404     1298     1183     1080      978      864      743 
     630      529      436      349      272      197      118       40 
     -39     -122     -210     -290     -338     -373     -413     -442 
    -465     -494     -523     -540     -541     -546     -571     -603 
    -627     -645     -657     -664     -675     -683     -668     -638 
    -616     -591     -542     -477     -395     -302     -211     -120 
     -27       62      147      232      315      387      444      502 
     558      611      666      716      751      799      869      946 
    1016     1080     1147     1206     1236     1250     1260     1262 
    1255     1248     1237     1220     1201     1186     1175     1171 
    1171     1169     1165     1167     1179     1193     1188     1162 
    1132     1100     1067     1038     1017     1003      988      967 
     951      943      943      946      953      962      967      980 
     997     1003     1013     1050     1102     1161     1223     1278 
    1328     1377     1412     1428     1441     1467     1505     1544 
    1586     1628     1663     1694     1714     1733     1757     1784 
    1813     1831     1837     1836     1831     1821     1796     1767 
    1737     1701     1657     1617     1572     1528     1499     1476 
    1444     1414     1387     1352     1320     1290     1254     1212 
    1179     1162     1144     1123     1112     1108     1102     1080 
    1036      988      946      904      862      822      785      758 
     734      710      687      665      639      599      552      523 
     504      495      510      537      562      595      629      658 
     688      714      727      734      742      751      762      778 
     795      816      850      884      909      943      988     1040 
    1098     1158     1220     1283     1343     1394     1440     1470 
    1490     1517     1555     1598     1624     1628     1626     1613 
    1587     1568     1555     1540     1528     1516     1503     1497 
    1489     1476     1474     1479     1486     1495     1507     1517 
    1528     1544     1556     1571     1602     1638     1653     1653 
    1649     1634     1613     1593     1568     1541     1506     1467 
    1435     1413     1409     1413     1412     1410     1402     1367 
    1308     1242     1173     1109     1061     1030     1015     1007 
    1005     1004      994      985      970      947      923      889 
     847      807      762      723      697      675      645      604 
     565      530      487      442      402      360      329      305 
     287      291      314      342      373      405      441      496 
     564      639      729      820      907      977     1019     1043 
    1063     1084     1100     1112     1135     1177     1216     1240 
    1266     1293     1305     1310     1325     1343     1352     1355 
    1351     1347     1355     1370     1389     1408     1426     1455 
    1487     1521     1553     1576     1607     1647     1682     1715 
    1746     1776     1807     1827     1837     1837     1825     1806 
    1779     1736     1671     1584     1491     1397     1306     1232 
    1169     1098     1030      969      912      862      814      761 
     702      638      577      521      467      409      349      301 
     263      221      170      126       87       47       33       54 
      83      112      145      179      214      241      260      278 
     295      301      298      301      305      311      334      367 
     399      432      461      495      537      579      622      662 
     704      753      812      884      963     1047     1135     1212 
    1275     1318     1344     1367     1378     1378     1377     1364 
    1344     1333     1339     1351     1359     1367     1377     1379 
    1378     1379     1375     1371     1372     1368     1358     1345 
    1335     1335     1345     1358     1370     1393     1426     1459 
    1489     1522     1559     1594     1620     1630     1634     1642 
    1649     1660     1682     1725     1773     1809     1836     1849 
    1848     1838     1813     1773     1738     1707     1674     1645 
    1624     1602     1578     1556     1533     1494     1444     1389 
    1335     1290     1248     1209     1181     1156     1129     1102 
    1065     1021      978      924      861      796      730      665 
     606      553      507      465      434      409      376      355 
     352      361      376      382      383      391      396      411 
     441      473      510      556      598      633      668      710 
     746      774      804      834      859      889      919      945 
     966      980      989     1008     1043     1086     1135     1190 
    1252     1310     1356     1405     1467     1533     1593     1655 
    1725     1795     1860     1921     1976     2020     2053     2070 
    2077     2083     2087     2081     2061     2038     2015     1987 
    1945     1890     1830     1769     1703     1637     1567     1495 
    1439     1393     1345     1289     1225     1163     1104     1050 
    1004      954      888      819      753      692      641      598 
     557      527      510      504      506      507      507      511 
     515      519      523      533      538      529      519      510 
     490      471      467      476      492      514      531      546 
     571      604      645      692      735      768      801      838 
     865      885      901      920      943      962      970      969 
     955      939      923      904      889      889      901      922 
     943      967      997     1035     1073     1112     1158     1205 
    1242     1259     1259     1248     1228     1209     1186     1152 
    1115     1085     1061     1035     1015     1001      993     1004 
    1031     1054     1073     1089     1094     1100     1116     1139 
    1156     1170     1178     1179     1175     1171     1171     1174 
    1181     1185     1178     1166     1152     1140     1125     1102 
    1073     1057     1050     1042     1039     1042     1040     1040 
