Origin Time       2025/01/13 21:19:00
Lat.              31.8
Long.             131.6
Depth. (km)       30
Mag.              6.9
Station Code      YMG006
Station Lat.      34.1487
Station Long.     130.9299
Station Height(m) 6
Record Time       2025/01/13 21:20:53
Sampling Freq(Hz) 100Hz
Duration Time(s)  60
Dir.              E-W
Scale Factor      7845(gal)/8223790
Max. Acc. (gal)   1.340
Last Correction   2025/01/13 21:20:54
Memo.             
[...]
   -1345    -1274    -1255    -1278    -1291    -1347    -1405    -1395 
   -1452    -1633    -1715    -1636    -1622    -1717    -1687    -1517 
   -1435    -1476    -1478    -1405    -1374    -1398    -1402    -1397 
   -1447    -1483    -1445    -1431    -1489    -1513    -1439    -1383 
   -1471    -1583    -1563    -1517    -1576    -1647    -1610    -1579 
   -1657    -1721    -1644    -1556    -1605    -1648    -1563    -1478 
   -1468    -1479    -1471    -1409    -1316    -1250    -1217    -1182 
   -1155    -1179    -1237    -1309    -1417    -1495    -1510    -1534 
   -1575    -1580    -1543    -1479    -1449    -1489    -1520    -1494 
   -1501    -1579    -1629    -1641    -1718    -1792    -1749    -1696 
   -1726    -1717    -1602    -1517    -1516    -1541    -1572    -1574 
   -1541    -1587    -1699    -1733    -1737    -1804    -1854    -1864 
   -1867    -1830    -1767    -1729    -1692    -1598    -1482    -1444 
   -1420    -1289    -1185    -1233    -1281    -1210    -1128    -1120 
   -1151    -1175    -1171    -1161    -1228    -1368    -1455    -1478 
   -1518    -1586    -1647    -1645    -1595    -1601    -1641    -1556 
   -1393    -1398    -1530    -1537    -1468    -1518    -1586    -1493 
   -1332    -1215    -1128    -1057    -1007     -980    -1004    -1084 
   -1175    -1286    -1458    -1633    -1746    -1819    -1833    -1756 
   -1644    -1576    -1522    -1385    -1306    -1418    -1502    -1464 
   -1499    -1632    -1711    -1703    -1665    -1605    -1520    -1424 
   -1305    -1169    -1096    -1119    -1144    -1178    -1337    -1528 
   -1626    -1752    -1935    -2033    -2072    -2124    -2106    -2015 
   -1954    -1869    -1726    -1661    -1653    -1559    -1495    -1591 
   -1626    -1491    -1451    -1548    -1505    -1368    -1383    -1460 
   -1447    -1433    -1494    -1583    -1656    -1690    -1676    -1653 
   -1626    -1544    -1431    -1364    -1344    -1289    -1201    -1190 
   -1252    -1297    -1371    -1534    -1715    -1848    -1935    -1966 
   -1931    -1880    -1836    -1742    -1611    -1486    -1385    -1345 
   -1335    -1266    -1190    -1209    -1251    -1190    -1134    -1221 
   -1302    -1258    -1229    -1263    -1237    -1185    -1188    -1170 
   -1147    -1225    -1286    -1266    -1355    -1517    -1513    -1433 
   -1510    -1633    -1632    -1626    -1698    -1745    -1741    -1725 
   -1711    -1714    -1722    -1686    -1611    -1587    -1637    -1696 
   -1745    -1787    -1823    -1890    -1962    -1937    -1852    -1834 
   -1802    -1663    -1539    -1478    -1399    -1309    -1274    -1260 
   -1231    -1252    -1282    -1237    -1231    -1304    -1298    -1212 
   -1217    -1283    -1237    -1146    -1139    -1127    -1066    -1074 
   -1152    -1186    -1224    -1366    -1530    -1586    -1595    -1669 
   -1728    -1703    -1660    -1597    -1489    -1385    -1323    -1254 
   -1170    -1148    -1197    -1267    -1359    -1486    -1610    -1690 
   -1746    -1802    -1830    -1807    -1771    -1767    -1737    -1690 
   -1714    -1725    -1632    -1582    -1630    -1601    -1435    -1332 
   -1371    -1359    -1260    -1263    -1360    -1420    -1489    -1622 
   -1728    -1780    -1837    -1872    -1863    -1829    -1771    -1723 
   -1706    -1663    -1605    -1590    -1584    -1547    -1514    -1505 
   -1490    -1466    -1463    -1493    -1540    -1570    -1561    -1582 
   -1652    -1661    -1570    -1472    -1426    -1408    -1354    -1264 
   -1206    -1194    -1232    -1325    -1391    -1420    -1517    -1649 
   -1683    -1653    -1705    -1779    -1726    -1621    -1597    -1624 
   -1632    -1595    -1555    -1567    -1575    -1514    -1436    -1398 
   -1375    -1359    -1347    -1289    -1233    -1264    -1312    -1301 
   -1285    -1329    -1377    -1331    -1301    -1379    -1405    -1316 
   -1298    -1345    -1309    -1271    -1304    -1317    -1325    -1355 
   -1312    -1209    -1175    -1192    -1134    -1036    -1026    -1042 
   -1036    -1131    -1300    -1374    -1418    -1564    -1687    -1683 
   -1690    -1760    -1749    -1684    -1688    -1684    -1613    -1625 
   -1745    -1779    -1753    -1836    -1933    -1918    -1880    -1891 
   -1885    -1818    -1732    -1676    -1675    -1665    -1571    -1494 
   -1521    -1521    -1448    -1436    -1506    -1545    -1574    -1669 
   -1748    -1749    -1767    -1830    -1860    -1804    -1683    -1587 
   -1574    -1530    -1399    -1304    -1332    -1416    -1448    -1418 
   -1418    -1474    -1487    -1406    -1296    -1232    -1209    -1152 
   -1070    -1073    -1143    -1154    -1151    -1266    -1413    -1455 
   -1472    -1590    -1726    -1764    -1755    -1768    -1771    -1738 
   -1661    -1532    -1390    -1269    -1148    -1040     -986     -958 
    -901     -878     -963    -1107    -1232    -1339    -1493    -1691 
   -1877    -2019    -2116    -2241    -2392    -2434    -2371    -2315 
   -2212    -1992    -1756    -1586    -1422    -1243    -1129    -1134 
   -1224    -1344    -1460    -1587    -1744    -1850    -1823    -1722 
   -1621    -1498    -1300    -1084     -965     -899     -795     -714 
    -712     -749     -778     -797     -859    -1008    -1161    -1215 
   -1227    -1285    -1324    -1301    -1312    -1359    -1350    -1321 
   -1345    -1401    -1445    -1448    -1449    -1520    -1598    -1571 
   -1516    -1553    -1599    -1545    -1449    -1417    -1449    -1436 
   -1377    -1424    -1551    -1622    -1667    -1752    -1818    -1821 
   -1798    -1748    -1671    -1611    -1561    -1507    -1486    -1497 
   -1480    -1406    -1337    -1312    -1270    -1198    -1138    -1073 
   -1026    -1057    -1128    -1179    -1250    -1371    -1495    -1601 
   -1660    -1665    -1698    -1750    -1741    -1705    -1736    -1807 
   -1818    -1787    -1842    -1956    -1965    -1876    -1845    -1896 
   -1881    -1761    -1691    -1729    -1736    -1690    -1717    -1775 
   -1736    -1691    -1732    -1750    -1742    -1782    -1773    -1706 
   -1734    -1810    -1721    -1541    -1487    -1486    -1406    -1341 
   -1355    -1371    -1391    -1459    -1501    -1480    -1541    -1705 
   -1765    -1705    -1715    -1773    -1715    -1613    -1570    -1521 
   -1433    -1325    -1208    -1173    -1248    -1260    -1135    -1096 
   -1244    -1332    -1275    -1297    -1424    -1482    -1459    -1443 
   -1444    -1448    -1433    -1387    -1359    -1368    -1312    -1188 
   -1152    -1170    -1090    -1012    -1046    -1078    -1058    -1101 
   -1196    -1217    -1181    -1174    -1193    -1186    -1158    -1117 
   -1089    -1131    -1196    -1216    -1233    -1289    -1366    -1426 
   -1449    -1455    -1440    -1389    -1333    -1282    -1198    -1128 
   -1125    -1113    -1057    -1038    -1069    -1082    -1080    -1115 
   -1169    -1173    -1173    -1274    -1420    -1490    -1516    -1618 
   -1752    -1768    -1717    -1717    -1717    -1710    -1753    -1750 
   -1702    -1759    -1881    -1895    -1854    -1922    -1999    -1941 
   -1887    -1939    -1952    -1873    -1875    -1969    -2016    -2064 
   -2192    -2297    -2315    -2301    -2276    -2222    -2119    -1948 
   -1742    -1591    -1466    -1313    -1247    -1293    -1306    -1337 
   -1486    -1633    -1695    -1760    -1848    -1860    -1811    -1771 
   -1694    -1601    -1590    -1582    -1505    -1474    -1541    -1615 
   -1659    -1713    -1759    -1740    -1684    -1652    -1611    -1518 
   -1447    -1464    -1493    -1472    -1464    -1514    -1549    -1506 
   -1463    -1487    -1460    -1309    -1170    -1150    -1174    -1165 
   -1152    -1190    -1236    -1251    -1278    -1317    -1304    -1217 
   -1111    -1050    -1031    -1011    -1008    -1084    -1224    -1359 
   -1459    -1576    -1726    -1807    -1791    -1775    -1748    -1667 
   -1597    -1564    -1522    -1475    -1452    -1444    -1445    -1466 
   -1466    -1409    -1363    -1351    -1282    -1171    -1105    -1055 
   -1000     -959     -913     -873     -877     -886     -886     -949 
   -1069    -1159    -1206    -1285    -1402    -1467    -1470    -1485 
   -1503    -1494    -1478    -1441    -1406    -1462    -1522    -1416 
   -1293    -1391    -1530    -1467    -1378    -1447    -1525    -1512 
   -1506    -1540    -1548    -1534    -1537    -1539    -1525    -1501 
   -1493    -1545    -1614    -1625    -1651    -1759    -1857    -1865 
   -1873    -1904    -1826    -1640    -1471    -1340    -1197    -1050 
    -939     -864     -830     -878     -961    -1036    -1186    -1395 
   -1541    -1652    -1822    -1996    -2049    -2056    -2127    -2172 
   -2108    -2020    -1992    -1999    -1965    -1892    -1865    -1937 
   -2022    -2007    -1966    -2033    -2126    -2095    -1995    -1975 
   -1987    -1946    -1914    -1911    -1903    -1903    -1890    -1827 
   -1782    -1756    -1657    -1522    -1435    -1325    -1174    -1071 
    -990     -878     -815     -824     -792     -716     -765     -934 
   -1043    -1127    -1304    -1493    -1624    -1767    -1908    -1968 
   -1954    -1919    -1876    -1779    -1625    -1501    -1429    -1377 
   -1367    -1418    -1491    -1559    -1637    -1703    -1696    -1641 
   -1615    -1640    -1615    -1491    -1444    -1540    -1567    -1507 
   -1517    -1532    -1497    -1474    -1437    -1372    -1337    -1293 
   -1167    -1058    -1062    -1040     -864     -675     -656     -688 
    -598     -498     -538     -627     -700     -830    -1024    -1198 
   -1314    -1408    -1489    -1524    -1513    -1510    -1507    -1462 
   -1404    -1406    -1472    -1563    -1684    -1873    -2081    -2228 
   -2343    -2482    -2594    -2604    -2529    -2424    -2334    -2259 
   -2158    -2045    -1979    -1977    -2012    -2035    -2085    -2205 
   -2288    -2293    -2326    -2393    -2366    -2200    -2080    -2064 
   -1917    -1628    -1468    -1467    -1368    -1165    -1138    -1285 
   -1354    -1340    -1395    -1491    -1520    -1503    -1478    -1455 
   -1453    -1406    -1314    -1358    -1524    -1583    -1543    -1642 
   -1879    -2011    -2004    -2038    -2108    -2052    -1903    -1852 
   -1861    -1733    -1540    -1499    -1539    -1467    -1359    -1318 
   -1275    -1189    -1135    -1150    -1132    -1054    -1035    -1089 
   -1104    -1062    -1081    -1174    -1216    -1212    -1236    -1266 
   -1283    -1324    -1375    -1399    -1441    -1499    -1501    -1478 
   -1483    -1468    -1387    -1306    -1293    -1267    -1181    -1138 
   -1147    -1113    -1061    -1034     -999     -951     -935     -936 
    -954    -1024    -1081    -1113    -1216    -1355    -1437    -1532 
   -1696    -1825    -1869    -1923    -1965    -1930    -1907    -1923 
   -1879    -1817    -1837    -1883    -1899    -1900    -1900    -1923 
   -1975    -2014    -2015    -1992    -1993    -2003    -1968    -1894 
   -1818    -1759    -1738    -1737    -1709    -1690    -1734    -1769 
   -1775    -1860    -2003    -2039    -1971    -1960    -2006    -1946 
   -1787    -1711    -1730    -1691    -1593    -1580    -1655    -1698 
   -1711    -1746    -1768    -1763    -1741    -1707    -1691    -1682 
   -1621    -1537    -1474    -1395    -1290    -1217    -1150    -1047 
    -977     -945     -874     -800     -774     -761     -776     -864 
    -936     -958    -1089    -1332    -1466    -1489    -1610    -1806 
   -1898    -1925    -2031    -2137    -2126    -2080    -2080    -2057 
   -1950    -1825    -1787    -1827    -1822    -1780    -1834    -1980 
   -2097    -2142    -2207    -2304    -2289    -2205    -2215    -2251 
   -2180    -2084    -2060    -2022    -1934    -1937    -2029    -2023 
   -1937    -1944    -1980    -1880    -1711    -1626    -1570    -1460 
   -1367    -1347    -1332    -1277    -1277    -1352    -1331    -1189 
   -1129    -1166    -1073     -854     -784     -847     -762     -581 
    -581     -710     -716     -633     -626     -673     -664     -581 
    -527     -567     -619     -623     -631     -670     -720     -789 
    -880     -930     -886     -793     -737     -695     -607     -521 
    -480     -461     -423     -375     -395     -471     -502     -503 
    -523     -526     -496     -460     -417     -378     -349     -305 
    -241     -220     -234     -244     -295     -407     -500     -534 
    -581     -685     -773     -799     -820     -865     -909     -980 
   -1089    -1189    -1291    -1448    -1601    -1699    -1796    -1933 
   -2069    -2143    -2193    -2268    -2304    -2290    -2292    -2312 
   -2293    -2227    -2141    -2046    -1976    -1935    -1881    -1822 
   -1814    -1846    -1856    -1877    -1960    -2037    -2049    -2030 
   -2023    -2002    -1980    -2019    -2058    -2084    -2195    -2339 
   -2413    -2446    -2479    -2504    -2502    -2444    -2354    -2312 
   -2296    -2249    -2215    -2259    -2351    -2388    -2415    -2552 
   -2678    -2673    -2686    -2751    -2727    -2651    -2637    -2613 
   -2513    -2452    -2477    -2474    -2442    -2458    -2477    -2432 
   -2373    -2338    -2296    -2226    -2128    -2038    -1999    -1977 
   -1904    -1846    -1891    -1927    -1861    -1806    -1827    -1813 
   -1718    -1640    -1611    -1570    -1493    -1417    -1356    -1318 
   -1313    -1290    -1231    -1221    -1255    -1250    -1223    -1193 
   -1119    -1015     -911     -787     -680     -652     -614     -488 
    -436     -522     -503     -359     -346     -414     -338     -202 
    -167     -147      -94     -121     -180     -156     -178     -334 
    -450     -476     -573     -737     -805     -795     -819     -857 
    -864     -862     -841     -832     -901     -973     -962     -974 
   -1100    -1231    -1260    -1255    -1308    -1387    -1417    -1413 
   -1460    -1539    -1548    -1495    -1509    -1601    -1614    -1529 
   -1491    -1516    -1525    -1529    -1539    -1522    -1490    -1486 
   -1485    -1447    -1408    -1355    -1277    -1255    -1286    -1301 
   -1354    -1503    -1679    -1809    -1945    -2128    -2257    -2296 
   -2330    -2331    -2230    -2087    -1985    -1881    -1744    -1679 
   -1711    -1711    -1682    -1742    -1838    -1831    -1802    -1869 
   -1931    -1910    -1873    -1863    -1857    -1864    -1891    -1895 
   -1840    -1814    -1904    -1969    -1900    -1891    -2003    -2008 
   -1921    -1961    -2046    -1968    -1869    -1917    -1935    -1829 
   -1794    -1868    -1867    -1813    -1850    -1923    -1961    -2037 
   -2119    -2103    -2066    -2116    -2169    -2187    -2220    -2227 
   -2236    -2324    -2371    -2305    -2280    -2322    -2236    -2016 
   -1873    -1800    -1618    -1391    -1277    -1201    -1038     -842 
    -719     -683     -681     -638     -576     -591     -657     -706 
    -750     -830     -938    -1000    -1000    -1003    -1034    -1058 
   -1043    -1023    -1058    -1112    -1090    -1047    -1097    -1169 
   -1150    -1119    -1159    -1193    -1206    -1278    -1382    -1455 
   -1497    -1534    -1575    -1610    -1620    -1602    -1614    -1671 
   -1698    -1663    -1665    -1767    -1850    -1838    -1845    -1919 
   -1962    -1925    -1896    -1906    -1864    -1786    -1745    -1725 
   -1669    -1579    -1524    -1547    -1597    -1587    -1549    -1595 
   -1672    -1710    -1761    -1826    -1848    -1856    -1842    -1736 
   -1603    -1529    -1387    -1138     -997    -1019     -970     -835 
    -854     -999    -1021     -988    -1038    -1019     -901     -838 
    -796     -702     -622     -608     -627     -660     -727     -801 
    -859     -924     -974     -970     -939     -911     -873     -847 
    -843     -854     -939    -1098    -1237    -1347    -1479    -1626 
   -1723    -1728    -1687    -1633    -1555    -1491    -1435    -1352 
   -1298    -1310    -1351    -1382    -1398    -1440    -1502    -1512 
   -1494    -1514    -1509    -1443    -1385    -1343    -1345    -1426 
   -1472    -1441    -1507    -1692    -1784    -1748    -1742    -1772 
   -1745    -1703    -1686    -1651    -1611    -1640    -1744    -1857 
   -1966    -2107    -2269    -2409    -2493    -2542    -2577    -2578 
   -2581    -2623    -2633    -2586    -2567    -2596    -2609    -2597 
   -2556    -2498    -2473    -2458    -2377    -2253    -2170    -2134 
   -2058    -1925    -1821    -1752    -1640    -1510    -1441    -1383 
   -1282    -1210    -1208    -1198    -1185    -1225    -1293    -1344 
   -1378    -1408    -1421    -1395    -1352    -1312    -1227    -1094 
   -1020    -1012     -962     -916     -989    -1071    -1090    -1188 
   -1352    -1455    -1540    -1665    -1763    -1809    -1858    -1907 
   -1895    -1852    -1844    -1826    -1726    -1614    -1598    -1597 
   -1497    -1381    -1367    -1393    -1348    -1294    -1318    -1364 
   -1372    -1372    -1381    -1391    -1374    -1296    -1182    -1094 
   -1024     -877     -672     -560     -550     -508     -430     -414 
    -437     -433     -426     -423     -400     -391     -430     -492 
    -550     -643     -787     -934    -1105    -1297    -1416    -1499 
   -1611    -1674    -1678    -1698    -1701    -1611    -1513    -1529 
   -1598    -1601    -1599    -1717    -1871    -1962    -2087    -2243 
   -2332    -2386    -2454    -2488    -2439    -2357    -2312    -2230 
   -2095    -2042    -2018    -1880    -1769    -1840    -1921    -1845 
   -1800    -1931    -2025    -1945    -1860    -1881    -1890    -1746 
   -1530    -1356    -1179     -946     -700     -510     -379     -270 
    -207     -224     -279     -318     -352     -405     -457     -518 
    -573     -550     -517     -616     -756     -742     -675     -776 
    -942     -950     -911     -990    -1054    -1000     -990    -1078 
   -1105    -1107    -1228    -1406    -1555    -1699    -1798    -1806 
   -1814    -1867    -1854    -1717    -1583    -1564    -1570    -1513 
   -1494    -1597    -1722    -1742    -1719    -1795    -1896    -1846 
   -1738    -1748    -1768    -1694    -1642    -1645    -1648    -1714 
   -1795    -1752    -1679    -1721    -1777    -1719    -1642    -1672 
   -1737    -1726    -1705    -1757    -1776    -1709    -1718    -1829 
   -1871    -1852    -1904    -2027    -2166    -2296    -2373    -2415 
   -2474    -2505    -2444    -2339    -2218    -2091    -2008    -1930 
   -1803    -1746    -1819    -1856    -1790    -1771    -1799    -1749 
   -1656    -1603    -1549    -1443    -1323    -1269    -1305    -1398 
   -1486    -1555    -1690    -1907    -2083    -2187    -2280    -2334 
   -2323    -2295    -2289    -2251    -2119    -2010    -1991    -1937 
   -1836    -1783    -1757    -1707    -1652    -1611    -1560    -1495 
   -1440    -1413    -1381    -1318    -1258    -1190    -1097    -1039 
   -1020     -953     -861     -854     -901     -885     -838     -858 
    -912     -911     -893     -932    -1024    -1139    -1252    -1362 
   -1493    -1620    -1676    -1694    -1773    -1865    -1833    -1768 
   -1826    -1888    -1841    -1784    -1788    -1822    -1842    -1836 
   -1840    -1869    -1923    -2007    -2068    -2093    -2141    -2168 
   -2107    -2027    -1952    -1786    -1584    -1447    -1350    -1259 
   -1189    -1120    -1038    -1015    -1074    -1113    -1102    -1104 
   -1134    -1163    -1175    -1156    -1135    -1173    -1237    -1233 
