Origin Time       2025/01/13 21:19:00
Lat.              31.8
Long.             131.6
Depth. (km)       30
Mag.              6.9
Station Code      YMG015
Station Lat.      34.0966
Station Long.     132.0761
Station Height(m) 64
Record Time       2025/01/13 21:20:46
Sampling Freq(Hz) 100Hz
Duration Time(s)  72
Dir.              U-D
Scale Factor      7845(gal)/8223790
Max. Acc. (gal)   1.830
Last Correction   2025/01/13 21:20:46
Memo.             
[...]
    5011     5089     5179     5212     5173     5128     5157     5235 
    5269     5227     5190     5238     5324     5351     5297     5242 
    5271     5355     5385     5333     5308     5386     5497     5539 
    5494     5378     5224     5089     5035     5054     5020     4880 
    4734     4671     4687     4743     4806     4880     4981     5093 
    5192     5233     5217     5197     5170     5097     4992     4950 
    5005     5055     5046     5019     4980     4953     5013     5139 
    5217     5200     5115     5039     5031     5027     4985     4976 
    5005     5035     5043     5007     4981     5008     5036     5061 
    5109     5181     5232     5201     5135     5150     5259     5347 
    5347     5336     5332     5283     5240     5224     5202     5197 
    5186     5132     5098     5119     5127     5084     5067     5116 
    5148     5142     5139     5104     5012     4939     4962     5044 
    5073     5009     4911     4864     4897     4919     4862     4804 
    4841     4963     5062     5054     5013     5032     5063     5053 
    5049     5086     5127     5150     5181     5228     5267     5292 
    5323     5352     5333     5289     5275     5263     5215     5165 
    5179     5250     5283     5233     5147     5085     5063     5058 
    5073     5109     5130     5131     5148     5174     5161     5097 
    5013     4976     5000     5026     5009     4968     4951     5000 
    5043     4996     4926     4920     4965     5012     5026     4977 
    4899     4850     4838     4827     4815     4845     4934     5023 
    5057     5049     5047     5104     5208     5282     5309     5329 
    5363     5401     5420     5397     5340     5325     5401     5497 
    5543     5555     5567     5599     5630     5602     5505     5393 
    5319     5310     5346     5359     5325     5278     5256     5267 
    5285     5285     5275     5290     5346     5416     5467     5508 
    5568     5637     5674     5670     5652     5624     5556     5440 
    5319     5246     5255     5282     5224     5113     5065     5074 
    5061     5040     5098     5211     5252     5186     5094     5036 
    5011     5024     5040     4982     4885     4854     4892     4923 
    4924     4919     4915     4927     4981     5055     5080     5047 
    5022     5049     5115     5175     5209     5233     5232     5190 
    5158     5165     5173     5190     5236     5260     5244     5232 
    5244     5281     5368     5474     5510     5466     5401     5359 
    5333     5316     5320     5352     5382     5395     5413     5422 
    5413     5408     5398     5364     5308     5221     5109     5004 
    4911     4822     4758     4737     4761     4839     4958     5078 
    5173     5233     5282     5346     5401     5427     5455     5494 
    5490     5416     5319     5262     5258     5282     5320     5348 
    5300     5174     5055     4970     4889     4822     4791     4780 
    4769     4770     4815     4900     4982     5028     5046     5071 
    5128     5201     5242     5224     5186     5185     5235     5297 
    5341     5367     5341     5246     5121     5026     4954     4870 
    4788     4753     4776     4838     4907     4928     4914     4959 
    5089     5200     5243     5259     5273     5262     5190     5059 
    4957     4955     5005     5020     4981     4923     4904     4957 
    5027     5051     5053     5105     5227     5356     5410     5367 
    5263     5139     5040     5004     5003     4981     4946     4953 
    5022     5121     5198     5227     5233     5270     5346     5443 
    5516     5502     5440     5424     5413     5347     5260     5186 
    5107     5031     4968     4897     4834     4816     4855     4936 
    5043     5181     5333     5418     5412     5378     5347     5301 
    5248     5196     5136     5100     5085     5059     5054     5070 
    5071     5103     5179     5235     5258     5292     5358     5436 
    5490     5510     5524     5556     5640     5767     5854     5852 
    5794     5707     5571     5401     5250     5127     5003     4874 
    4766     4692     4666     4703     4783     4882     5005     5134 
    5233     5306     5370     5449     5552     5620     5618     5605 
    5595     5518     5351     5167     5034     4934     4814     4672 
    4546     4450     4369     4303     4286     4301     4287     4272 
    4360     4527     4669     4784     4912     5035     5179     5366 
    5530     5641     5709     5722     5730     5778     5740     5562 
    5377     5243     5115     5015     4928     4772     4610     4579 
    4641     4668     4617     4526     4500     4556     4564     4503 
    4461     4436     4449     4549     4644     4668     4656     4664 
    4756     4924     5089     5196     5256     5333     5416     5470 
    5532     5579     5539     5425     5292     5158     5030     4920 
    4839     4792     4801     4847     4904     4989     5084     5157 
    5224     5274     5287     5285     5255     5225     5265     5327 
    5344     5354     5366     5351     5336     5337     5336     5359 
    5408     5413     5368     5320     5300     5324     5354     5336 
    5290     5273     5278     5251     5194     5146     5131     5130 
    5084     4984     4878     4800     4777     4833     4924     4992 
    5039     5136     5306     5456     5522     5572     5668     5768 
    5760     5614     5454     5374     5309     5212     5131     5050 
    4893     4700     4602     4630     4699     4742     4801     4916 
    5043     5154     5267     5366     5404     5394     5351     5289 
    5239     5224     5236     5252     5263     5262     5225     5151 
    5096     5108     5135     5092     4992     4922     4912     4908 
    4868     4828     4819     4849     4941     5071     5142     5142 
    5169     5246     5302     5290     5244     5197     5134     5042 
    4978     4985     5023     5043     5058     5101     5162     5185 
    5154     5132     5147     5165     5178     5200     5224     5256 
    5278     5282     5286     5263     5200     5135     5098     5078 
    5049     5027     5042     5108     5220     5323     5374     5395 
    5404     5394     5383     5389     5378     5335     5317     5337 
    5329     5271     5211     5175     5143     5096     5070     5123 
    5233     5321     5358     5374     5417     5499     5553     5497 
    5375     5294     5300     5347     5375     5374     5393     5478 
    5586     5614     5533     5424     5394     5454     5544     5614 
    5644     5665     5706     5733     5722     5702     5709     5724 
    5687     5595     5501     5441     5418     5412     5391     5329 
    5244     5194     5184     5154     5086     5038     5061     5148 
    5251     5323     5359     5382     5405     5425     5459     5513 
    5543     5533     5521     5530     5518     5443     5351     5293 
    5240     5190     5209     5286     5314     5225     5071     4946 
    4885     4846     4779     4700     4666     4688     4743     4824 
    4930     5012     5042     5049     5096     5193     5248     5209 
    5162     5193     5273     5300     5215     5047     4870     4741 
    4671     4611     4553     4534     4552     4558     4541     4553 
    4639     4783     4959     5144     5263     5277     5258     5279 
    5301     5256     5173     5119     5121     5152     5167     5146 
    5123     5147     5206     5259     5305     5340     5321     5259 
    5184     5081     4958     4847     4774     4746     4719     4677 
    4669     4706     4745     4750     4746     4796     4893     4974 
    5011     5007     4973     4926     4873     4828     4808     4812 
    4837     4865     4884     4909     4949     4984     5011     5054 
    5120     5190     5244     5269     5263     5236     5224     5248 
    5274     5286     5310     5364     5474     5625     5719     5741 
    5780     5861     5913     5926     5946     5944     5859     5706 
    5530     5390     5343     5343     5293     5181     5066     4993 
    4961     4934     4905     4882     4828     4734     4653     4629 
    4666     4739     4808     4872     4957     5044     5097     5131 
    5123     5058     5003     4990     4980     4945     4878     4784 
    4715     4706     4703     4649     4565     4544     4614     4672 
    4671     4684     4712     4700     4708     4792     4868     4889 
    4938     5007     4999     4916     4866     4914     5023     5089 
    5071     5046     5057     5053     5013     4995     4990     4947 
    4872     4827     4826     4849     4900     4969     5034     5084 
    5105     5098     5082     5034     4916     4768     4664     4645 
    4671     4665     4612     4604     4698     4841     4959     5027 
    5067     5140     5242     5308     5292     5189     5030     4850 
    4684     4585     4576     4594     4583     4583     4639     4699 
    4693     4660     4671     4719     4750     4756     4752     4734 
    4731     4791     4903     4996     5036     5078     5173     5269 
    5285     5204     5089     4990     4919     4872     4823     4772 
    4770     4807     4788     4702     4631     4608     4621     4675 
    4764     4849     4896     4924     4962     4986     4972     4954 
    4978     5016     4999     4934     4901     4927     4974     5019 
    5071     5148     5202     5171     5101     5047     4985     4901 
    4835     4819     4855     4926     4993     5030     5069     5151 
    5244     5331     5436     5541     5595     5578     5516     5486 
    5513     5543     5564     5586     5572     5513     5458     5425 
    5401     5393     5432     5521     5589     5559     5460     5359 
    5287     5263     5260     5250     5258     5293     5317     5333 
    5400     5508     5579     5586     5590     5625     5648     5628 
    5574     5545     5582     5622     5602     5555     5502     5421 
    5324     5270     5281     5301     5331     5412     5522     5605 
    5648     5687     5742     5807     5854     5860     5848     5864 
    5894     5907     5900     5873     5830     5802     5786     5734 
    5641     5556     5512     5503     5508     5471     5386     5319 
    5306     5310     5296     5275     5270     5252     5225     5223 
    5238     5258     5325     5459     5628     5795     5929     5987 
    5983     6016     6107     6147     6099     6034     5981     5938 
    5929     5906     5838     5784     5764     5759     5784     5813 
    5802     5749     5652     5571     5610     5733     5802     5772 
    5707     5671     5632     5549     5436     5317     5213     5117 
    4996     4855     4741     4687     4666     4642     4631     4675 
    4745     4789     4812     4822     4804     4753     4662     4567 
    4511     4463     4390     4306     4199     4070     3982     3973 
    4016     4060     4071     4058     4072     4168     4320     4430 
    4479     4540     4646     4770     4885     4969     5013     5038 
    5044     5022     5003     5036     5103     5135     5121     5125 
    5162     5182     5171     5146     5116     5080     5057     5076 
    5132     5170     5155     5125     5147     5223     5277     5263 
    5225     5221     5254     5289     5298     5301     5332     5378 
    5387     5343     5263     5169     5050     4904     4764     4650 
    4554     4491     4446     4376     4298     4213     4105     4031 
    4023     4051     4112     4202     4280     4344     4425     4522 
    4638     4789     4924     4996     5051     5136     5223     5260 
    5247     5243     5244     5224     5235     5297     5379     5468 
    5536     5578     5660     5795     5922     6025     6110     6153 
    6158     6158     6170     6191     6205     6222     6234     6192 
    6102     6053     6093     6164     6170     6107     6053     6035 
    6006     5952     5914     5903     5883     5811     5668     5516 
    5443     5395     5274     5116     5009     4970     4958     4932 
    4905     4912     4953     5020     5086     5124     5155     5212 
    5255     5240     5189     5132     5063     4989     4930     4891 
    4873     4841     4749     4623     4526     4460     4428     4445 
    4483     4507     4521     4523     4495     4428     4379     4410 
    4499     4584     4648     4712     4787     4850     4904     4939 
    4950     4981     5024     5017     4970     4935     4939     4978 
    5005     4976     4916     4854     4811     4799     4807     4849 
    4947     5086     5242     5379     5506     5653     5792     5863 
    5861     5825     5805     5844     5937     6037     6102     6133 
    6126     6079     6035     6015     5983     5919     5842     5756 
    5678     5647     5682     5742     5775     5772     5763     5772 
    5819     5865     5872     5867     5853     5826     5837     5876 
    5860     5767     5644     5536     5448     5374     5298     5224 
    5158     5103     5051     4981     4887     4789     4707     4658 
    4662     4707     4752     4799     4876     4962     5012     5031 
    5042     5040     5028     5015     4980     4931     4901     4903 
    4915     4905     4880     4889     4954     5027     5067     5070 
    5022     4950     4887     4823     4741     4646     4540     4430 
    4342     4282     4236     4186     4129     4066     3983     3886 
    3800     3717     3612     3476     3348     3261     3225     3226 
    3254     3311     3383     3458     3557     3674     3792     3900 
    3985     4063     4159     4251     4309     4347     4415     4522 
    4606     4610     4585     4612     4691     4758     4783     4806 
    4868     4954     5016     5030     5017     5011     5016     5019 
    4997     4953     4939     4982     5043     5074     5050     4999 
    5003     5092     5181     5193     5185     5256     5409     5591 
    5733     5792     5809     5859     5952     6039     6085     6077 
    6035     5977     5910     5846     5768     5668     5574     5476 
    5354     5227     5125     5073     5069     5103     5184     5287 
    5366     5402     5420     5449     5520     5624     5745     5872 
    5991     6092     6166     6227     6269     6262     6235     6242 
    6264     6258     6204     6114     6034     5984     5934     5856 
    5768     5718     5726     5752     5745     5725     5755     5833 
    5892     5883     5799     5703     5665     5684     5728     5779 
    5788     5742     5686     5643     5593     5503     5383     5267 
    5170     5082     4976     4845     4726     4626     4526     4438 
    4391     4367     4325     4259     4190     4114     4028     3955 
    3939     4006     4118     4226     4340     4461     4573     4689 
    4833     5000     5189     5409     5610     5721     5764     5827 
    5948     6089     6201     6272     6326     6363     6370     6372 
    6394     6424     6423     6393     6355     6313     6250     6156 
    6050     5981     5957     5940     5892     5792     5656     5540 
    5489     5481     5463     5420     5377     5356     5350     5358 
    5363     5335     5277     5212     5140     5071     5022     4985 
    4932     4858     4789     4758     4754     4738     4704     4672 
    4633     4563     4465     4406     4403     4407     4406     4421 
    4445     4459     4436     4365     4291     4259     4272     4347 
    4464     4550     4580     4588     4584     4599     4669     4758 
    4812     4850     4905     4957     4953     4891     4826     4811 
    4834     4842     4820     4783     4730     4672     4621     4585 
    4590     4629     4654     4653     4637     4611     4579     4548 
    4530     4544     4594     4662     4727     4774     4823     4912 
    5039     5173     5285     5360     5424     5493     5536     5524 
    5475     5435     5406     5364     5304     5238     5177     5113 
    5030     4922     4824     4764     4720     4680     4635     4554 
    4460     4422     4430     4444     4467     4509     4567     4637 
    4693     4699     4646     4581     4580     4661     4745     4754 
    4696     4634     4614     4612     4622     4676     4754     4816 
    4884     4976     5066     5144     5229     5335     5437     5505 
    5549     5602     5676     5760     5841     5911     5975     6042 
    6118     6205     6295     6334     6308     6289     6334     6385 
    6367     6299     6234     6191     6161     6131     6096     6066 
    6046     6048     6056     6053     6057     6062     6019     5929 
    5836     5745     5651     5551     5432     5290     5144     5012 
    4904     4810     4704     4611     4568     4571     4583     4557 
    4492     4453     4488     4569     4654     4730     4807     4903 
    5020     5150     5287     5435     5593     5744     5859     5933 
    5995     6052     6097     6145     6196     6222     6205     6158 
    6108     6057     5996     5935     5864     5761     5656     5576 
    5513     5448     5367     5279     5197     5123     5067     5044 
    5040     5038     5028     5027     5032     5020     4995     4969 
    4946     4928     4885     4797     4703     4649     4641     4657 
    4673     4685     4677     4646     4627     4634     4641     4634 
    4627     4638     4665     4706     4758     4807     4855     4895 
    4922     4968     5009     5003     4977     4980     5000     5013 
    5031     5073     5127     5182     5242     5300     5327     5308 
    5281     5293     5316     5309     5278     5259     5277     5308 
    5302     5232     5139     5097     5116     5139     5111     5027 
    4939     4887     4858     4808     4723     4656     4653     4680 
    4679     4658     4666     4715     4758     4741     4661     4561 
    4484     4441     4418     4383     4309     4186     4064     4009 
    3996     3936     3843     3807     3832     3885     3966     4081 
    4228     4411     4633     4893     5170     5433     5682     5892 
    6029     6114     6185     6230     6222     6166     6091     6022 
    5952     5863     5776     5698     5597     5485     5418     5397 
    5386     5373     5371     5391     5422     5432     5404     5368 
    5352     5337     5323     5337     5375     5397     5394     5394 
    5416     5451     5490     5524     5552     5584     5617     5644 
    5679     5715     5734     5741     5734     5709     5663     5607 
    5572     5572     5589     5613     5629     5624     5605     5599 
    5616     5633     5625     5603     5607     5625     5625     5607 
    5578     5543     5516     5506     5495     5437     5325     5209 
    5124     5049     4970     4896     4818     4718     4606     4514 
    4453     4409     4376     4374     4406     4432     4426     4441 
    4531     4660     4757     4830     4901     4972     5030     5065 
    5094     5150     5206     5232     5229     5223     5233     5247 
    5240     5233     5251     5279     5292     5290     5292     5301 
    5325     5364     5395     5412     5435     5470     5517     5584 
    5663     5726     5780     5846     5911     5958     6000     6042 
    6058     6021     5944     5859     5764     5661     5549     5421 
