Origin Time       2025/01/13 21:19:00
Lat.              31.8
Long.             131.6
Depth. (km)       30
Mag.              6.9
Station Code      YMG011
Station Lat.      34.0643
Station Long.     131.0213
Station Height(m) 25
Record Time       2025/01/13 21:20:23
Sampling Freq(Hz) 100Hz
Duration Time(s)  109
Dir.              U-D
Scale Factor      7845(gal)/8223790
Max. Acc. (gal)   1.216
Last Correction   2025/01/13 21:20:23
Memo.             
[...]
   -1374    -1406    -1475    -1568    -1655    -1711    -1732    -1714 
   -1674    -1626    -1583    -1555    -1537    -1536    -1564    -1622 
   -1698    -1772    -1825    -1834    -1807    -1761    -1718    -1702 
   -1717    -1736    -1719    -1648    -1525    -1387    -1279    -1220 
   -1196    -1194    -1204    -1223    -1248    -1270    -1271    -1247 
   -1200    -1146    -1104    -1089    -1107    -1151    -1204    -1250 
   -1287    -1314    -1327    -1323    -1305    -1289    -1290    -1316 
   -1372    -1451    -1522    -1561    -1574    -1563    -1524    -1468 
   -1412    -1348    -1277    -1198    -1131    -1107    -1131    -1174 
   -1202    -1198    -1198    -1243    -1329    -1418    -1470    -1468 
   -1444    -1441    -1475    -1513    -1513    -1478    -1436    -1410 
   -1409    -1426    -1436    -1425    -1398    -1364    -1336    -1341 
   -1364    -1381    -1398    -1417    -1436    -1471    -1520    -1566 
   -1610    -1668    -1737    -1803    -1852    -1877    -1872    -1848 
   -1811    -1757    -1686    -1597    -1499    -1409    -1335    -1290 
   -1293    -1345    -1428    -1505    -1555    -1586    -1611    -1638 
   -1665    -1675    -1665    -1664    -1698    -1768    -1852    -1906 
   -1898    -1840    -1767    -1715    -1707    -1718    -1714    -1674 
   -1599    -1526    -1491    -1501    -1536    -1570    -1593    -1617 
   -1665    -1742    -1818    -1860    -1856    -1814    -1757    -1699 
   -1651    -1622    -1609    -1601    -1584    -1555    -1518    -1493 
   -1463    -1410    -1320    -1202    -1097    -1031    -1013    -1054 
   -1128    -1190    -1228    -1256    -1301    -1378    -1472    -1571 
   -1669    -1742    -1777    -1783    -1756    -1688    -1607    -1530 
   -1475    -1451    -1436    -1408    -1377    -1372    -1405    -1463 
   -1529    -1583    -1621    -1648    -1680    -1699    -1679    -1617 
   -1533    -1459    -1416    -1404    -1409    -1420    -1431    -1449 
   -1486    -1526    -1544    -1530    -1498    -1460    -1435    -1426 
   -1426    -1421    -1416    -1416    -1422    -1431    -1448    -1474 
   -1503    -1528    -1534    -1516    -1474    -1422    -1391    -1394 
   -1420    -1445    -1445    -1416    -1393    -1412    -1464    -1530 
   -1587    -1625    -1638    -1633    -1621    -1614    -1591    -1534 
   -1468    -1429    -1443    -1503    -1586    -1649    -1660    -1625 
   -1579    -1553    -1543    -1530    -1505    -1476    -1468    -1502 
   -1579    -1680    -1772    -1821    -1822    -1787    -1734    -1676 
   -1610    -1537    -1471    -1413    -1354    -1296    -1256    -1256 
   -1298    -1352    -1386    -1386    -1378    -1404    -1470    -1533 
   -1564    -1561    -1545    -1543    -1556    -1568    -1564    -1555 
   -1566    -1607    -1660    -1695    -1682    -1606    -1490    -1368 
   -1282    -1259    -1286    -1325    -1327    -1275    -1206    -1161 
   -1156    -1183    -1213    -1216    -1193    -1181    -1215    -1294 
   -1382    -1433    -1416    -1340    -1259    -1223    -1233    -1269 
   -1300    -1306    -1296    -1290    -1310    -1367    -1443    -1499 
   -1532    -1561    -1607    -1690    -1788    -1861    -1887    -1881 
   -1858    -1819    -1759    -1668    -1555    -1451    -1405    -1437 
   -1526    -1620    -1679    -1695    -1694    -1713    -1744    -1755 
   -1725    -1657    -1588    -1559    -1578    -1628    -1688    -1746 
   -1798    -1853    -1910    -1949    -1957    -1925    -1854    -1763 
   -1678    -1624    -1613    -1640    -1684    -1715    -1717    -1687 
   -1633    -1576    -1525    -1487    -1471    -1467    -1471    -1502 
   -1567    -1661    -1749    -1792    -1777    -1711    -1615    -1524 
   -1443    -1364    -1297    -1267    -1289    -1340    -1382    -1387 
   -1359    -1318    -1286    -1260    -1236    -1224    -1231    -1250 
   -1273    -1296    -1313    -1314    -1310    -1328    -1382    -1466 
   -1547    -1590    -1586    -1574    -1593    -1644    -1691    -1680 
   -1587    -1452    -1332    -1256    -1227    -1221    -1217    -1221 
   -1254    -1329    -1432    -1526    -1588    -1614    -1615    -1603 
   -1587    -1556    -1498    -1422    -1354    -1317    -1328    -1364 
   -1401    -1422    -1441    -1464    -1486    -1498    -1494    -1466 
   -1417    -1367    -1343    -1344    -1348    -1313    -1229    -1120 
   -1019     -954     -942     -978    -1055    -1155    -1255    -1332 
   -1386    -1440    -1520    -1617    -1692    -1717    -1694    -1648 
   -1613    -1618    -1645    -1656    -1634    -1586    -1539    -1516 
   -1516    -1528    -1540    -1543    -1541    -1553    -1595    -1663 
   -1734    -1780    -1787    -1765    -1746    -1764    -1830    -1906 
   -1934    -1890    -1791    -1684    -1607    -1576    -1574    -1566 
   -1516    -1428    -1318    -1206    -1124    -1089    -1094    -1131 
   -1185    -1247    -1313    -1382    -1453    -1521    -1563    -1579 
   -1582    -1584    -1613    -1660    -1672    -1603    -1460    -1287 
   -1152    -1100    -1111    -1148    -1181    -1201    -1224    -1258 
   -1281    -1274    -1254    -1264    -1329    -1437    -1537    -1591 
   -1606    -1611    -1641    -1709    -1784    -1827    -1821    -1769 
   -1691    -1601    -1524    -1482    -1464    -1441    -1404    -1363 
   -1333    -1327    -1337    -1350    -1345    -1317    -1273    -1242 
   -1247    -1281    -1327    -1377    -1424    -1459    -1468    -1441 
   -1381    -1312    -1269    -1262    -1279    -1304    -1314    -1312 
   -1309    -1320    -1350    -1383    -1412    -1429    -1440    -1462 
   -1509    -1570    -1630    -1669    -1678    -1669    -1657    -1640 
   -1622    -1599    -1570    -1536    -1497    -1462    -1439    -1433 
   -1464    -1536    -1629    -1728    -1802    -1827    -1817    -1795 
   -1776    -1764    -1750    -1732    -1726    -1763    -1840    -1934 
   -2010    -2030    -1991    -1922    -1856    -1809    -1784    -1757 
   -1711    -1651    -1576    -1497    -1418    -1351    -1301    -1266 
   -1239    -1228    -1221    -1206    -1192    -1192    -1204    -1216 
   -1221    -1219    -1215    -1219    -1228    -1231    -1213    -1175 
   -1135    -1124    -1158    -1225    -1290    -1332    -1371    -1431 
   -1516    -1607    -1665    -1659    -1588    -1480    -1383    -1333 
   -1327    -1355    -1417    -1493    -1567    -1642    -1709    -1752 
   -1763    -1741    -1701    -1647    -1580    -1502    -1422    -1354 
   -1304    -1271    -1262    -1278    -1318    -1381    -1458    -1522 
   -1549    -1524    -1470    -1424    -1393    -1378    -1375    -1378 
   -1378    -1379    -1382    -1387    -1404    -1413    -1404    -1381 
   -1340    -1294    -1263    -1250    -1252    -1271    -1291    -1304 
   -1309    -1308    -1301    -1298    -1308    -1329    -1350    -1356 
   -1354    -1364    -1397    -1435    -1448    -1402    -1302    -1200 
   -1154    -1182    -1271    -1370    -1437    -1467    -1471    -1474 
   -1502    -1548    -1584    -1606    -1617    -1629    -1664    -1717 
   -1756    -1769    -1769    -1769    -1790    -1838    -1892    -1925 
   -1927    -1903    -1868    -1836    -1802    -1763    -1718    -1675 
   -1636    -1602    -1583    -1580    -1583    -1567    -1524    -1476 
   -1458    -1487    -1564    -1659    -1721    -1734    -1713    -1686 
   -1676    -1695    -1737    -1790    -1833    -1850    -1838    -1803 
   -1756    -1699    -1637    -1571    -1498    -1417    -1331    -1246 
   -1181    -1154    -1165    -1197    -1248    -1314    -1389    -1453 
   -1487    -1489    -1475    -1458    -1436    -1422    -1421    -1429 
   -1441    -1448    -1433    -1387    -1316    -1227    -1134    -1053 
    -997     -972     -959     -947     -938     -924     -904     -885 
    -873     -859     -849     -851     -885     -946    -1015    -1081 
   -1136    -1182    -1228    -1282    -1328    -1345    -1335    -1312 
   -1286    -1270    -1270    -1290    -1329    -1391    -1474    -1557 
   -1630    -1695    -1749    -1788    -1817    -1840    -1869    -1911 
   -1952    -1985    -2000    -1999    -1993    -2002    -2023    -2050 
   -2072    -2074    -2043    -1987    -1927    -1879    -1841    -1800 
   -1752    -1695    -1648    -1621    -1613    -1598    -1561    -1502 
   -1452    -1426    -1417    -1409    -1381    -1329    -1279    -1252 
   -1246    -1258    -1283    -1316    -1363    -1433    -1525    -1629 
   -1719    -1767    -1764    -1734    -1707    -1706    -1745    -1800 
   -1834    -1838    -1822    -1798    -1777    -1750    -1696    -1621 
   -1540    -1466    -1410    -1372    -1348    -1335    -1335    -1362 
   -1414    -1476    -1529    -1556    -1563    -1564    -1555    -1529 
   -1487    -1432    -1368    -1306    -1263    -1237    -1224    -1209 
   -1171    -1119    -1086    -1085    -1117    -1171    -1223    -1258 
   -1287    -1328    -1385    -1452    -1517    -1567    -1605    -1640 
   -1682    -1729    -1773    -1811    -1834    -1837    -1818    -1772 
   -1691    -1590    -1502    -1445    -1420    -1410    -1394    -1370 
   -1350    -1350    -1368    -1386    -1397    -1413    -1447    -1505 
   -1588    -1691    -1776    -1821    -1819    -1775    -1698    -1607 
   -1506    -1387    -1255    -1132    -1047    -1026    -1066    -1147 
   -1233    -1297    -1331    -1343    -1360    -1408    -1486    -1570 
   -1640    -1680    -1692    -1692    -1695    -1694    -1674    -1634 
   -1588    -1548    -1518    -1494    -1471    -1452    -1436    -1422 
   -1406    -1381    -1345    -1309    -1277    -1252    -1237    -1233 
   -1240    -1262    -1314    -1390    -1460    -1509    -1533    -1534 
   -1529    -1530    -1543    -1560    -1557    -1526    -1475    -1409 
   -1340    -1289    -1264    -1259    -1270    -1290    -1323    -1370 
   -1437    -1524    -1622    -1717    -1795    -1854    -1912    -1972 
   -2026    -2077    -2123    -2157    -2164    -2135    -2083    -2020 
   -1965    -1930    -1903    -1873    -1825    -1748    -1657    -1571 
   -1501    -1453    -1414    -1371    -1327    -1293    -1287    -1306 
   -1328    -1337    -1327    -1313    -1329    -1390    -1478    -1549 
   -1586    -1591    -1586    -1597    -1634    -1682    -1706    -1694 
   -1660    -1628    -1609    -1602    -1591    -1544    -1456    -1359 
   -1285    -1244    -1223    -1196    -1152    -1096    -1050    -1031 
   -1036    -1062    -1105    -1154    -1206    -1271    -1354    -1443 
   -1514    -1556    -1564    -1533    -1468    -1382    -1290    -1216 
   -1174    -1166    -1174    -1177    -1169    -1161    -1163    -1186 
   -1229    -1274    -1302    -1323    -1344    -1364    -1394    -1445 
   -1509    -1560    -1595    -1629    -1674    -1719    -1757    -1784 
   -1799    -1798    -1786    -1772    -1752    -1728    -1717    -1723 
   -1732    -1732    -1714    -1669    -1605    -1534    -1466    -1408 
   -1374    -1372    -1391    -1408    -1424    -1440    -1444    -1445 
   -1464    -1516    -1594    -1682    -1767    -1840    -1892    -1930 
   -1954    -1953    -1919    -1864    -1810    -1783    -1787    -1815 
   -1848    -1854    -1837    -1814    -1798    -1783    -1773    -1748 
   -1695    -1637    -1599    -1586    -1590    -1602    -1613    -1614 
   -1603    -1588    -1580    -1575    -1568    -1555    -1521    -1464 
   -1405    -1356    -1323    -1313    -1328    -1355    -1386    -1410 
   -1421    -1420    -1394    -1347    -1297    -1251    -1208    -1186 
   -1190    -1208    -1237    -1273    -1296    -1301    -1296    -1293 
   -1294    -1294    -1291    -1305    -1350    -1428    -1526    -1622 
   -1687    -1702    -1692    -1692    -1711    -1738    -1761    -1780 
   -1799    -1815    -1841    -1872    -1881    -1857    -1810    -1756 
   -1706    -1675    -1660    -1641    -1607    -1560    -1509    -1467 
   -1439    -1406    -1372    -1358    -1367    -1391    -1425    -1459 
   -1479    -1487    -1501    -1520    -1539    -1555    -1566    -1572 
   -1571    -1549    -1506    -1436    -1345    -1263    -1205    -1177 
   -1170    -1174    -1170    -1158    -1147    -1138    -1129    -1144 
   -1189    -1248    -1314    -1372    -1418    -1455    -1480    -1494 
   -1497    -1480    -1449    -1414    -1387    -1378    -1374    -1360 
   -1331    -1287    -1243    -1212    -1198    -1201    -1215    -1237 
   -1264    -1289    -1318    -1375    -1466    -1580    -1718    -1860 
   -1972    -2043    -2076    -2070    -2039    -1988    -1923    -1852 
   -1784    -1736    -1714    -1709    -1719    -1744    -1759    -1752 
   -1732    -1702    -1649    -1578    -1507    -1451    -1421    -1439 
   -1485    -1524    -1544    -1559    -1572    -1595    -1629    -1656 
   -1660    -1636    -1595    -1561    -1541    -1522    -1491    -1435 
   -1354    -1263    -1188    -1139    -1111    -1081    -1036     -976 
    -916     -878     -862     -864     -873     -885     -903     -927 
    -965    -1011    -1065    -1138    -1240    -1359    -1472    -1570 
   -1634    -1663    -1674    -1679    -1680    -1672    -1647    -1593 
   -1520    -1437    -1345    -1237    -1102     -953     -808     -684 
    -594     -548     -544     -581     -648     -724     -797     -868 
    -940    -1020    -1094    -1146    -1177    -1209    -1254    -1310 
   -1367    -1405    -1412    -1389    -1356    -1335    -1329    -1352 
   -1405    -1475    -1545    -1606    -1657    -1705    -1769    -1876 
   -2025    -2193    -2353    -2489    -2598    -2675    -2725    -2756 
   -2764    -2748    -2710    -2656    -2583    -2484    -2355    -2207 
   -2041    -1876    -1732    -1615    -1525    -1455    -1406    -1372 
   -1351    -1348    -1363    -1387    -1417    -1456    -1510    -1584 
   -1674    -1763    -1837    -1880    -1884    -1860    -1827    -1792 
   -1740    -1657    -1564    -1479    -1417    -1379    -1354    -1321 
   -1273    -1224    -1196    -1192    -1208    -1228    -1246    -1263 
   -1278    -1289    -1300    -1317    -1339    -1355    -1362    -1360 
   -1343    -1304    -1263    -1248    -1266    -1309    -1362    -1398 
   -1397    -1364    -1323    -1278    -1227    -1166    -1094    -1023 
    -976     -973    -1011    -1062    -1098    -1101    -1075    -1039 
   -1011     -993     -969     -922     -854     -783     -724     -688 
    -673     -677     -700     -747     -812     -897     -990    -1075 
   -1135    -1169    -1189    -1212    -1246    -1285    -1317    -1336 
   -1343    -1355    -1386    -1437    -1503    -1563    -1598    -1614 
   -1633    -1661    -1705    -1757    -1802    -1815    -1791    -1738 
   -1660    -1572    -1490    -1417    -1372    -1378    -1433    -1524 
   -1624    -1703    -1753    -1795    -1846    -1911    -1987    -2066 
   -2134    -2189    -2242    -2286    -2326    -2350    -2338    -2293 
   -2239    -2191    -2149    -2110    -2061    -1992    -1904    -1813 
   -1741    -1695    -1661    -1630    -1601    -1570    -1539    -1517 
   -1506    -1493    -1468    -1431    -1385    -1340    -1301    -1271 
   -1251    -1235    -1220    -1196    -1163    -1134    -1104    -1078 
   -1066    -1065    -1057    -1053    -1062    -1080    -1109    -1161 
   -1228    -1296    -1348    -1379    -1390    -1382    -1362    -1340 
   -1317    -1285    -1250    -1221    -1202    -1189    -1192    -1217 
   -1250    -1270    -1281    -1286    -1296    -1317    -1348    -1371 
   -1371    -1354    -1329    -1309    -1294    -1279    -1251    -1213 
   -1185    -1181    -1197    -1233    -1287    -1337    -1366    -1387 
   -1416    -1432    -1439    -1441    -1445    -1459    -1486    -1518 
   -1544    -1553    -1560    -1575    -1607    -1663    -1733    -1810 
   -1891    -1969    -2035    -2074    -2083    -2065    -2034    -2003 
   -1976    -1948    -1910    -1861    -1809    -1772    -1761    -1760 
   -1760    -1769    -1792    -1823    -1857    -1891    -1927    -1977 
   -2041    -2110    -2177    -2230    -2269    -2307    -2332    -2342 
   -2332    -2289    -2212    -2119    -2014    -1908    -1819    -1730 
   -1638    -1551    -1468    -1394    -1328    -1255    -1171    -1082 
   -1003     -959     -958     -989    -1042    -1107    -1165    -1213 
   -1264    -1312    -1355    -1386    -1389    -1366    -1340    -1318 
   -1306    -1304    -1302    -1306    -1318    -1328    -1331    -1321 
   -1286    -1229    -1167    -1107    -1062    -1026     -993     -973 
    -970     -981    -1007    -1058    -1125    -1179    -1215    -1243 
   -1266    -1294    -1339    -1398    -1452    -1498    -1540    -1586 
   -1644    -1705    -1752    -1773    -1769    -1753    -1746    -1765 
   -1802    -1836    -1852    -1856    -1849    -1826    -1790    -1738 
   -1653    -1540    -1425    -1323    -1232    -1144    -1048     -963 
    -907     -895     -940    -1023    -1115    -1196    -1248    -1275 
   -1291    -1308    -1332    -1360    -1385    -1393    -1389    -1389 
   -1402    -1437    -1495    -1557    -1603    -1626    -1630    -1613 
   -1587    -1560    -1536    -1513    -1494    -1476    -1459    -1448 
   -1444    -1436    -1424    -1414    -1405    -1386    -1362    -1333 
   -1301    -1270    -1240    -1209    -1178    -1142    -1097    -1047 
    -993     -945     -912     -908     -931     -972    -1021    -1077 
   -1134    -1179    -1221    -1274    -1337    -1404    -1474    -1545 
   -1611    -1679    -1764    -1856    -1945    -2020    -2073    -2108 
   -2127    -2130    -2118    -2092    -2052    -1996    -1939    -1903 
   -1898    -1922    -1965    -2023    -2088    -2149    -2201    -2243 
   -2268    -2277    -2274    -2258    -2228    -2193    -2154    -2106 
   -2039    -1965    -1894    -1831    -1786    -1761    -1750    -1744 
   -1745    -1750    -1746    -1726    -1698    -1669    -1648    -1628 
   -1603    -1575    -1545    -1516    -1493    -1486    -1495    -1520 
   -1549    -1566    -1560    -1537    -1501    -1455    -1402    -1351 
   -1313    -1278    -1247    -1223    -1202    -1181    -1165    -1152 
   -1138    -1124    -1121    -1119    -1104    -1082    -1065    -1054 
   -1047    -1032     -999     -943     -888     -851     -845     -858 
    -878     -900     -918     -938     -972    -1023    -1084    -1143 
   -1198    -1256    -1316    -1372    -1428    -1483    -1539    -1579 
   -1598    -1617    -1641    -1663    -1684    -1714    -1741    -1763 
   -1777    -1782    -1772    -1752    -1714    -1660    -1602    -1545 
   -1495    -1462    -1444    -1429    -1409    -1382    -1354    -1333 
   -1327    -1347    -1387    -1414    -1409    -1382    -1333    -1262 
   -1193    -1136    -1085    -1046    -1023    -1008     -990     -961 
    -916     -873     -854     -858     -888     -953    -1043    -1155 
   -1296    -1455    -1605    -1734    -1833    -1900    -1944    -1962 
   -1968    -1966    -1948    -1919    -1879    -1814    -1730    -1628 
   -1514    -1408    -1317    -1246    -1205    -1198    -1210    -1231 
   -1256    -1285    -1314    -1347    -1387    -1445    -1517    -1594 
   -1683    -1791    -1900    -1996    -2070    -2114    -2118    -2087 
   -2019    -1921    -1798    -1664    -1528    -1395    -1263    -1136 
   -1020     -912     -820     -751     -704     -684     -683     -702 
    -743     -810     -900    -1007    -1119    -1244    -1389    -1547 
   -1717    -1891    -2047    -2182    -2296    -2384    -2439    -2455 
