Origin Time       2025/01/13 21:19:00
Lat.              31.8
Long.             131.6
Depth. (km)       30
Mag.              6.9
Station Code      YMG016
Station Lat.      34.1703
Station Long.     132.1764
Station Height(m) 7
Record Time       2025/01/13 21:20:28
Sampling Freq(Hz) 100Hz
Duration Time(s)  117
Dir.              N-S
Scale Factor      7845(gal)/8223790
Max. Acc. (gal)   4.953
Last Correction   2025/01/13 21:20:27
Memo.             
[...]
  -17786   -17626   -17454   -17253   -17027   -16800   -16594   -16413 
  -16262   -16150   -16070   -16000   -15920   -15844   -15803   -15826 
  -15908   -16021   -16140   -16267   -16411   -16564   -16711   -16854 
  -17003   -17162   -17348   -17558   -17774   -17986   -18176   -18315 
  -18373   -18343   -18242   -18080   -17883   -17668   -17444   -17228 
  -17032   -16850   -16694   -16564   -16441   -16291   -16096   -15880 
  -15688   -15552   -15500   -15531   -15604   -15685   -15759   -15834 
  -15911   -15974   -16031   -16102   -16200   -16345   -16526   -16703 
  -16876   -17049   -17219   -17386   -17540   -17678   -17797   -17867 
  -17872   -17830   -17761   -17682   -17612   -17578   -17575   -17572 
  -17539   -17442   -17289   -17135   -17024   -16961   -16914   -16849 
  -16733   -16538   -16299   -16093   -15966   -15927   -15974   -16063 
  -16124   -16128   -16086   -16020   -15955   -15909   -15916   -15986 
  -16092   -16210   -16330   -16441   -16537   -16613   -16676   -16738 
  -16806   -16883   -16960   -17043   -17135   -17220   -17307   -17410 
  -17514   -17590   -17633   -17653   -17636   -17547   -17401   -17234 
  -17064   -16897   -16745   -16603   -16490   -16421   -16391   -16384 
  -16407   -16474   -16579   -16696   -16788   -16829   -16802   -16717 
  -16605   -16515   -16482   -16488   -16483   -16436   -16384   -16393 
  -16490   -16686   -16978   -17302   -17556   -17691   -17697   -17591 
  -17436   -17304   -17234   -17223   -17255   -17297   -17301   -17228 
  -17059   -16816   -16545   -16291   -16086   -15947   -15840   -15741 
  -15665   -15626   -15614   -15642   -15731   -15880   -16082   -16322 
  -16561   -16773   -16951   -17089   -17201   -17298   -17351   -17344 
  -17304   -17269   -17278   -17363   -17505   -17675   -17847   -17971 
  -18026   -18037   -18026   -18014   -18021   -18037   -18058   -18099 
  -18131   -18108   -18034   -17919   -17757   -17582   -17443   -17347 
  -17307   -17305   -17288   -17239   -17154   -17010   -16807   -16571 
  -16320   -16100   -15936   -15799   -15669   -15557   -15471   -15412 
  -15380   -15373   -15387   -15402   -15395   -15375   -15375   -15410 
  -15473   -15576   -15722   -15905   -16110   -16305   -16463   -16584 
  -16676   -16745   -16814   -16902   -17005   -17119   -17223   -17304 
  -17356   -17415   -17512   -17660   -17857   -18067   -18227   -18326 
  -18377   -18395   -18397   -18399   -18424   -18472   -18476   -18405 
  -18280   -18102   -17859   -17568   -17265   -16960   -16669   -16401 
  -16174   -16001   -15861   -15723   -15570   -15402   -15257   -15187 
  -15184   -15209   -15245   -15300   -15411   -15600   -15835   -16060 
  -16259   -16416   -16526   -16638   -16785   -16935   -17062   -17197 
  -17351   -17505   -17648   -17764   -17821   -17815   -17760   -17666 
  -17554   -17454   -17394   -17396   -17431   -17450   -17415   -17324 
  -17227   -17188   -17234   -17319   -17371   -17361   -17289   -17173 
  -17049   -16938   -16853   -16827   -16860   -16897   -16907   -16872 
  -16789   -16677   -16579   -16548   -16592   -16659   -16688   -16653 
  -16582   -16541   -16567   -16645   -16769   -16916   -17032   -17088 
  -17088   -17032   -16918   -16768   -16632   -16544   -16499   -16478 
  -16453   -16421   -16422   -16492   -16610   -16725   -16799   -16803 
  -16742   -16657   -16572   -16479   -16382   -16299   -16254   -16247 
  -16291   -16384   -16471   -16511   -16492   -16416   -16337   -16332 
  -16401   -16521   -16667   -16804   -16935   -17070   -17216   -17397 
  -17621   -17863   -18091   -18281   -18405   -18445   -18424   -18412 
  -18435   -18469   -18504   -18504   -18424   -18297   -18156   -17965 
  -17709   -17432   -17173   -16953   -16811   -16744   -16686   -16599 
  -16503   -16422   -16383   -16395   -16429   -16461   -16472   -16433 
  -16317   -16155   -16035   -16023   -16110   -16266   -16443   -16605 
  -16746   -16889   -17035   -17163   -17257   -17312   -17316   -17261 
  -17185   -17130   -17086   -17051   -17049   -17085   -17139   -17194 
  -17221   -17176   -17051   -16865   -16657   -16492   -16416   -16418 
  -16429   -16364   -16220   -16071   -15986   -16000   -16114   -16267 
  -16382   -16421   -16359   -16217   -16074   -15996   -16008   -16105 
  -16254   -16432   -16627   -16843   -17069   -17259   -17410   -17558 
  -17686   -17743   -17710   -17597   -17436   -17309   -17289   -17381 
  -17541   -17705   -17797   -17798   -17751   -17687   -17593   -17463 
  -17320   -17180   -17043   -16930   -16845   -16779   -16740   -16758 
  -16857   -17024   -17205   -17342   -17381   -17305   -17139   -16899 
  -16613   -16368   -16266   -16313   -16460   -16632   -16744   -16764 
  -16726   -16633   -16492   -16374   -16347   -16420   -16569   -16762 
  -16950   -17093   -17186   -17231   -17221   -17178   -17147   -17166 
  -17217   -17251   -17240   -17194   -17109   -16968   -16745   -16457 
  -16178   -15978   -15903   -15958   -16097   -16274   -16486   -16695 
  -16827   -16850   -16795   -16734   -16729   -16788   -16914   -17095 
  -17257   -17335   -17339   -17300   -17269   -17285   -17342   -17389 
  -17373   -17238   -16972   -16630   -16305   -16052   -15863   -15720 
  -15635   -15614   -15653   -15755   -15900   -16058   -16225   -16372 
  -16464   -16498   -16483   -16447   -16434   -16475   -16576   -16741 
  -16973   -17240   -17467   -17604   -17664   -17668   -17645   -17613 
  -17527   -17352   -17127   -16908   -16741   -16663   -16669   -16742 
  -16885   -17101   -17325   -17460   -17444   -17305   -17135   -17015 
  -16951   -16929   -16935   -16947   -16956   -16991   -17080   -17180 
  -17244   -17270   -17267   -17259   -17265   -17255   -17189   -17078 
  -16992   -16993   -17072   -17177   -17267   -17321   -17342   -17307 
  -17186   -16999   -16792   -16611   -16502   -16478   -16484   -16461 
  -16429   -16410   -16379   -16337   -16309   -16312   -16352   -16429 
  -16526   -16633   -16741   -16842   -16937   -17031   -17105   -17119 
  -17055   -16943   -16852   -16849   -16937   -17059   -17169   -17234 
  -17230   -17153   -17023   -16880   -16779   -16752   -16785   -16854 
  -16949   -17061   -17181   -17288   -17338   -17323   -17251   -17108 
  -16923   -16731   -16537   -16329   -16116   -15942   -15850   -15853 
  -15942   -16083   -16220   -16306   -16351   -16356   -16287   -16154 
  -16032   -15989   -16059   -16245   -16501   -16776   -17062   -17321 
  -17473   -17501   -17477   -17458   -17440   -17388   -17285   -17151 
  -17007   -16875   -16779   -16731   -16749   -16806   -16841   -16842 
  -16858   -16895   -16893   -16812   -16659   -16465   -16283   -16143 
  -16055   -16015   -16013   -16054   -16119   -16183   -16248   -16317 
  -16380   -16448   -16541   -16664   -16792   -16902   -16981   -17028 
  -17074   -17134   -17178   -17181   -17142   -17077   -17020   -16993 
  -16984   -16972   -16930   -16827   -16672   -16501   -16330   -16175 
  -16074   -16051   -16120   -16302   -16591   -16927   -17234   -17455 
  -17560   -17550   -17454   -17321   -17213   -17169   -17212   -17362 
  -17593   -17841   -18073   -18300   -18526   -18735   -18904   -18991 
  -18981   -18889   -18736   -18544   -18350   -18206   -18154   -18212 
  -18345   -18472   -18517   -18419   -18150   -17751   -17298   -16860 
  -16472   -16139   -15866   -15669   -15569   -15574   -15654   -15741 
  -15786   -15774   -15685   -15491   -15192   -14856   -14613   -14578 
  -14778   -15168   -15693   -16263   -16765   -17136   -17348   -17416 
  -17367   -17239   -17085   -16946   -16872   -16927   -17112   -17379 
  -17674   -17909   -18007   -17937   -17732   -17459   -17157   -16862 
  -16652   -16564   -16560   -16573   -16546   -16465   -16344   -16182 
  -15994   -15831   -15732   -15716   -15768   -15828   -15869   -15912 
  -15975   -16063   -16217   -16447   -16691   -16899   -17084   -17275 
  -17462   -17622   -17751   -17832   -17869   -17914   -17971   -17982 
  -17905   -17772   -17648   -17595   -17660   -17828   -18034   -18238 
  -18419   -18539   -18567   -18511   -18377   -18156   -17884   -17606 
  -17316   -17034   -16816   -16657   -16484   -16249   -15943   -15611 
  -15310   -15066   -14910   -14875   -14936   -15045   -15164   -15259 
  -15331   -15426   -15564   -15716   -15876   -16066   -16298   -16564 
  -16873   -17213   -17537   -17838   -18157   -18485   -18763   -18954 
  -19045   -19033   -18945   -18840   -18769   -18709   -18604   -18446 
  -18261   -18058   -17852   -17635   -17401   -17176   -16949   -16699 
  -16444   -16204   -16000   -15861   -15778   -15704   -15620   -15564 
  -15557   -15608   -15711   -15830   -15916   -15946   -15942   -15957 
  -16028   -16140   -16289   -16490   -16742   -17004   -17215   -17351 
  -17423   -17443   -17436   -17431   -17431   -17448   -17516   -17629 
  -17753   -17836   -17845   -17794   -17698   -17570   -17410   -17205 
  -16939   -16644   -16367   -16155   -16020   -15946   -15942   -16024 
  -16177   -16344   -16456   -16467   -16359   -16158   -15944   -15820 
  -15870   -16096   -16411   -16742   -17042   -17267   -17400   -17469 
  -17508   -17528   -17558   -17626   -17712   -17780   -17874   -18022 
  -18169   -18261   -18296   -18268   -18172   -18000   -17733   -17377 
  -16987   -16644   -16437   -16399   -16519   -16757   -17022   -17216 
  -17293   -17280   -17263   -17315   -17390   -17413   -17373   -17277 
  -17112   -16879   -16584   -16236   -15862   -15519   -15245   -15014 
  -14806   -14654   -14557   -14466   -14389   -14345   -14308   -14297 
  -14324   -14327   -14269   -14169   -14057   -13999   -14069   -14291 
  -14640   -15044   -15429   -15726   -15928   -16104   -16313   -16603 
  -17027   -17582   -18204   -18851   -19491   -20065   -20536   -20899 
  -21123   -21207   -21208   -21153   -21016   -20808   -20563   -20282 
  -19938   -19534   -19111   -18662   -18164   -17613   -17008   -16372 
  -15762   -15228   -14801   -14470   -14188   -13906   -13616   -13362 
  -13190   -13111   -13097   -13149   -13274   -13459   -13701   -14003 
  -14341   -14675   -14979   -15241   -15465   -15695   -16021   -16476 
  -16972   -17406   -17757   -18037   -18279   -18501   -18663   -18725 
  -18704   -18642   -18565   -18484   -18407   -18382   -18430   -18492 
  -18517   -18481   -18373   -18208   -17996   -17761   -17582   -17521 
  -17570   -17659   -17714   -17710   -17676   -17660   -17680   -17732 
  -17803   -17852   -17822   -17683   -17447   -17216   -17124   -17221 
  -17470   -17772   -18006   -18110   -18102   -18040   -17991   -17959 
  -17906   -17824   -17697   -17498   -17243   -16969   -16650   -16262 
  -15855   -15495   -15233   -15136   -15196   -15326   -15464   -15583 
  -15634   -15604   -15550   -15514   -15502   -15546   -15695   -15958 
  -16295   -16649   -16950   -17149   -17266   -17347   -17404   -17444 
  -17479   -17506   -17497   -17419   -17288   -17150   -17023   -16906 
  -16773   -16602   -16407   -16225   -16085   -16013   -16027   -16087 
  -16127   -16108   -16043   -15994   -15997   -16027   -16078   -16163 
  -16262   -16394   -16609   -16876   -17116   -17298   -17440   -17539 
  -17589   -17617   -17621   -17572   -17509   -17525   -17674   -17910 
  -18150   -18346   -18476   -18515   -18443   -18265   -18019   -17775 
  -17594   -17498   -17456   -17415   -17327   -17181   -17010   -16858 
  -16762   -16729   -16726   -16696   -16582   -16357   -16056   -15726 
  -15391   -15110   -14962   -14975   -15093   -15228   -15311   -15326 
  -15300   -15283   -15317   -15418   -15591   -15839   -16121   -16390 
  -16622   -16792   -16900   -16987   -17096   -17265   -17508   -17799 
  -18075   -18260   -18312   -18227   -18019   -17709   -17321   -16915 
  -16557   -16270   -16033   -15830   -15672   -15599   -15650   -15804 
  -15978   -16119   -16231   -16357   -16530   -16733   -16915   -17038 
  -17109   -17185   -17302   -17452   -17571   -17589   -17497   -17340 
  -17154   -16970   -16806   -16653   -16487   -16320   -16195   -16116 
  -16042   -15954   -15839   -15705   -15620   -15651   -15807   -16051 
  -16325   -16534   -16606   -16569   -16524   -16556   -16702   -16912 
  -17126   -17321   -17470   -17521   -17463   -17355   -17259   -17200 
  -17170   -17130   -17019   -16825   -16600   -16380   -16182   -16052 
  -16035   -16129   -16318   -16551   -16738   -16815   -16792   -16776 
  -16870   -17065   -17290   -17506   -17702   -17899   -18138   -18407 
  -18635   -18797   -18941   -19094   -19263   -19484   -19754   -20013 
  -20248   -20476   -20663   -20780   -20849   -20846   -20718   -20449 
  -20063   -19626   -19219   -18893   -18612   -18315   -17991   -17660 
  -17338   -17010   -16659   -16282   -15898   -15550   -15240   -14921 
  -14578   -14243   -13927   -13649   -13455   -13355   -13315   -13293 
  -13277   -13267   -13271   -13320   -13456   -13687   -13988   -14308 
  -14588   -14820   -15033   -15242   -15485   -15805   -16193   -16621 
  -17077   -17514   -17872   -18149   -18412   -18689   -18929   -19118 
  -19278   -19411   -19496   -19502   -19391   -19170   -18866   -18513 
  -18154   -17813   -17462   -17070   -16645   -16213   -15805   -15441 
  -15117   -14797   -14473   -14189   -13986   -13865   -13825   -13849 
  -13915   -14011   -14100   -14133   -14112   -14111   -14185   -14368 
  -14682   -15144   -15723   -16367   -17026   -17632   -18111   -18478 
  -18794   -19078   -19350   -19656   -20007   -20376   -20725   -21038 
  -21323   -21581   -21818   -22009   -22067   -21933   -21645   -21281 
  -20907   -20564   -20248   -19920   -19566   -19228   -18935   -18663 
  -18400   -18126   -17803   -17428   -17016   -16544   -16020   -15508 
  -15047   -14652   -14366   -14224   -14212   -14270   -14338   -14391 
  -14395   -14330   -14233   -14142   -14045   -13933   -13833   -13764 
  -13760   -13873   -14092   -14320   -14507   -14710   -14985   -15331 
  -15741   -16166   -16557   -16935   -17343   -17779   -18225   -18693 
  -19191   -19691   -20164   -20584   -20873   -20961   -20865   -20652 
  -20370   -20040   -19664   -19221   -18705   -18154   -17616   -17108 
  -16646   -16243   -15862   -15464   -15043   -14598   -14123   -13651 
  -13230   -12877   -12587   -12351   -12187   -12129   -12197   -12374 
  -12633   -12942   -13298   -13701   -14119   -14499   -14812   -15097 
  -15404   -15753   -16133   -16513   -16861   -17201   -17556   -17898 
  -18214   -18512   -18782   -19020   -19222   -19379   -19481   -19521 
  -19507   -19464   -19419   -19383   -19345   -19271   -19126   -18894 
  -18596   -18281   -17999   -17763   -17559   -17370   -17190   -17019 
  -16860   -16710   -16568   -16434   -16310   -16222   -16170   -16106 
  -16006   -15866   -15707   -15601   -15614   -15731   -15877   -16015 
  -16131   -16204   -16272   -16383   -16518   -16661   -16835   -17049 
  -17301   -17587   -17886   -18185   -18496   -18792   -19022   -19160 
  -19215   -19195   -19103   -18967   -18852   -18789   -18728   -18635 
  -18511   -18338   -18115   -17861   -17579   -17288   -17046   -16887 
  -16779   -16660   -16482   -16210   -15874   -15558   -15299   -15074 
  -14868   -14685   -14517   -14342   -14158   -14006   -13914   -13900 
  -13968   -14077   -14187   -14284   -14396   -14562   -14827   -15214 
  -15695   -16232   -16783   -17296   -17744   -18134   -18472   -18779 
  -19084   -19386   -19672   -19927   -20123   -20260   -20383   -20524 
  -20679   -20837   -20957   -20995   -20906   -20676   -20347   -19944 
  -19477   -18994   -18539   -18114   -17698   -17277   -16869   -16505 
  -16183   -15882   -15577   -15249   -14894   -14508   -14094   -13682 
  -13306   -12969   -12684   -12452   -12247   -12070   -11927   -11828 
  -11836   -11977   -12239   -12615   -13072   -13574   -14115   -14656 
  -15178   -15696   -16213   -16717   -17213   -17691   -18118   -18477 
  -18756   -18967   -19134   -19291   -19450   -19584   -19654   -19639 
  -19552   -19442   -19365   -19327   -19302   -19236   -19078   -18819 
  -18454   -17991   -17482   -16987   -16545   -16168   -15853   -15599 
  -15406   -15287   -15246   -15245   -15269   -15337   -15431   -15539 
  -15674   -15844   -16055   -16309   -16584   -16821   -16988   -17109 
  -17204   -17275   -17346   -17450   -17595   -17741   -17847   -17876 
  -17786   -17586   -17327   -17028   -16735   -16528   -16402   -16279 
  -16128   -15931   -15688   -15453   -15250   -15084   -15002   -15040 
  -15172   -15360   -15587   -15846   -16123   -16399   -16660   -16931 
  -17262   -17628   -17968   -18254   -18466   -18624   -18785   -18997 
  -19269   -19584   -19901   -20159   -20312   -20358   -20305   -20178 
  -19997   -19762   -19484   -19180   -18825   -18445   -18100   -17794 
  -17510   -17228   -16910   -16551   -16185   -15831   -15473   -15095 
  -14728   -14431   -14234   -14123   -14044   -13948   -13826   -13682 
  -13528   -13386   -13255   -13132   -13026   -12943   -12946   -13080 
  -13312   -13621   -14008   -14420   -14839   -15325   -15878   -16459 
  -17050   -17602   -18040   -18346   -18550   -18708   -18882   -19079 
  -19278   -19472   -19629   -19716   -19722   -19608   -19380   -19117 
  -18873   -18667   -18489   -18293   -18046   -17749   -17447   -17220 
  -17104   -17076   -17093   -17120   -17139   -17108   -17008   -16880 
  -16757   -16660   -16621   -16637   -16660   -16654   -16621   -16564 
  -16525   -16551   -16632   -16711   -16715   -16615   -16463   -16312 
  -16202   -16167   -16177   -16185   -16189   -16181   -16143   -16085 
  -16005   -15894   -15786   -15722   -15715   -15769   -15873   -16029 
  -16259   -16565   -16941   -17389   -17874   -18328   -18724   -19052 
  -19321   -19548   -19742   -19915   -20074   -20200   -20247   -20189 
  -20035   -19799   -19503   -19195   -18895   -18589   -18269   -17934 
  -17572   -17189   -16802   -16421   -16063   -15759   -15511   -15315 
  -15195   -15140   -15114   -15110   -15091   -15026   -14962   -14936 
  -14949   -15024   -15171   -15388   -15673   -16009   -16399   -16850 
  -17365   -17945   -18551   -19098   -19534   -19866   -20124   -20325 
  -20459   -20507   -20475   -20360   -20167   -19923   -19635   -19298 
  -18910   -18493   -18073   -17660   -17234   -16761   -16231   -15691 
  -15207   -14802   -14461   -14160   -13886   -13628   -13365   -13111 
  -12924   -12825   -12803   -12856   -12945   -13023   -13089   -13185 
  -13344   -13554   -13778   -13991   -14202   -14451   -14758   -15101 
  -15448   -15797   -16159   -16521   -16848   -17128   -17386   -17622 
  -17849   -18084   -18322   -18553   -18769   -18949   -19076   -19138 
  -19137   -19097   -19040   -18976   -18931   -18912   -18886   -18843 
  -18819   -18829   -18870   -18925   -18963   -18968   -18952   -18898 
  -18805   -18701   -18565   -18364   -18096   -17770   -17427   -17105 
  -16795   -16492   -16200   -15904   -15608   -15338   -15090   -14841 
  -14597   -14386   -14216   -14108   -14108   -14183   -14278   -14384 
  -14476   -14539   -14596   -14662   -14737   -14828   -14945   -15087 
  -15234   -15391   -15565   -15780   -16046   -16335   -16626   -16904 
  -17135   -17346   -17579   -17833   -18123   -18461   -18813   -19164 
  -19469   -19646   -19677   -19597   -19454   -19287   -19099   -18882 
  -18634   -18338   -18007   -17674   -17363   -17088   -16841   -16618 
