Origin Time       2025/01/13 21:19:00
Lat.              31.8
Long.             131.6
Depth. (km)       30
Mag.              6.9
Station Code      YMG002
Station Lat.      34.4077
Station Long.     131.3986
Station Height(m) 3
Record Time       2025/01/13 21:20:40
Sampling Freq(Hz) 100Hz
Duration Time(s)  108
Dir.              U-D
Scale Factor      7845(gal)/8223790
Max. Acc. (gal)   0.942
Last Correction   2025/01/13 21:20:41
Memo.             
[...]
    6894     6851     6828     6795     6752     6736     6740     6731 
    6702     6662     6623     6585     6546     6509     6484     6478 
    6492     6524     6566     6608     6650     6679     6685     6677 
    6655     6627     6606     6590     6563     6543     6538     6532 
    6520     6507     6488     6463     6448     6439     6434     6434 
    6435     6458     6507     6570     6629     6679     6721     6756 
    6794     6835     6874     6912     6956     7009     7052     7076 
    7096     7103     7075     7026     6988     6963     6951     6955 
    6970     6979     6983     6980     6957     6926     6894     6868 
    6856     6847     6847     6863     6889     6920     6957     6998 
    7038     7087     7128     7140     7141     7130     7094     7047 
    6994     6922     6840     6767     6717     6681     6650     6635 
    6633     6647     6670     6686     6674     6648     6639     6639 
    6643     6663     6700     6754     6824     6878     6903     6920 
    6939     6956     6966     6960     6934     6907     6898     6889 
    6863     6816     6748     6682     6639     6610     6579     6552 
    6548     6559     6581     6608     6632     6660     6706     6763 
    6809     6841     6875     6910     6925     6914     6889     6860 
    6832     6804     6771     6721     6666     6619     6578     6559 
    6561     6569     6579     6601     6629     6637     6639     6652 
    6667     6679     6696     6697     6678     6662     6673     6700 
    6723     6741     6755     6760     6767     6774     6778     6787 
    6812     6828     6826     6829     6836     6849     6886     6930 
    6967     7006     7065     7130     7173     7191     7198     7209 
    7222     7229     7226     7218     7207     7195     7169     7122 
    7048     6960     6909     6902     6891     6856     6828     6821 
    6802     6766     6709     6640     6597     6600     6636     6687 
    6743     6802     6864     6922     6979     7030     7076     7125 
    7149     7122     7063     7003     6947     6887     6831     6758 
    6671     6605     6548     6496     6466     6471     6485     6501 
    6534     6563     6573     6574     6583     6600     6637     6696 
    6748     6794     6860     6934     6980     7002     7017     7010 
    6986     6959     6910     6840     6770     6708     6632     6558 
    6502     6457     6427     6434     6477     6532     6598     6679 
    6739     6767     6779     6787     6799     6814     6833     6832 
    6806     6777     6743     6700     6664     6652     6647     6642 
    6654     6670     6670     6663     6650     6631     6625     6643 
    6655     6659     6671     6685     6686     6685     6681     6658 
    6629     6610     6608     6637     6700     6774     6829     6851 
    6855     6828     6774     6710     6644     6594     6570     6567 
    6570     6565     6551     6529     6520     6543     6606     6697 
    6794     6891     6980     7061     7128     7159     7155     7130 
    7087     7017     6937     6871     6812     6759     6724     6705 
    6674     6621     6574     6529     6486     6465     6465     6477 
    6502     6552     6590     6613     6659     6712     6759     6817 
    6883     6932     6972     7040     7107     7157     7203     7230 
    7238     7238     7248     7246     7217     7180     7134     7087 
    7056     7032     7011     7001     7011     7011     6982     6955 
    6924     6885     6849     6818     6790     6764     6766     6764 
    6735     6705     6686     6666     6652     6662     6671     6670 
    6694     6731     6751     6766     6779     6764     6723     6683 
    6631     6542     6454     6385     6328     6300     6320     6367 
    6416     6471     6521     6544     6558     6585     6628     6663 
    6686     6706     6709     6705     6700     6690     6686     6693 
    6709     6731     6775     6829     6852     6871     6897     6903 
    6903     6897     6879     6852     6847     6875     6895     6921 
    6970     7010     7048     7091     7125     7137     7148     7176 
    7184     7169     7137     7072     6998     6932     6866     6777 
    6681     6621     6579     6559     6588     6623     6647     6663 
    6666     6644     6610     6602     6597     6592     6613     6642 
    6664     6685     6714     6744     6763     6795     6825     6833 
    6849     6862     6859     6866     6897     6917     6894     6866 
    6836     6783     6728     6675     6624     6585     6575     6605 
    6644     6690     6748     6783     6794     6794     6783     6762 
    6740     6732     6712     6691     6698     6702     6690     6679 
    6686     6704     6710     6714     6713     6705     6728     6763 
    6777     6779     6767     6743     6709     6679     6650     6613 
    6598     6604     6617     6650     6682     6717     6758     6798 
    6829     6836     6836     6836     6813     6787     6759     6712 
    6662     6627     6624     6636     6670     6744     6820     6889 
    6961     7010     7044     7069     7086     7080     7053     7034 
    7006     6978     6982     6991     6995     7001     6997     6978 
    6963     6968     6971     6980     7026     7063     7074     7076 
    7053     6999     6937     6891     6856     6813     6782     6755 
    6705     6663     6632     6594     6554     6517     6492     6462 
    6443     6451     6459     6481     6521     6559     6600     6640 
    6683     6716     6728     6752     6790     6826     6863     6902 
    6947     6991     7065     7175     7277     7375     7447     7474 
    7476     7447     7387     7302     7210     7134     7068     7024 
    7001     6963     6921     6880     6832     6781     6724     6673 
    6615     6548     6493     6428     6361     6305     6250     6197 
    6135     6070     6003     5933     5895     5883     5888     5914 
    5938     5961     6003     6066     6150     6245     6358     6463 
    6535     6602     6659     6700     6728     6739     6755     6790 
    6832     6867     6885     6914     6952     6978     7005     7034 
    7074     7122     7176     7230     7240     7191     7113     7007 
    6905     6829     6767     6716     6693     6720     6772     6835 
    6926     7009     7048     7059     7052     7033     6999     6983 
    6979     6959     6966     6998     7018     7041     7067     7069 
    7045     7007     6956     6875     6802     6758     6717     6691 
    6685     6678     6669     6666     6671     6647     6601     6575 
    6559     6556     6573     6600     6640     6694     6766     6825 
    6843     6844     6824     6768     6708     6644     6582     6550 
    6562     6590     6606     6619     6621     6617     6644     6683 
    6705     6721     6739     6756     6763     6750     6729     6705 
    6693     6698     6708     6733     6770     6813     6870     6930 
    6990     7030     7052     7072     7072     7055     7018     6953 
    6882     6822     6774     6737     6720     6728     6740     6759 
    6787     6808     6833     6863     6872     6868     6851     6829 
    6786     6723     6675     6636     6594     6563     6551     6559 
    6570     6577     6588     6586     6583     6597     6608     6609 
    6608     6617     6623     6621     6643     6666     6694     6748 
    6816     6889     6966     7041     7101     7122     7130     7121 
    7076     7024     6976     6947     6929     6924     6949     6997 
    7053     7111     7153     7190     7219     7226     7230     7242 
    7264     7284     7296     7310     7296     7263     7233     7190 
    7141     7098     7060     7033     7011     7009     7013     7015 
    7029     7025     7006     6980     6953     6947     6952     6972 
    7007     7040     7074     7096     7109     7117     7117     7132 
    7157     7184     7225     7256     7273     7280     7261     7230 
    7190     7144     7102     7048     6997     6956     6914     6879 
    6848     6828     6808     6787     6785     6778     6783     6806 
    6813     6814     6816     6817     6813     6793     6770     6740 
    6704     6679     6652     6627     6617     6635     6679     6717 
    6750     6787     6801     6793     6768     6723     6660     6583 
    6519     6462     6405     6361     6319     6289     6272     6261 
    6276     6292     6305     6316     6312     6313     6312     6299 
    6277     6237     6189     6137     6072     6023     6003     6021 
    6070     6142     6237     6330     6424     6524     6608     6685 
    6760     6817     6855     6875     6886     6882     6876     6893 
    6899     6882     6855     6828     6810     6799     6817     6856 
    6880     6913     6956     6987     7020     7052     7078     7096 
    7106     7115     7106     7095     7107     7130     7168     7218 
    7263     7298     7311     7302     7257     7194     7142     7088 
    7042     7028     7025     7030     7047     7061     7064     7048 
    7032     7017     6984     6943     6886     6832     6798     6786 
    6790     6791     6793     6805     6825     6859     6897     6936 
    6988     7049     7115     7176     7227     7261     7254     7219 
    7172     7107     7040     6964     6885     6813     6744     6689 
    6658     6655     6679     6708     6739     6782     6822     6862 
    6895     6917     6922     6902     6874     6844     6818     6813 
    6820     6828     6822     6804     6772     6709     6635     6567 
    6484     6403     6342     6297     6278     6288     6319     6351 
    6405     6477     6531     6573     6602     6601     6592     6581 
    6577     6585     6600     6624     6646     6673     6721     6762 
    6786     6799     6781     6735     6678     6624     6567     6509 
    6466     6434     6417     6421     6435     6462     6485     6504 
    6528     6536     6536     6536     6525     6512     6490     6466 
    6446     6428     6431     6444     6465     6493     6504     6497 
    6482     6455     6426     6388     6361     6342     6312     6297 
    6295     6291     6303     6330     6358     6385     6436     6504 
    6552     6620     6718     6821     6929     7028     7102     7138 
    7130     7105     7057     7001     6966     6943     6928     6918 
    6906     6893     6875     6868     6871     6885     6922     6970 
    7020     7061     7084     7101     7110     7123     7144     7149 
    7159     7163     7146     7128     7102     7072     7042     7003 
    6960     6916     6886     6867     6835     6808     6777     6729 
    6678     6628     6589     6558     6556     6596     6639     6697 
    6782     6852     6910     6966     7015     7053     7090     7134 
    7160     7186     7230     7258     7264     7258     7233     7179 
    7096     7022     6944     6856     6801     6763     6723     6690 
    6656     6610     6550     6496     6455     6413     6400     6400 
    6374     6346     6327     6315     6307     6309     6319     6300 
    6272     6259     6247     6243     6262     6297     6332     6370 
    6432     6496     6561     6652     6733     6789     6841     6885 
    6907     6922     6948     6971     6980     7013     7048     7076 
    7118     7145     7145     7129     7094     7044     6974     6909 
    6852     6785     6733     6696     6651     6608     6575     6552 
    6517     6488     6486     6489     6504     6540     6578     6625 
    6682     6744     6793     6825     6863     6883     6893     6926 
    6955     6971     6997     7014     7007     6976     6936     6878 
    6808     6760     6720     6673     6640     6620     6602     6594 
    6617     6667     6720     6790     6876     6956     7030     7103 
    7163     7194     7209     7222     7213     7191     7177     7150 
    7119     7096     7064     7017     6971     6940     6902     6859 
    6833     6795     6737     6700     6682     6663     6655     6673 
    6687     6690     6712     6743     6775     6852     6961     7069 
    7171     7254     7299     7287     7250     7188     7084     6979 
    6886     6801     6748     6725     6712     6686     6658     6647 
    6633     6621     6628     6633     6640     6650     6662     6675 
    6685     6706     6731     6743     6766     6785     6791     6795 
    6801     6820     6845     6879     6906     6893     6863     6818 
    6755     6696     6644     6597     6552     6523     6515     6492 
    6467     6466     6463     6469     6497     6538     6583     6639 
    6704     6750     6772     6806     6833     6855     6898     6928 
    6930     6917     6902     6875     6826     6782     6732     6671 
    6631     6602     6578     6561     6546     6521     6478     6446 
    6415     6354     6291     6224     6156     6096     6052     6016 
    5979     5958     5971     5980     5999     6033     6070     6116 
    6165     6214     6259     6300     6349     6385     6416     6473 
    6532     6589     6662     6743     6809     6860     6921     6968 
    6995     7047     7109     7157     7221     7303     7379     7422 
    7445     7442     7393     7339     7283     7203     7134     7078 
    7022     6964     6918     6895     6860     6825     6814     6804 
    6804     6821     6841     6858     6868     6890     6912     6934 
    6980     7036     7113     7215     7327     7443     7543     7627 
    7697     7735     7766     7776     7758     7738     7705     7663 
    7627     7612     7611     7604     7614     7627     7628     7657 
    7682     7685     7690     7700     7707     7699     7681     7649 
    7580     7516     7481     7445     7411     7383     7348     7295 
    7233     7173     7098     7022     6974     6921     6866     6828 
    6801     6770     6731     6697     6655     6604     6579     6556 
    6523     6507     6502     6504     6501     6507     6517     6515 
    6520     6532     6523     6513     6516     6519     6508     6500 
    6515     6521     6528     6547     6561     6579     6612     6642 
    6663     6681     6704     6718     6735     6771     6804     6837 
    6889     6936     6968     6988     7005     7015     7025     7049 
    7071     7084     7107     7130     7152     7173     7196     7215 
    7213     7210     7210     7194     7173     7148     7113     7071 
    7013     6943     6860     6771     6674     6566     6466     6370 
    6265     6166     6072     5985     5917     5864     5834     5817 
    5811     5834     5867     5906     5957     5998     6035     6081 
    6138     6197     6257     6332     6403     6466     6538     6597 
    6633     6662     6690     6716     6735     6766     6797     6808 
    6816     6824     6835     6856     6883     6914     6943     6971 
    7001     7011     7011     7003     6972     6925     6870     6814 
    6758     6709     6681     6655     6629     6615     6597     6581 
    6571     6578     6597     6612     6639     6673     6691     6716 
    6735     6737     6733     6720     6708     6697     6702     6717 
    6717     6720     6727     6716     6693     6658     6617     6577 
    6538     6515     6494     6475     6467     6459     6463     6474 
    6484     6505     6516     6508     6500     6512     6529     6523 
    6529     6559     6559     6555     6575     6593     6600     6619 
    6674     6737     6793     6860     6926     6974     6997     7010 
    7017     6997     6978     6964     6926     6883     6843     6789 
    6727     6660     6598     6558     6550     6573     6610     6669 
    6732     6787     6863     6933     6978     7032     7090     7140 
    7179     7218     7249     7260     7276     7285     7260     7210 
    7134     7042     6940     6839     6763     6690     6640     6632 
    6633     6647     6675     6717     6763     6794     6833     6882 
    6914     6944     6974     6995     7002     7007     7025     7036 
    7052     7086     7105     7126     7156     7171     7176     7173 
    7173     7171     7160     7155     7144     7128     7115     7110 
    7117     7117     7114     7102     7074     7055     7042     7033 
    7032     7017     6998     6982     6957     6936     6914     6893 
    6871     6852     6847     6833     6824     6824     6805     6783 
    6762     6725     6683     6635     6581     6517     6448     6401 
    6363     6326     6305     6303     6316     6343     6384     6431 
    6463     6507     6561     6608     6660     6713     6767     6822 
    6870     6917     6964     7022     7095     7160     7210     7244 
    7263     7260     7226     7182     7122     7056     7020     7001 
    6990     6995     7007     7025     7040     7053     7053     7021 
    6983     6944     6897     6864     6844     6831     6817     6795 
    6759     6698     6643     6600     6544     6489     6440     6394 
    6358     6331     6327     6326     6324     6345     6369     6389 
    6415     6438     6466     6492     6508     6524     6540     6561 
    6578     6596     6631     6667     6694     6729     6774     6826 
    6872     6910     6936     6941     6947     6941     6918     6899 
    6876     6848     6828     6816     6799     6772     6764     6775 
    6783     6797     6804     6793     6770     6748     6728     6694 
    6663     6639     6601     6571     6559     6540     6517     6508 
    6493     6469     6453     6450     6423     6377     6340     6301 
    6264     6235     6216     6203     6192     6195     6200     6197 
    6211     6230     6247     6284     6328     6367     6407     6455 
    6505     6540     6585     6631     6658     6683     6716     6748 
    6771     6795     6836     6871     6906     6956     6999     7033 
    7074     7123     7176     7217     7258     7284     7288     7294 
    7290     7281     7290     7298     7311     7327     7337     7339 
    7321     7295     7271     7252     7246     7244     7249     7264 
    7285     7319     7350     7384     7419     7438     7453     7465 
    7470     7491     7518     7538     7550     7557     7561     7543 
    7510     7462     7391     7317     7237     7152     7080     7013 
    6952     6891     6833     6786     6728     6670     6624     6577 
    6536     6507     6498     6497     6489     6494     6489     6463 
    6439     6407     6376     6362     6373     6401     6426     6466 
    6511     6535     6555     6570     6578     6586     6594     6617 
    6642     6666     6710     6752     6789     6821     6844     6860 
    6867     6875     6876     6860     6853     6839     6812     6798 
    6781     6760     6743     6735     6737     6735     6745     6764 
    6781     6810     6837     6849     6855     6852     6845     6825 
    6794     6760     6714     6670     6627     6574     6525     6481 
    6454     6439     6423     6401     6376     6354     6330     6288 
    6253     6222     6195     6176     6153     6134     6111     6087 
    6075     6053     6033     6015     5991     5975     5967     5971 
    5983     6003     6039     6080     6137     6219     6301     6384 
    6458     6525     6600     6669     6741     6817     6886     6959 
    7018     7059     7088     7101     7102     7096     7092     7094 
