Origin Time       2025/01/13 21:19:00
Lat.              31.8
Long.             131.6
Depth. (km)       30
Mag.              6.9
Station Code      YMG008
Station Lat.      34.0119
Station Long.     131.4099
Station Height(m) 5
Record Time       2025/01/13 21:20:45
Sampling Freq(Hz) 100Hz
Duration Time(s)  60
Dir.              E-W
Scale Factor      7845(gal)/8223790
Max. Acc. (gal)   1.755
Last Correction   2025/01/13 21:20:44
Memo.             
[...]
    5305     5323     5327     5312     5266     5200     5117     5032 
    4965     4928     4915     4899     4864     4835     4841     4870 
    4916     4986     5066     5104     5089     5055     5028     5043 
    5109     5166     5159     5132     5147     5178     5174     5144 
    5116     5088     5057     5028     5005     5009     5040     5062 
    5043     5003     4982     4961     4916     4899     4927     4962 
    4988     5015     5043     5089     5161     5225     5273     5317 
    5336     5306     5242     5163     5084     5004     4931     4897 
    4928     5003     5082     5135     5125     5077     5047     5031 
    5004     4984     4978     4961     4943     4955     4986     5019 
    5053     5090     5136     5193     5240     5243     5189     5096 
    5011     4984     4996     4995     4966     4905     4811     4738 
    4716     4739     4791     4835     4861     4893     4951     5026 
    5085     5103     5070     5017     4965     4918     4907     4955 
    5055     5177     5271     5306     5317     5337     5362     5363 
    5339     5278     5157     5009     4888     4799     4739     4726 
    4747     4792     4857     4942     5049     5157     5246     5324 
    5386     5387     5313     5212     5111     5008     4927     4881 
    4861     4884     4954     5022     5043     5036     5043     5081 
    5154     5252     5343     5383     5364     5313     5263     5220 
    5194     5202     5232     5243     5212     5165     5130     5107 
    5065     4985     4897     4857     4860     4869     4884     4918 
    5000     5142     5289     5402     5490     5548     5540     5459 
    5348     5247     5134     4995     4877     4810     4770     4766 
    4815     4862     4857     4868     4954     5066     5148     5189 
    5175     5151     5178     5256     5348     5421     5444     5398 
    5309     5200     5076     4961     4893     4881     4907     4945 
    4992     5036     5054     5040     5023     5020     5019     5035 
    5071     5098     5125     5167     5173     5136     5107     5080 
    5036     5001     4970     4912     4826     4731     4664     4635 
    4629     4650     4733     4851     4976     5115     5258     5367 
    5444     5466     5400     5279     5169     5080     5005     4953 
    4924     4905     4885     4876     4872     4858     4834     4837 
    4876     4924     4978     5043     5086     5081     5044     4995 
    4930     4881     4878     4909     4963     5027     5065     5061 
    5023     4950     4853     4765     4714     4708     4729     4737 
    4714     4696     4723     4788     4860     4903     4914     4926 
    4947     4941     4909     4903     4935     4977     5013     5054 
    5103     5136     5131     5115     5117     5132     5154     5166 
    5140     5084     5036     5022     5038     5065     5092     5117 
    5140     5163     5190     5232     5297     5368     5422     5439 
    5417     5362     5279     5197     5148     5128     5109     5094 
    5088     5061     5007     4972     4984     5035     5135     5278 
    5404     5489     5533     5509     5424     5317     5196     5074 
    4985     4954     4989     5090     5229     5371     5475     5521 
    5522     5489     5432     5397     5401     5402     5381     5355 
    5302     5206     5107     5030     4986     5009     5076     5158 
    5266     5371     5427     5452     5464     5452     5433     5421 
    5395     5331     5227     5109     5008     4955     4953     4977 
    4996     4978     4941     4945     4985     5020     5043     5024 
    4932     4831     4791     4823     4911     5035     5166     5287 
    5398     5490     5517     5444     5292     5105     4905     4692 
    4504     4391     4352     4383     4484     4615     4752     4899 
    5028     5096     5112     5097     5046     4981     4928     4882 
    4878     4969     5127     5281     5386     5428     5414     5367 
    5310     5259     5216     5194     5200     5192     5131     5063 
    5063     5123     5173     5201     5238     5287     5354     5421 
    5433     5362     5246     5136     5057     5022     5019     5023 
    5028     5023     5000     4988     5020     5067     5077     5044 
    5005     4990     5028     5115     5205     5247     5244     5220 
    5170     5094     5031     5011     5031     5112     5236     5327 
    5355     5337     5275     5189     5117     5085     5103     5167 
    5236     5281     5301     5294     5256     5188     5104     5034 
    5012     5050     5115     5177     5205     5177     5113     5049 
    4976     4907     4861     4814     4768     4783     4881     5035 
    5206     5360     5463     5497     5455     5363     5279     5246 
    5250     5242     5198     5132     5065     4999     4934     4888 
    4889     4945     5036     5107     5115     5085     5028     4928 
    4816     4750     4735     4737     4749     4785     4834     4887 
    4939     4978     5011     5024     5001     4943     4857     4749 
    4652     4590     4556     4548     4587     4671     4779     4911 
    5050     5171     5281     5395     5508     5602     5643     5579 
    5409     5184     4946     4733     4575     4476     4434     4440 
    4482     4548     4617     4676     4753     4846     4903     4916 
    4924     4935     4936     4914     4857     4806     4811     4850 
    4873     4900     4946     4986     5032     5109     5198     5283 
    5375     5451     5468     5433     5374     5302     5233     5181 
    5151     5125     5074     4995     4892     4764     4650     4590 
    4550     4527     4550     4618     4719     4851     5008     5175 
    5327     5443     5493     5451     5343     5198     5035     4888 
    4774     4689     4627     4598     4619     4702     4823     4949 
    5047     5105     5136     5155     5151     5097     4986     4847 
    4739     4730     4808     4909     5015     5121     5197     5229 
    5239     5229     5224     5255     5312     5371     5437     5505 
    5555     5578     5571     5539     5486     5414     5339     5281 
    5256     5293     5404     5548     5674     5783     5876     5929 
    5954     5964     5918     5805     5653     5489     5329     5202 
    5112     5035     4973     4962     5013     5105     5228     5358 
    5471     5549     5589     5628     5682     5724     5749     5768 
    5787     5814     5840     5845     5823     5773     5698     5599 
    5486     5355     5211     5093     5042     5039     5066     5135 
    5244     5374     5520     5675     5798     5830     5772     5667 
    5548     5432     5316     5159     4962     4808     4752     4764 
    4824     4943     5074     5154     5192     5197     5158     5094 
    5020     4907     4765     4654     4599     4596     4650     4742 
    4830     4895     4947     4993     5013     4995     4959     4915 
    4831     4716     4617     4526     4411     4299     4237     4253 
    4342     4461     4567     4642     4687     4702     4706     4707 
    4692     4680     4684     4653     4572     4488     4437     4423 
    4449     4504     4565     4587     4536     4428     4311     4224 
    4195     4241     4325     4392     4433     4442     4433     4449 
    4500     4557     4627     4742     4882     5005     5092     5116 
    5070     4993     4905     4808     4747     4752     4796     4843 
    4834     4743     4646     4630     4671     4687     4684     4695 
    4692     4639     4552     4460     4363     4241     4118     4051 
    4059     4151     4313     4502     4684     4843     4939     4946 
    4880     4772     4639     4517     4456     4480     4571     4700 
    4861     5040     5201     5321     5409     5475     5529     5586 
    5628     5625     5593     5557     5520     5475     5443     5429 
    5405     5371     5362     5370     5352     5298     5242     5189 
    5135     5097     5093     5107     5131     5186     5293     5444 
    5620     5805     5984     6130     6204     6203     6156     6081 
    5983     5877     5805     5757     5702     5630     5556     5482 
    5431     5424     5474     5574     5675     5724     5749     5792 
    5830     5830     5791     5709     5597     5475     5346     5219 
    5127     5090     5100     5136     5186     5232     5266     5285 
    5292     5302     5312     5319     5346     5389     5428     5481 
    5528     5528     5499     5495     5508     5499     5437     5324 
    5200     5094     5004     4939     4908     4888     4891     4943 
    5015     5055     5063     5044     5007     4990     5016     5055 
    5108     5175     5240     5297     5356     5410     5475     5571 
    5674     5763     5840     5908     5972     6015     6019     5987 
    5919     5818     5699     5584     5481     5405     5377     5395 
    5439     5468     5441     5344     5219     5104     5000     4908 
    4850     4810     4769     4758     4803     4887     4980     5039 
    5026     4938     4816     4708     4627     4546     4460     4380 
    4310     4244     4194     4145     4081     4033     4045     4098 
    4171     4263     4349     4401     4432     4468     4506     4530 
    4526     4517     4553     4637     4737     4858     4995     5101 
    5158     5175     5170     5159     5151     5148     5163     5193 
    5209     5204     5178     5134     5101     5096     5076     5019 
    4973     4973     5023     5140     5296     5404     5444     5429 
    5355     5262     5212     5217     5260     5344     5481     5645 
    5771     5848     5923     5998     6018     5983     5929     5840 
    5698     5540     5391     5266     5197     5170     5127     5059 
    5003     4985     5008     5063     5139     5225     5309     5360 
    5359     5308     5242     5197     5175     5147     5123     5132 
    5157     5169     5155     5109     5053     5022     4996     4941 
    4860     4735     4557     4361     4198     4109     4109     4148 
    4185     4248     4369     4507     4604     4656     4672     4652 
    4608     4560     4514     4484     4484     4530     4617     4716 
    4807     4860     4850     4797     4734     4676     4622     4553 
    4461     4372     4317     4293     4295     4357     4488     4654 
    4831     5009     5146     5188     5123     4963     4720     4409 
    4063     3757     3541     3416     3399     3495     3655     3848 
    4086     4338     4556     4723     4810     4769     4635     4467 
    4272     4077     3962     3969     4075     4239     4417     4591 
    4747     4872     4936     4903     4772     4591     4383     4162 
    3967     3852     3844     3925     4043     4170     4287     4387 
    4475     4529     4556     4617     4711     4777     4783     4704 
    4526     4291     4056     3870     3773     3774     3855     3979 
    4118     4245     4342     4401     4413     4417     4456     4526 
    4621     4737     4889     5101     5371     5636     5842     5980 
    6037     6003     5918     5821     5741     5726     5769     5807 
    5844     5914     6006     6085     6139     6188     6249     6313 
    6374     6435     6484     6486     6421     6326     6251     6224 
    6250     6313     6393     6465     6501     6488     6431     6318 
    6174     6079     6056     6081     6149     6245     6327     6363 
    6351     6320     6295     6249     6156     6022     5859     5683 
    5532     5451     5449     5525     5686     5900     6104     6262 
    6338     6308     6215     6100     5973     5853     5761     5676 
    5602     5586     5616     5625     5620     5643     5682     5705 
    5692     5649     5579     5476     5358     5260     5194     5155 
    5150     5163     5146     5067     4927     4729     4514     4320 
    4145     4010     3947     3929     3927     3958     4025     4110 
    4217     4328     4417     4491     4558     4607     4637     4650 
    4649     4653     4658     4635     4577     4507     4459     4445 
    4473     4563     4733     4968     5217     5439     5603     5680 
    5678     5633     5572     5517     5506     5551     5634     5726 
    5792     5825     5837     5829     5795     5751     5709     5656 
    5582     5494     5422     5387     5387     5416     5479     5575 
    5678     5767     5795     5718     5552     5362     5184     5054 
    5004     5011     5034     5076     5144     5209     5252     5290 
    5331     5354     5337     5275     5155     4950     4684     4433 
    4237     4118     4105     4174     4268     4382     4534     4703 
    4846     4959     5046     5093     5096     5053     4953     4823 
    4719     4646     4596     4592     4657     4780     4927     5051 
    5127     5163     5173     5155     5109     5017     4857     4649 
    4450     4329     4330     4426     4558     4704     4827     4893 
    4924     4918     4860     4795     4768     4765     4768     4793 
    4850     4945     5082     5243     5413     5606     5822     6052 
    6268     6417     6461     6384     6220     6035     5871     5719 
    5579     5475     5398     5321     5274     5293     5359     5429 
    5462     5421     5325     5229     5171     5159     5188     5242 
    5316     5378     5391     5367     5337     5300     5228     5113 
    4953     4752     4545     4357     4180     4005     3813     3600 
    3407     3284     3227     3245     3365     3549     3739     3913 
    4044     4109     4124     4104     4054     3975     3862     3740 
    3666     3658     3699     3793     3959     4170     4380     4584 
    4797     5019     5197     5286     5305     5292     5263     5240 
    5198     5100     4969     4866     4814     4812     4869     4963 
    5049     5080     5059     5016     4963     4897     4827     4772 
    4738     4742     4828     4984     5144     5266     5335     5328 
    5277     5248     5250     5281     5367     5489     5610     5728 
    5841     5922     5941     5898     5822     5717     5570     5389 
    5202     5017     4843     4699     4592     4513     4471     4446 
    4421     4438     4522     4629     4737     4864     4992     5084 
    5136     5140     5076     4965     4851     4758     4700     4671 
    4646     4619     4608     4625     4668     4750     4877     5012 
    5116     5193     5250     5267     5242     5200     5136     5035 
    4923     4838     4774     4712     4665     4639     4639     4699 
    4815     4935     5035     5139     5265     5418     5598     5748 
    5830     5863     5860     5827     5787     5756     5742     5749 
    5794     5861     5917     5948     5960     5944     5875     5772 
    5672     5562     5418     5302     5273     5341     5487     5674 
    5852     6010     6139     6189     6134     6022     5898     5757 
    5621     5499     5377     5277     5224     5211     5229     5258 
    5255     5232     5193     5123     5062     5053     5074     5094 
    5104     5086     5046     4985     4897     4799     4720     4671 
    4668     4720     4791     4864     4962     5077     5179     5250 
    5262     5190     5034     4814     4587     4403     4268     4170 
    4121     4124     4158     4191     4195     4160     4131     4158 
    4220     4267     4286     4270     4221     4153     4082     4037 
    4044     4105     4205     4317     4434     4542     4606     4603 
    4572     4540     4492     4475     4519     4561     4590     4649 
    4727     4807     4887     4943     4978     4999     5000     5007 
    5047     5101     5144     5174     5193     5194     5174     5154 
    5143     5154     5209     5313     5433     5536     5616     5695 
    5776     5830     5848     5849     5830     5780     5722     5653 
    5555     5443     5348     5256     5159     5105     5136     5244 
    5431     5702     5985     6177     6246     6216     6123     5987 
    5800     5574     5354     5166     5027     4950     4916     4893 
    4870     4827     4749     4648     4548     4472     4429     4401 
    4384     4405     4459     4522     4591     4661     4735     4822 
    4907     4984     5081     5213     5350     5464     5557     5616 
    5609     5548     5470     5400     5340     5301     5286     5287 
    5287     5273     5223     5146     5074     5028     4984     4926 
    4893     4901     4918     4943     5007     5104     5221     5364 
    5509     5617     5690     5721     5656     5481     5252     5030 
    4826     4684     4666     4734     4814     4888     4963     5026 
    5063     5085     5077     5019     4920     4807     4708     4642 
    4612     4599     4584     4571     4556     4527     4507     4519 
    4542     4563     4629     4757     4897     5011     5089     5112 
    5063     4984     4924     4884     4869     4911     4995     5067 
    5101     5097     5066     5017     4958     4901     4866     4891 
    4980     5094     5204     5301     5381     5435     5448     5413 
    5320     5157     4951     4765     4619     4533     4537     4617 
    4739     4896     5057     5162     5181     5142     5080     5035 
    5016     4999     4984     5005     5071     5174     5293     5395 
    5460     5486     5482     5458     5404     5313     5217     5154 
    5128     5148     5246     5401     5560     5715     5867     5984 
    6056     6104     6119     6091     6034     5954     5849     5728 
    5595     5448     5287     5136     5017     4920     4846     4814 
    4804     4769     4706     4662     4677     4725     4770     4824 
    4897     4985     5067     5117     5147     5182     5208     5223 
    5258     5314     5366     5410     5466     5512     5539     5548 
    5530     5487     5441     5405     5387     5394     5414     5437 
    5471     5514     5537     5543     5568     5616     5638     5624 
    5574     5490     5371     5238     5134     5092     5084     5078 
    5093     5151     5246     5360     5455     5485     5444     5375 
    5317     5265     5217     5166     5100     5036     4990     4951 
    4911     4878     4846     4797     4756     4734     4725     4746 
    4799     4838     4834     4818     4807     4792     4772     4756 
    4750     4757     4780     4830     4911     5003     5078     5108 
    5066     4949     4791     4641     4529     4476     4511     4622 
    4787     4997     5206     5379     5528     5652     5740     5826 
    5907     5929     5876     5803     5746     5719     5741     5809 
    5883     5941     5989     6039     6084     6099     6072     6010 
    5938     5876     5821     5755     5649     5505     5343     5171 
    4988     4799     4595     4357     4090     3823     3582     3403 
    3306     3275     3283     3325     3372     3395     3411     3427 
    3423     3419     3462     3538     3618     3703     3786     3859 
    3943     4059     4189     4302     4382     4426     4453     4473 
    4484     4502     4529     4538     4531     4542     4563     4568 
    4550     4499     4418     4351     4326     4332     4349     4353 
    4329     4297     4283     4295     4338     4445     4611     4785 
    4946     5092     5192     5240     5244     5197     5116     5024 
