Origin Time       2025/01/13 21:19:00
Lat.              31.8
Long.             131.6
Depth. (km)       30
Mag.              6.9
Station Code      YMG003
Station Lat.      34.3830
Station Long.     131.5999
Station Height(m) 289
Record Time       2025/01/13 21:20:57
Sampling Freq(Hz) 100Hz
Duration Time(s)  60
Dir.              N-S
Scale Factor      7845(gal)/8223790
Max. Acc. (gal)   1.244
Last Correction   2025/01/13 21:20:58
Memo.             
[...]
    4818     4800     4772     4741     4714     4696     4691     4702 
    4725     4760     4810     4864     4911     4954     4996     5027 
    5043     5043     5022     4981     4931     4882     4831     4783 
    4746     4730     4741     4781     4847     4943     5059     5175 
    5278     5355     5387     5383     5350     5293     5223     5148 
    5076     5005     4938     4873     4812     4753     4699     4649 
    4606     4577     4563     4553     4546     4544     4545     4542 
    4533     4517     4492     4464     4426     4388     4360     4341 
    4341     4367     4415     4476     4534     4583     4629     4675 
    4722     4768     4808     4850     4885     4897     4892     4869 
    4827     4772     4711     4648     4575     4496     4428     4364 
    4306     4260     4226     4209     4205     4217     4248     4293 
    4344     4388     4414     4432     4444     4446     4438     4419 
    4395     4379     4367     4353     4342     4322     4280     4228 
    4171     4117     4082     4078     4102     4141     4183     4214 
    4240     4261     4280     4298     4309     4321     4341     4365 
    4396     4429     4457     4491     4541     4607     4688     4789 
    4905     5035     5159     5258     5329     5385     5420     5427 
    5406     5359     5290     5219     5152     5090     5036     4995 
    4954     4904     4837     4750     4657     4576     4509     4456 
    4429     4429     4448     4487     4545     4618     4698     4773 
    4838     4891     4927     4945     4957     4970     4992     5027 
    5076     5135     5205     5273     5336     5401     5460     5508 
    5543     5555     5545     5521     5490     5460     5436     5412 
    5387     5370     5356     5343     5337     5336     5331     5320 
    5304     5275     5233     5189     5136     5070     4997     4919 
    4843     4791     4770     4774     4801     4838     4869     4892 
    4901     4891     4862     4816     4746     4665     4590     4518 
    4448     4388     4337     4286     4240     4201     4160     4120 
    4086     4051     4009     3962     3912     3859     3813     3780 
    3746     3712     3685     3672     3666     3662     3662     3673 
    3693     3719     3744     3771     3798     3820     3836     3852 
    3873     3904     3951     4017     4101     4197     4297     4401 
    4499     4590     4666     4725     4760     4774     4772     4758 
    4737     4714     4702     4698     4699     4712     4734     4768 
    4827     4907     4995     5081     5159     5229     5290     5346 
    5397     5432     5448     5440     5405     5352     5296     5248 
    5215     5194     5185     5169     5154     5150     5142     5121 
    5096     5059     5011     4953     4888     4823     4765     4720 
    4693     4673     4653     4634     4622     4618     4622     4639 
    4675     4720     4773     4835     4905     4980     5050     5121 
    5194     5267     5347     5431     5508     5574     5628     5659 
    5671     5667     5644     5606     5559     5497     5421     5335 
    5240     5139     5028     4911     4795     4688     4596     4518 
    4444     4372     4301     4221     4140     4062     3981     3896 
    3821     3761     3712     3676     3662     3672     3694     3732 
    3786     3852     3935     4029     4126     4214     4284     4338 
    4380     4415     4442     4456     4442     4396     4324     4230 
    4131     4045     3990     3964     3966     3989     4018     4051 
    4082     4112     4141     4172     4203     4237     4274     4305 
    4332     4352     4359     4367     4379     4387     4401     4433 
    4484     4561     4654     4747     4835     4914     4981     5046 
    5111     5175     5242     5306     5363     5416     5462     5505 
    5539     5545     5528     5494     5451     5410     5383     5370 
    5370     5385     5408     5441     5479     5512     5532     5545 
    5548     5539     5521     5497     5466     5432     5390     5340 
    5286     5233     5188     5146     5112     5090     5082     5082 
    5085     5088     5090     5092     5097     5109     5131     5161 
    5194     5239     5297     5354     5394     5421     5431     5425 
    5410     5389     5363     5337     5309     5285     5269     5254 
    5242     5227     5200     5159     5111     5053     4992     4930 
    4864     4797     4737     4692     4671     4679     4712     4765 
    4830     4896     4950     4990     5019     5034     5032     5016 
    4986     4943     4888     4826     4765     4711     4668     4637 
    4614     4588     4558     4522     4482     4441     4405     4374 
    4357     4352     4352     4355     4352     4345     4344     4342 
    4329     4306     4276     4239     4201     4168     4143     4129 
    4120     4109     4093     4071     4043     4014     3997     3998 
    4028     4091     4178     4275     4368     4442     4502     4546 
    4573     4592     4612     4631     4646     4658     4666     4679 
    4693     4707     4723     4739     4750     4761     4765     4766 
    4774     4787     4795     4789     4768     4731     4677     4607 
    4526     4445     4374     4320     4280     4259     4259     4272 
    4297     4326     4356     4378     4401     4429     4455     4473 
    4486     4490     4488     4484     4484     4488     4490     4484 
    4475     4463     4449     4448     4461     4488     4519     4542 
    4557     4567     4567     4565     4565     4567     4575     4585 
    4591     4584     4569     4553     4541     4544     4568     4612 
    4675     4753     4835     4903     4943     4954     4947     4930 
    4905     4878     4851     4826     4804     4780     4750     4714 
    4669     4621     4571     4525     4477     4436     4410     4402 
    4414     4441     4484     4549     4639     4747     4862     4974 
    5076     5161     5228     5277     5302     5309     5308     5301 
    5292     5285     5286     5298     5314     5332     5341     5346 
    5348     5341     5327     5305     5265     5198     5109     4997 
    4872     4741     4610     4486     4376     4278     4190     4104 
    4008     3913     3831     3758     3705     3676     3663     3662 
    3666     3670     3677     3694     3730     3784     3848     3923 
    4001     4078     4144     4197     4247     4297     4353     4417 
    4479     4538     4588     4625     4649     4661     4664     4658 
    4650     4650     4672     4706     4749     4800     4858     4920 
    4981     5042     5101     5152     5198     5247     5301     5366 
    5443     5525     5601     5663     5707     5730     5733     5725 
    5709     5688     5661     5632     5602     5571     5535     5489 
    5429     5354     5260     5150     5036     4930     4824     4730 
    4658     4618     4607     4619     4650     4689     4722     4745 
    4756     4758     4766     4784     4804     4823     4845     4865 
    4878     4880     4866     4835     4793     4752     4718     4693 
    4685     4696     4723     4762     4806     4851     4892     4922 
    4943     4955     4951     4934     4903     4855     4803     4750 
    4696     4642     4594     4554     4522     4491     4461     4433 
    4401     4357     4310     4257     4190     4114     4047     3987 
    3944     3921     3915     3916     3921     3932     3954     3987 
    4031     4078     4133     4193     4251     4309     4365     4419 
    4463     4491     4504     4504     4495     4482     4472     4469 
    4475     4499     4545     4611     4704     4827     4972     5124 
    5270     5401     5520     5620     5694     5746     5778     5787 
    5776     5745     5697     5634     5557     5474     5395     5316 
    5239     5177     5123     5081     5059     5046     5034     5028 
    5027     5024     5016     5003     4982     4949     4905     4862 
    4819     4779     4738     4693     4649     4607     4569     4541 
    4527     4525     4523     4526     4537     4553     4569     4584 
    4590     4576     4534     4475     4409     4336     4264     4205 
    4162     4141     4145     4164     4202     4253     4311     4376 
    4449     4518     4577     4623     4654     4672     4669     4645 
    4610     4571     4525     4473     4423     4378     4337     4309 
    4298     4299     4311     4333     4356     4371     4374     4367 
    4355     4337     4314     4287     4259     4234     4212     4193 
    4186     4194     4209     4226     4253     4279     4299     4321 
    4349     4378     4406     4445     4498     4553     4617     4688 
    4758     4830     4904     4976     5040     5104     5163     5212 
    5252     5283     5308     5328     5343     5350     5355     5358 
    5351     5341     5336     5329     5320     5305     5277     5239 
    5188     5124     5053     4973     4884     4791     4696     4600 
    4515     4445     4391     4355     4334     4326     4334     4355 
    4387     4433     4486     4536     4581     4622     4652     4672 
    4679     4675     4669     4664     4653     4639     4633     4633 
    4638     4654     4675     4693     4712     4729     4734     4723 
    4700     4662     4610     4544     4463     4374     4288     4210 
    4147     4108     4089     4082     4093     4122     4164     4218 
    4286     4359     4430     4498     4564     4635     4706     4768 
    4828     4885     4939     4996     5054     5107     5159     5206 
    5242     5265     5267     5242     5193     5121     5031     4932 
    4831     4743     4668     4595     4525     4457     4392     4336 
    4284     4244     4216     4194     4182     4183     4198     4226 
    4274     4341     4421     4503     4583     4665     4741     4807 
    4865     4915     4963     5008     5042     5070     5092     5104 
    5120     5142     5167     5197     5229     5263     5297     5325 
    5347     5359     5363     5368     5378     5382     5382     5382 
    5386     5397     5417     5439     5466     5491     5512     5518 
    5513     5497     5470     5435     5387     5331     5274     5217 
    5150     5086     5032     4981     4942     4920     4909     4909 
    4927     4955     4988     5023     5058     5082     5090     5088 
    5077     5063     5051     5038     5013     4974     4920     4860 
    4799     4739     4676     4612     4548     4479     4410     4353 
    4313     4288     4279     4284     4298     4309     4315     4315 
    4307     4288     4256     4212     4163     4116     4070     4031 
    4001     3985     3978     3979     3987     3997     4013     4035 
    4054     4068     4078     4079     4083     4099     4122     4149 
    4187     4241     4298     4349     4396     4432     4455     4484 
    4518     4554     4600     4652     4700     4752     4792     4814 
    4826     4823     4800     4757     4698     4627     4549     4467 
    4391     4315     4241     4179     4132     4104     4094     4094 
    4110     4151     4203     4261     4326     4398     4471     4546 
    4621     4683     4734     4772     4792     4795     4784     4762 
    4739     4712     4677     4639     4600     4565     4541     4533 
    4538     4560     4592     4637     4689     4745     4801     4860 
    4916     4973     5026     5076     5120     5157     5184     5196 
    5202     5209     5217     5231     5246     5251     5250     5248 
    5242     5236     5228     5215     5200     5189     5181     5177 
    5173     5159     5140     5119     5088     5050     5005     4950 
    4893     4841     4796     4757     4722     4699     4680     4648 
    4599     4534     4448     4353     4264     4186     4126     4087 
    4070     4068     4082     4105     4140     4190     4256     4329 
    4401     4472     4540     4599     4656     4710     4758     4808 
    4865     4916     4959     4999     5036     5074     5113     5151 
    5178     5190     5185     5159     5119     5066     5005     4939 
    4868     4796     4733     4681     4638     4602     4572     4548 
    4526     4500     4469     4433     4396     4365     4345     4328 
    4306     4290     4280     4271     4256     4245     4244     4244 
    4243     4244     4255     4266     4275     4288     4298     4302 
    4313     4326     4342     4365     4388     4410     4437     4465 
    4490     4514     4531     4541     4546     4550     4556     4557 
    4560     4565     4568     4575     4591     4607     4622     4646 
    4668     4687     4710     4733     4757     4787     4819     4851 
    4892     4938     4982     5026     5066     5094     5112     5125 
    5132     5127     5120     5120     5124     5130     5131     5128 
    5128     5130     5124     5116     5103     5080     5044     5003 
    4954     4901     4854     4814     4776     4749     4730     4704 
    4669     4637     4611     4591     4575     4561     4545     4519 
    4480     4429     4375     4320     4268     4229     4202     4182 
    4171     4179     4202     4225     4253     4287     4317     4337 
    4351     4360     4361     4360     4369     4391     4417     4453 
    4506     4565     4627     4696     4773     4851     4934     5022 
    5107     5175     5235     5290     5332     5363     5391     5420 
    5452     5495     5549     5609     5671     5737     5798     5846 
    5888     5930     5967     5995     6015     6025     6021     6004 
    5979     5952     5922     5888     5854     5821     5790     5760 
    5722     5684     5655     5621     5584     5545     5495     5436 
    5368     5294     5219     5139     5059     4981     4900     4815 
    4734     4657     4581     4496     4409     4324     4237     4151 
    4077     4004     3937     3888     3848     3820     3808     3812 
    3827     3859     3905     3958     4013     4064     4106     4143 
    4172     4191     4206     4221     4241     4271     4305     4342 
    4388     4432     4465     4499     4531     4565     4602     4638 
    4679     4719     4761     4803     4845     4885     4923     4961 
    4999     5035     5063     5089     5116     5139     5148     5148 
    5134     5100     5057     5009     4962     4919     4880     4846 
    4812     4781     4760     4742     4725     4712     4696     4673 
    4653     4627     4594     4554     4515     4482     4456     4441 
    4436     4436     4450     4468     4483     4506     4530     4549 
    4568     4585     4590     4581     4561     4531     4492     4445 
    4394     4338     4272     4206     4152     4109     4083     4072 
    4068     4074     4086     4104     4129     4163     4205     4251 
    4295     4342     4386     4418     4436     4441     4433     4411 
    4378     4336     4297     4263     4236     4214     4203     4207 
    4229     4266     4315     4378     4440     4496     4548     4588 
    4610     4614     4602     4572     4533     4486     4432     4382 
    4333     4284     4244     4214     4193     4180     4183     4203 
    4237     4284     4344     4411     4477     4541     4598     4639 
    4675     4704     4727     4747     4765     4779     4785     4784 
    4776     4762     4745     4726     4714     4719     4734     4758 
    4791     4822     4851     4877     4895     4908     4916     4914 
    4905     4900     4887     4870     4864     4866     4869     4876 
    4885     4895     4903     4918     4934     4945     4951     4958 
    4958     4946     4923     4896     4869     4842     4819     4801 
    4787     4776     4774     4780     4795     4820     4857     4901 
    4942     4982     5020     5047     5073     5101     5117     5127 
    5132     5134     5134     5139     5146     5154     5167     5184 
    5194     5197     5194     5182     5162     5142     5123     5108 
    5100     5096     5098     5111     5128     5151     5169     5181 
    5192     5192     5177     5154     5123     5084     5039     4992 
    4946     4909     4885     4868     4854     4847     4849     4854 
    4857     4853     4849     4845     4833     4811     4783     4745 
    4704     4668     4634     4602     4576     4554     4540     4531 
    4529     4534     4550     4573     4600     4635     4671     4708 
    4758     4807     4845     4882     4912     4926     4932     4939 
    4936     4923     4905     4889     4862     4819     4780     4742 
    4699     4657     4621     4583     4548     4517     4492     4483 
    4491     4513     4542     4573     4603     4635     4668     4698 
    4723     4750     4766     4768     4762     4758     4746     4719 
    4689     4675     4658     4642     4633     4627     4622     4611 
    4587     4556     4519     4477     4437     4398     4361     4318 
    4272     4228     4178     4124     4077     4033     4001     3985 
    3983     3993     4010     4037     4071     4108     4149     4197 
    4240     4280     4325     4368     4406     4446     4491     4530 
    4567     4600     4627     4652     4676     4698     4725     4758 
    4801     4851     4901     4946     4981     5005     5017     5024 
    5031     5034     5035     5040     5050     5054     5057     5062 
    5063     5055     5046     5040     5034     5027     5028     5031 
    5035     5044     5054     5062     5071     5071     5065     5066 
    5070     5070     5081     5094     5101     5113     5130     5138 
    5139     5148     5163     5169     5169     5166     5159     5148 
    5127     5101     5074     5043     5007     4970     4931     4887 
    4837     4792     4746     4698     4657     4630     4608     4594 
    4590     4594     4607     4626     4653     4685     4718     4746 
    4769     4783     4784     4776     4764     4754     4754     4760 
    4766     4773     4779     4783     4789     4789     4783     4768 
    4747     4719     4676     4623     4577     4530     4473     4423 
    4394     4376     4367     4372     4395     4432     4473     4522 
    4572     4621     4665     4700     4725     4741     4753     4757 
    4753     4741     4727     4706     4675     4641     4607     4577 
    4560     4549     4542     4556     4583     4610     4635     4662 
    4689     4711     4720     4725     4731     4734     4731     4738 
    4756     4770     4779     4793     4810     4818     4824     4826 
    4823     4826     4831     4835     4839     4842     4847     4862 
    4869     4864     4860     4855     4850     4846     4841     4830 
    4812     4785     4758     4735     4708     4680     4658     4645 
    4638     4638     4645     4654     4661     4668     4680     4688 
    4691     4698     4710     4715     4719     4731     4746     4765 
    4791     4818     4849     4877     4901     4923     4938     4947 
    4959     4973     4985     4999     5007     5008     5003     4990 
    4969     4941     4919     4907     4900     4895     4895     4900 
    4904     4901     4895     4880     4855     4828     4806     4784 
    4761     4737     4719     4707     4693     4677     4668     4660 
    4645     4633     4626     4621     4626     4641     4658     4673 
    4688     4699     4707     4712     4715     4716     4718     4725 
