Origin Time       2025/01/13 21:19:00
Lat.              31.8
Long.             131.6
Depth. (km)       30
Mag.              6.9
Station Code      YMG014
Station Lat.      34.0542
Station Long.     131.8077
Station Height(m) 15
Record Time       2025/01/13 21:20:39
Sampling Freq(Hz) 100Hz
Duration Time(s)  76
Dir.              E-W
Scale Factor      7845(gal)/8223790
Max. Acc. (gal)   4.840
Last Correction   2025/01/13 21:20:41
Memo.             
[...]
    8086     8101     8090     8068     8058     8060     8056     8027 
    7989     7959     7967     8036     8140     8247     8316     8355 
    8402     8436     8455     8473     8468     8433     8383     8333 
    8272     8198     8144     8089     8005     7912     7834     7793 
    7771     7761     7762     7738     7690     7669     7673     7673 
    7658     7641     7619     7576     7539     7535     7549     7565 
    7596     7643     7676     7705     7755     7815     7875     7938 
    7993     8037     8085     8136     8172     8178     8149     8095 
    8040     7983     7916     7858     7824     7793     7767     7769 
    7785     7788     7769     7747     7724     7688     7655     7649 
    7663     7703     7761     7832     7921     8031     8158     8294 
    8429     8550     8638     8699     8743     8745     8708     8649 
    8554     8436     8314     8199     8078     7936     7808     7732 
    7705     7689     7672     7654     7636     7639     7685     7751 
    7832     7909     7954     7983     8032     8120     8214     8255 
    8243     8206     8167     8156     8195     8251     8276     8279 
    8280     8267     8209     8091     7947     7820     7716     7643 
    7620     7631     7650     7690     7771     7873     7992     8152 
    8349     8532     8662     8743     8789     8808     8814     8816 
    8810     8800     8799     8784     8729     8654     8588     8526 
    8469     8417     8363     8318     8289     8248     8191     8155 
    8137     8117     8110     8135     8167     8193     8235     8275 
    8289     8289     8283     8271     8255     8232     8218     8210 
    8187     8147     8101     8058     8029     8035     8037     7981 
    7881     7784     7727     7715     7713     7695     7646     7572 
    7508     7473     7454     7449     7454     7458     7469     7510 
    7554     7570     7564     7555     7566     7593     7622     7643 
    7659     7708     7786     7865     7940     8033     8139     8205 
    8233     8271     8303     8329     8359     8372     8370     8333 
    8270     8236     8239     8252     8291     8359     8422     8456 
    8467     8461     8421     8330     8213     8093     7967     7861 
    7805     7784     7763     7750     7769     7807     7842     7902 
    7994     8075     8140     8203     8245     8237     8203     8176 
    8144     8087     8025     7992     7992     8016     8055     8063 
    8041     8037     8052     8104     8214     8343     8444     8518 
    8577     8638     8691     8722     8731     8726     8726     8734 
    8715     8676     8635     8568     8465     8365     8299     8268 
    8253     8224     8170     8098     7994     7848     7689     7553 
    7468     7446     7468     7503     7516     7503     7487     7479 
    7485     7527     7592     7650     7692     7726     7762     7819 
    7902     7990     8070     8164     8282     8411     8553     8687 
    8795     8868     8891     8866     8816     8764     8715     8672 
    8629     8594     8569     8560     8565     8563     8521     8453 
    8357     8222     8074     7920     7774     7659     7555     7441 
    7331     7230     7141     7064     6984     6899     6810     6732 
    6687     6674     6682     6709     6756     6836     6945     7071 
    7223     7406     7585     7754     7894     7977     8019     8036 
    8035     8050     8093     8122     8124     8124     8156     8225 
    8309     8370     8383     8374     8353     8318     8283     8241 
    8166     8081     7990     7875     7773     7719     7690     7700 
    7757     7828     7905     7987     8073     8160     8232     8306 
    8375     8403     8413     8403     8353     8298     8267     8259 
    8282     8325     8355     8363     8374     8397     8417     8436 
    8459     8468     8456     8455     8486     8536     8595     8665 
    8725     8743     8746     8761     8772     8788     8808     8807 
    8772     8711     8638     8594     8576     8546     8502     8482 
    8484     8490     8511     8556     8615     8668     8689     8654 
    8572     8486     8417     8356     8332     8367     8421     8448 
    8453     8437     8367     8270     8175     8056     7906     7747 
    7608     7510     7427     7352     7300     7279     7319     7423 
    7555     7703     7848     7978     8108     8230     8322     8359 
    8349     8329     8314     8303     8305     8307     8297     8274 
    8237     8195     8162     8117     8052     7986     7946     7932 
    7932     7974     8055     8121     8178     8232     8248     8245 
    8229     8191     8163     8183     8236     8302     8374     8421 
    8434     8429     8402     8359     8317     8262     8176     8074 
    7973     7879     7776     7674     7591     7514     7443     7384 
    7315     7261     7245     7258     7290     7335     7404     7493 
    7582     7689     7840     8000     8144     8268     8351     8380 
    8392     8384     8334     8298     8299     8280     8240     8179 
    8066     7931     7816     7713     7604     7512     7445     7387 
    7371     7395     7419     7456     7507     7572     7646     7715 
    7794     7863     7900     7932     7956     7981     8023     8073 
    8129     8178     8236     8316     8386     8430     8442     8436 
    8430     8432     8442     8448     8449     8467     8500     8546 
    8576     8563     8487     8349     8191     8036     7906     7825 
    7773     7742     7717     7682     7654     7631     7589     7533 
    7484     7466     7465     7474     7500     7528     7533     7506 
    7480     7476     7481     7495     7538     7603     7657     7699 
    7717     7701     7688     7700     7724     7780     7861     7938 
    7996     8021     8012     8006     8039     8089     8156     8245 
    8334     8438     8572     8714     8835     8932     8997     9009 
    9000     9004     8999     8972     8926     8841     8733     8630 
    8518     8374     8210     8046     7897     7778     7685     7622 
    7611     7674     7834     8059     8324     8598     8845     9070 
    9270     9408     9513     9595     9601     9540     9450     9344 
    9248     9169     9085     9009     8981     8995     9019     9036 
    9015     8935     8807     8645     8494     8386     8294     8210 
    8136     8060     7993     7950     7928     7939     7975     7989 
    7998     8044     8091     8124     8172     8228     8257     8259 
    8225     8139     8005     7855     7731     7658     7623     7616 
    7632     7638     7616     7557     7438     7277     7109     6943 
    6785     6647     6539     6466     6424     6396     6367     6357 
    6361     6381     6444     6532     6635     6785     6945     7080 
    7223     7381     7534     7684     7830     7960     8081     8203 
    8326     8421     8490     8561     8638     8718     8793     8858 
    8908     8923     8893     8820     8711     8588     8484     8413 
    8356     8314     8293     8287     8283     8271     8257     8248 
    8233     8228     8237     8239     8218     8154     8021     7850 
    7692     7593     7584     7638     7720     7809     7888     7938 
    7940     7882     7782     7690     7647     7651     7703     7785 
    7873     7958     8035     8101     8172     8248     8310     8352 
    8394     8445     8494     8540     8583     8615     8641     8662 
    8677     8695     8718     8714     8668     8590     8487     8403 
    8359     8344     8332     8294     8229     8136     8010     7874 
    7739     7593     7450     7339     7272     7227     7183     7132 
    7082     7060     7063     7074     7118     7211     7319     7433 
    7549     7662     7754     7820     7878     7912     7898     7874 
    7854     7805     7727     7620     7472     7283     7064     6848 
    6671     6532     6447     6424     6442     6481     6521     6563 
    6616     6670     6737     6832     6925     6998     7060     7103 
    7117     7106     7103     7141     7215     7310     7425     7547 
    7661     7771     7878     7982     8095     8214     8325     8418 
    8490     8552     8617     8702     8816     8950     9084     9216 
    9335     9433     9520     9610     9701     9798     9898     9969 
    9991     9956     9859     9709     9526     9324     9126     8961 
    8853     8795     8766     8766     8765     8746     8727     8711 
    8683     8662     8681     8739     8833     8977     9128     9231 
    9296     9331     9324     9277     9207     9135     9067     9005 
    8941     8866     8789     8706     8621     8545     8478     8432 
    8413     8418     8434     8468     8532     8581     8587     8587 
    8608     8646     8680     8715     8765     8814     8857     8895 
    8904     8878     8861     8893     8977     9107     9251     9363 
    9423     9416     9371     9325     9258     9174     9093     8999 
    8892     8784     8687     8600     8506     8407     8313     8224 
    8144     8066     7983     7912     7851     7781     7695     7599 
    7491     7379     7267     7146     7034     6937     6858     6789 
    6721     6667     6648     6667     6725     6805     6875     6922 
    6928     6878     6795     6704     6620     6552     6497     6443 
    6417     6440     6492     6577     6706     6843     6997     7192 
    7395     7564     7697     7778     7781     7727     7650     7546 
    7427     7329     7245     7164     7102     7082     7083     7078 
    7056     7033     7017     7013     7045     7103     7142     7156 
    7148     7106     7030     6966     6941     6956     7017     7136 
    7291     7456     7615     7763     7893     8016     8168     8337 
    8509     8710     8920     9099     9236     9352     9425     9428 
    9406     9398     9379     9337     9285     9189     9007     8775 
    8536     8290     8063     7885     7749     7655     7596     7560 
    7528     7465     7350     7188     7010     6856     6752     6713 
    6744     6837     6976     7138     7290     7408     7497     7541 
    7522     7479     7433     7403     7414     7462     7539     7639 
    7746     7848     7921     7938     7904     7825     7707     7577 
    7469     7379     7291     7223     7190     7169     7179     7264 
    7425     7638     7884     8117     8299     8440     8527     8544 
    8490     8374     8213     8039     7877     7766     7727     7747 
    7804     7888     7986     8079     8143     8183     8221     8239 
    8237     8252     8287     8329     8394     8484     8590     8722 
    8887     9065     9243     9389     9458     9440     9379     9319 
    9274     9242     9217     9186     9131     9063     8988     8876 
    8733     8592     8468     8360     8257     8160     8067     7963 
    7835     7700     7603     7547     7515     7546     7659     7805 
    7960     8129     8298     8471     8631     8766     8912     9063 
    9178     9270     9347     9396     9424     9428     9413     9416 
    9437     9466     9517     9571     9575     9514     9404     9246 
    9040     8795     8546     8332     8156     8005     7862     7727 
    7626     7578     7585     7651     7780     7935     8085     8240 
    8407     8577     8757     8958     9173     9408     9657     9903 
   10162    10438    10682    10876    11018    11083    11080    11020 
   10899    10758    10596    10413    10237    10054     9857     9634 
    9373     9073     8735     8374     8017     7685     7396     7165 
    6998     6863     6758     6706     6681     6656     6647     6650 
    6670     6697     6720     6737     6732     6709     6683     6652 
    6621     6602     6589     6561     6502     6394     6255     6139 
    6062     6008     5976     5954     5949     5969     5992     6019 
    6075     6160     6272     6413     6610     6872     7146     7395 
    7626     7831     7989     8101     8210     8361     8525     8676 
    8837     8985     9078     9123     9116     9058     8970     8858 
    8719     8552     8348     8114     7862     7611     7383     7188 
    7063     7038     7094     7202     7358     7553     7755     7966 
    8183     8386     8571     8743     8897     8996     9034     9038 
    9004     8949     8895     8869     8889     8947     9016     9031 
    8958     8807     8567     8264     7932     7578     7227     6914 
    6650     6431     6261     6142     6072     6065     6138     6296 
    6527     6813     7153     7507     7812     8081     8307     8482 
    8603     8654     8646     8596     8488     8328     8147     7935 
    7674     7372     7033     6677     6346     6026     5698     5375 
    5063     4796     4610     4511     4511     4585     4729     4957 
    5227     5512     5823     6156     6500     6883     7306     7750 
    8203     8657     9112     9574    10015    10423    10798    11136 
   11457    11754    11992    12166    12280    12320    12286    12210 
   12110    11978    11823    11674    11534    11410    11317    11241 
   11173    11129    11099    11056    11007    10972    10936    10876 
   10777    10624    10444    10276    10122     9964     9784     9583 
    9375     9148     8888     8610     8322     8032     7753     7473 
    7203     6937     6654     6351     6019     5667     5323     4986 
    4656     4347     4072     3850     3663     3481     3322     3208 
    3118     3045     3001     2984     3003     3053     3115     3200 
    3303     3416     3562     3739     3939     4186     4479     4784 
    5089     5377     5671     5999     6311     6596     6894     7173 
    7416     7689     7993     8276     8519     8735     8914     9036 
    9140     9242     9297     9310     9339     9397     9460     9529 
    9610     9671     9682     9675     9683     9709     9752     9822 
    9936    10095    10291    10501    10682    10808    10887    10933 
   10956    10960    10966    10993    11018    11022    11005    10968 
   10912    10810    10663    10477    10245     9992     9748     9518 
    9292     9082     8905     8723     8529     8321     8090     7873 
    7701     7578     7485     7416     7399     7414     7449     7496 
    7515     7523     7538     7569     7636     7727     7830     7923 
    7970     7971     7929     7855     7742     7587     7439     7317 
    7206     7102     7011     6951     6909     6895     6913     6913 
    6920     6934     6930     6901     6828     6733     6627     6482 
    6330     6197     6070     5950     5842     5732     5594     5452 
    5356     5319     5339     5395     5468     5556     5651     5740 
    5814     5868     5925     5984     6056     6160     6281     6419 
    6565     6690     6789     6860     6921     7009     7155     7348 
    7549     7758     7970     8166     8365     8559     8726     8874 
    9011     9150     9309     9495     9699     9902    10120    10334 
   10521    10701    10835    10897    10920    10901    10845    10781 
   10714    10659    10612    10567    10527    10477    10426    10389 
   10374    10382    10428    10520    10646    10787    10922    11045 
   11167    11271    11330    11327    11257    11148    11014    10840 
   10628    10399    10154     9896     9643     9414     9194     8958 
    8725     8502     8268     8046     7862     7727     7635     7566 
    7534     7539     7564     7595     7638     7677     7682     7672 
    7651     7596     7535     7503     7480     7473     7488     7507 
    7531     7574     7615     7647     7700     7742     7750     7744 
    7717     7670     7619     7568     7542     7558     7636     7774 
    7925     8066     8190     8268     8280     8228     8128     7998 
    7832     7634     7427     7233     7075     6964     6875     6797 
    6750     6729     6728     6752     6814     6925     7064     7180 
    7267     7338     7385     7419     7441     7433     7419     7426 
    7430     7420     7385     7314     7213     7095     6999     6936 
    6872     6808     6760     6721     6686     6647     6593     6527 
    6457     6384     6322     6276     6239     6207     6192     6192 
    6193     6195     6210     6258     6318     6358     6419     6521 
    6662     6845     7049     7263     7518     7825     8152     8446 
    8696     8918     9150     9416     9688     9961    10247    10534 
   10800    11030    11215    11334    11352    11276    11130    10930 
   10721    10538    10389    10274    10169    10075     9983     9856 
    9691     9520     9373     9267     9184     9104     9059     9043 
    9013     8974     8941     8878     8785     8668     8517     8337 
    8122     7869     7589     7280     6947     6605     6280     5994 
    5741     5547     5439     5391     5377     5406     5475     5552 
    5626     5701     5744     5760     5796     5867     5971     6091 
    6230     6399     6586     6801     7024     7230     7433     7639 
    7852     8083     8347     8648     8957     9269     9576     9860 
   10139    10409    10651    10885    11095    11260    11376    11433 
   11437    11402    11340    11242    11086    10879    10639    10385 
   10110     9805     9506     9238     9004     8811     8635     8457 
    8263     8043     7825     7638     7496     7408     7396     7460 
    7578     7750     7948     8129     8293     8419     8498     8513 
    8463     8370     8233     8043     7805     7542     7272     6995 
    6724     6493     6320     6201     6114     6033     5952     5871 
    5807     5768     5744     5744     5776     5854     5979     6130 
    6308     6486     6651     6809     6944     7068     7195     7322 
    7468     7631     7803     7993     8181     8351     8506     8634 
    8723     8791     8835     8829     8776     8700     8621     8534 
    8453     8391     8344     8313     8306     8311     8290     8232 
    8144     8033     7935     7870     7846     7869     7936     8035 
    8131     8189     8201     8168     8091     7975     7825     7668 
    7508     7344     7187     7034     6887     6778     6708     6639 
    6583     6592     6616     6601     6585     6577     6559     6536 
    6486     6400     6307     6208     6116     6065     6030     5995 
    5988     6010     6050     6133     6258     6407     6581     6782 
    7013     7271     7550     7850     8147     8445     8766     9101 
    9433     9749    10045    10330    10594    10797    10910    10959 
   10941    10858    10731    10554    10332    10093     9814     9505 
    9225     8961     8704     8491     8305     8140     8017     7924 
    7850     7798     7773     7770     7780     7785     7801     7844 
    7893     7932     7989     8066     8143     8232     8332     8407 
    8469     8559     8654     8745     8851     8954     9031     9086 
    9124     9170     9225     9278     9351     9428     9478     9539 
    9599     9586     9529     9477     9371     9225     9078     8901 
    8714     8545     8382     8264     8197     8151     8128     8112 
    8108     8129     8135     8132     8156     8182     8205     8253 
    8333     8410     8465     8532     8602     8652     8700     8749 
    8777     8804     8811     8777     8733     8675     8625     8603 
