Origin Time       2025/01/13 21:19:00
Lat.              31.8
Long.             131.6
Depth. (km)       30
Mag.              6.9
Station Code      YMG018
Station Lat.      33.9091
Station Long.     132.3559
Station Height(m) 3
Record Time       2025/01/13 21:20:23
Sampling Freq(Hz) 100Hz
Duration Time(s)  111
Dir.              U-D
Scale Factor      7845(gal)/8223790
Max. Acc. (gal)   2.521
Last Correction   2025/01/13 21:20:23
Memo.             
[...]
   11403    11244    11152    11191    11227    11157    11099    11178 
   11303    11330    11299    11338    11437    11518    11580    11657 
   11745    11793    11759    11742    11870    12062    12140    12093 
   12020    11925    11786    11728    11813    11889    11847    11753 
   11682    11643    11616    11587    11550    11524    11504    11487 
   11535    11669    11797    11863    11911    11967    11985    11983 
   12027    12089    12137    12151    12097    12017    11905    11712 
   11524    11425    11326    11211    11159    11132    11102    11117 
   11163    11252    11394    11480    11506    11614    11772    11804 
   11770    11842    11913    11835    11799    11963    12083    11983 
   11871    11884    11858    11674    11429    11288    11256    11184 
   11080    11082    11102    11038    11060    11226    11338    11353 
   11394    11499    11597    11658    11745    11809    11762    11712 
   11794    11947    12062    12118    12091    11954    11772    11661 
   11653    11678    11658    11604    11541    11408    11218    11106 
   11094    11090    11067    11044    11106    11314    11529    11611 
   11641    11723    11824    11897    11983    12066    12028    11888 
   11785    11724    11619    11507    11479    11489    11476    11468 
   11435    11353    11350    11466    11587    11688    11842    11990 
   12031    11998    11977    11958    11946    11997    12102    12181 
   12189    12147    12093    12040    11983    11932    11893    11853 
   11811    11754    11696    11670    11642    11589    11583    11595 
   11556    11514    11491    11441    11404    11425    11446    11425 
   11387    11369    11391    11410    11421    11519    11691    11803 
   11831    11866    11967    12125    12302    12488    12652    12726 
   12710    12687    12692    12653    12576    12561    12588    12549 
   12444    12351    12291    12212    12066    11873    11686    11492 
   11230    10974    10843    10828    10822    10735    10627    10588 
   10563    10569    10683    10828    10955    11142    11323    11358 
   11325    11338    11352    11325    11333    11395    11450    11462 
   11406    11308    11288    11389    11530    11664    11785    11865 
   11911    11986    12091    12151    12175    12243    12356    12456 
   12499    12476    12426    12371    12306    12225    12155    12125 
   12106    12047    11934    11801    11688    11574    11466    11419 
   11416    11379    11315    11300    11302    11236    11160    11132 
   11084    11036    11068    11136    11171    11211    11287    11348 
   11365    11360    11331    11276    11245    11268    11314    11356 
   11385    11460    11589    11676    11722    11815    11916    12002 
   12137    12290    12376    12384    12332    12260    12208    12179 
   12185    12229    12260    12198    12032    11869    11782    11731 
   11657    11608    11620    11585    11414    11199    11082    11087 
   11144    11213    11326    11453    11504    11472    11416    11400 
   11414    11419    11431    11496    11591    11635    11604    11503 
   11335    11223    11254    11315    11333    11388    11457    11415 
   11295    11236    11277    11383    11510    11627    11734    11826 
   11884    11894    11846    11815    11863    11882    11846    11884 
   11978    11983    11900    11812    11704    11574    11539    11583 
   11577    11522    11497    11527    11603    11715    11826    11898 
   11967    12075    12152    12140    12110    12102    12006    11773 
   11577    11527    11495    11423    11385    11371    11318    11211 
   11065    10941    10882    10883    10936    11020    11095    11110 
   11090    11168    11368    11564    11720    11851    11889    11830 
   11753    11676    11572    11462    11395    11388    11373    11299 
   11221    11200    11209    11219    11283    11395    11475    11541 
   11654    11773    11871    11955    11983    12027    12195    12391 
   12484    12532    12563    12557    12583    12614    12544    12379 
   12164    11961    11830    11727    11623    11556    11469    11330 
   11240    11217    11155    11101    11145    11188    11186    11238 
   11341    11414    11422    11375    11329    11322    11364    11473 
   11585    11600    11549    11514    11488    11488    11581    11711 
   11711    11574    11445    11379    11315    11227    11207    11307 
   11423    11507    11595    11650    11680    11730    11794    11871 
   11950    12021    12108    12189    12245    12279    12286    12270 
   12228    12198    12245    12317    12299    12210    12089    11931 
   11789    11696    11641    11658    11727    11730    11693    11716 
   11697    11588    11529    11538    11512    11414    11303    11269 
   11277    11236    11184    11184    11213    11283    11380    11449 
   11510    11554    11554    11600    11736    11873    11973    12042 
   12054    12009    11916    11788    11734    11813    11905    11917 
   11925    12016    12189    12372    12482    12505    12480    12388 
   12244    12136    12093    12047    11940    11799    11681    11560 
   11395    11233    11153    11175    11182    11118    11094    11086 
   10999    10924    10960    11070    11161    11190    11184    11217 
   11317    11414    11442    11464    11515    11526    11483    11457 
   11488    11558    11618    11624    11600    11589    11543    11446 
   11398    11392    11354    11346    11410    11441    11402    11379 
   11410    11415    11300    11121    11052    11098    11141    11246 
   11488    11730    11878    12046    12289    12495    12582    12642 
   12733    12756    12690    12627    12564    12456    12312    12164 
   12077    12054    12013    11944    11947    12039    12116    12167 
   12236    12240    12133    11988    11832    11704    11655    11628 
   11543    11457    11457    11489    11495    11518    11534    11442 
   11263    11122    11084    11122    11199    11257    11269    11303 
   11398    11518    11627    11678    11707    11796    11907    11988 
   12139    12380    12545    12613    12729    12845    12808    12672 
   12550    12433    12287    12155    12112    12140    12152    12175 
   12235    12237    12197    12209    12220    12151    12040    11951 
   11871    11754    11626    11516    11400    11210    10935    10702 
   10578    10454    10345    10354    10405    10393    10382    10419 
   10444    10465    10517    10578    10636    10685    10719    10773 
   10852    10910    10939    10970    10993    11007    11060    11133 
   11206    11364    11596    11765    11846    11932    12051    12121 
   12110    12098    12145    12186    12167    12171    12235    12258 
   12194    12055    11844    11622    11446    11318    11264    11263 
   11183    10980    10808    10775    10773    10700    10644    10650 
   10638    10550    10397    10274    10264    10308    10354    10399 
   10397    10361    10380    10442    10449    10407    10400    10457 
   10552    10690    10847    10933    10912    10854    10827    10909 
   11124    11364    11564    11720    11789    11790    11785    11815 
   11917    12085    12229    12251    12198    12212    12297    12401 
   12556    12721    12780    12757    12765    12803    12768    12665 
   12563    12441    12295    12213    12183    12085    11893    11662 
   11421    11238    11184    11210    11240    11286    11334    11323 
   11269    11242    11276    11314    11269    11183    11128    11044 
   10922    10875    10937    11021    11053    11059    11092    11179 
   11319    11497    11634    11705    11826    12040    12251    12433 
   12640    12845    12982    13034    13065    13140    13257    13410 
   13528    13495    13408    13373    13274    13103    13034    13042 
   12947    12760    12583    12417    12255    12147    12120    12151 
   12160    12132    12121    12093    12029    11997    11993    12001 
   12000    11911    11788    11758    11759    11668    11531    11481 
   11537    11596    11611    11610    11564    11435    11240    11016 
   10843    10752    10673    10621    10670    10732    10712    10716 
   10844    11021    11194    11431    11703    11929    12152    12384 
   12569    12742    12908    12977    12989    13008    12943    12803 
   12704    12602    12452    12312    12135    11878    11605    11375 
   11244    11246    11256    11109    10837    10596    10453    10378 
   10346    10349    10413    10569    10770    10956    11141    11341 
   11489    11523    11496    11499    11546    11556    11472    11368 
   11280    11182    11136    11163    11192    11219    11284    11384 
   11514    11657    11788    11902    12028    12144    12178    12177 
   12236    12282    12222    12075    11934    11878    11862    11866 
   11905    11871    11747    11673    11653    11646    11664    11670 
   11624    11534    11452    11443    11497    11569    11641    11668 
   11643    11620    11634    11651    11620    11576    11576    11523 
   11354    11186    11105    11057    10993    10925    10883    10856 
   10767    10647    10636    10690    10670    10619    10644    10744 
   10856    10948    11026    11086    11124    11160    11221    11302 
   11341    11357    11449    11643    11866    12013    12075    12137 
   12208    12243    12217    12127    12028    11934    11780    11650 
   11668    11735    11776    11851    11925    11956    11989    12000 
   11998    12035    12060    12029    11971    11892    11740    11524 
   11337    11196    11055    10913    10773    10615    10442    10353 
   10451    10640    10771    10886    11055    11249    11464    11682 
   11844    11990    12178    12351    12482    12596    12665    12702 
   12752    12799    12830    12833    12834    12861    12816    12673 
   12540    12424    12278    12113    11942    11759    11584    11481 
   11479    11511    11520    11518    11519    11479    11385    11340 
   11384    11456    11543    11642    11705    11745    11796    11855 
   11890    11873    11847    11880    11959    12046    12144    12247 
   12326    12367    12368    12339    12271    12195    12168    12141 
   12062    11971    11897    11823    11738    11674    11693    11740 
   11735    11731    11731    11665    11584    11581    11659    11785 
   11950    12133    12285    12367    12376    12324    12240    12191 
   12193    12144    12062    12063    12077    11990    11869    11778 
   11680    11550    11442    11416    11457    11464    11399    11340 
   11307    11253    11178    11138    11128    11082    10995    10908 
   10872    10902    10936    10906    10831    10762    10727    10748 
   10860    11040    11168    11172    11141    11159    11190    11198 
   11219    11295    11389    11430    11453    11542    11622    11618 
   11653    11784    11893    11979    12156    12375    12491    12507 
   12518    12514    12417    12263    12113    11928    11701    11493 
   11310    11113    10949    10893    10864    10781    10693    10648 
   10596    10480    10334    10277    10331    10395    10454    10574 
   10719    10801    10871    11021    11192    11283    11334    11438 
   11557    11605    11595    11601    11645    11664    11670    11723 
   11758    11720    11708    11799    11951    12087    12205    12332 
   12455    12583    12708    12772    12777    12773    12722    12610 
   12523    12513    12532    12538    12519    12464    12348    12164 
   11956    11801    11689    11519    11306    11144    11024    10909 
   10836    10813    10782    10723    10669    10638    10621    10620 
   10662    10737    10778    10764    10729    10705    10700    10743 
   10906    11168    11427    11674    11929    12186    12474    12810 
   13138    13401    13599    13741    13844    13921    13959    13944 
   13878    13788    13689    13525    13304    13077    12810    12490 
   12190    11947    11763    11632    11510    11367    11198    10987 
   10735    10469    10241    10102    10035    10004    10026    10114 
   10216    10272    10326    10408    10470    10547    10690    10844 
   10987    11148    11346    11576    11801    12010    12191    12370 
   12604    12829    12919    12919    12962    13049    13104    13162 
   13263    13352    13393    13387    13338    13258    13165    13055 
   12924    12768    12611    12496    12434    12366    12235    12074 
   11948    11858    11762    11657    11583    11573    11604    11634 
   11708    11857    11947    11900    11842    11820    11754    11688 
   11703    11711    11662    11622    11564    11472    11389    11273 
   11151    11114    11118    11071    10962    10845    10804    10801 
   10779    10805    10879    10909    10874    10787    10666    10524 
   10365    10227    10122    10026     9961     9902     9817     9774 
    9826     9977    10176    10320    10365    10376    10407    10478 
   10600    10781    10983    11119    11178    11248    11327    11346 
   11315    11303    11335    11346    11326    11329    11334    11307 
   11249    11191    11172    11169    11132    11057    10952    10809 
   10632    10474    10389    10355    10303    10219    10141    10076 
   10034    10033    10058    10129    10265    10428    10559    10673 
   10829    11016    11176    11330    11511    11723    11958    12210 
   12476    12721    12893    12999    13095    13212    13304    13375 
   13501    13652    13801    13975    14108    14165    14223    14285 
   14285    14189    14006    13809    13633    13456    13317    13215 
   13045    12825    12661    12506    12283    12077    11963    11862 
   11716    11580    11495    11421    11326    11245    11219    11203 
   11171    11175    11227    11276    11294    11294    11267    11205 
   11155    11188    11310    11460    11588    11666    11734    11830 
   11909    11943    11981    12050    12151    12306    12499    12687 
   12834    12941    13023    13065    13061    13035    12953    12816 
   12691    12580    12492    12467    12461    12437    12422    12403 
   12347    12237    12074    11890    11731    11605    11507    11408 
   11268    11107    10997    10929    10844    10754    10675    10579 
   10473    10380    10292    10214    10145    10069     9998     9965 
    9994    10057    10115    10201    10359    10539    10704    10890 
   11105    11314    11530    11784    12027    12175    12228    12226 
   12182    12143    12105    12006    11874    11736    11577    11453 
   11418    11431    11461    11511    11557    11588    11655    11770 
   11874    11982    12159    12351    12451    12452    12380    12249 
   12120    12009    11843    11630    11460    11349    11257    11149 
   11028    10937    10898    10921    11018    11157    11268    11337 
   11421    11539    11703    11946    12209    12357    12379    12368 
   12330    12229    12112    11988    11807    11592    11381    11153 
   10917    10735    10635    10554    10447    10363    10299    10241 
   10257    10343    10420    10515    10674    10854    11029    11264 
   11591    11943    12240    12460    12633    12781    12897    12982 
   13059    13153    13285    13436    13524    13532    13508    13419 
   13230    12997    12784    12582    12339    12070    11812    11510 
   11144    10791    10513    10339    10253    10210    10188    10135 
   10053    10041    10138    10312    10520    10714    10886    11048 
   11175    11268    11377    11488    11583    11727    11934    12124 
   12278    12442    12595    12694    12766    12861    12973    13042 
   13043    13014    12972    12923    12881    12861    12891    12937 
   12912    12825    12719    12599    12463    12359    12307    12260 
   12202    12133    11983    11774    11622    11542    11473    11435 
   11496    11607    11653    11654    11689    11719    11713    11769 
   11907    12015    12060    12075    11993    11807    11654    11583 
   11502    11338    11132    10948    10770    10605    10515    10467 
   10399    10312    10208    10135    10150    10233    10345    10459 
   10540    10623    10782    10994    11183    11372    11587    11758 
   11884    12059    12279    12459    12609    12760    12862    12884 
   12854    12833    12841    12858    12885    12916    12889    12785 
   12646    12511    12383    12236    12040    11817    11604    11395 
   11182    10982    10825    10708    10593    10503    10471    10442 
   10390    10359    10346    10305    10245    10237    10293    10342 
   10401    10531    10663    10732    10783    10874    10999    11125 
   11246    11404    11580    11723    11842    11947    12013    12044 
   12069    12118    12201    12289    12398    12544    12669    12748 
   12788    12771    12707    12631    12533    12393    12253    12156 
   12046    11911    11823    11788    11716    11592    11516    11503 
   11458    11422    11452    11483    11468    11434    11384    11290 
   11155    11045    10976    10867    10701    10557    10454    10386 
   10382    10442    10521    10604    10690    10785    10932    11134 
   11327    11496    11677    11862    12035    12206    12406    12615 
   12784    12880    12901    12849    12746    12619    12468    12298 
   12148    12055    12004    11924    11812    11738    11695    11662 
   11662    11684    11708    11763    11840    11881    11874    11865 
   11881    11896    11871    11815    11759    11708    11658    11615 
   11585    11547    11489    11425    11365    11308    11245    11171 
   11099    11024    10920    10813    10755    10733    10708    10693 
   10708    10754    10848    10974    11092    11214    11326    11421 
   11499    11534    11556    11599    11611    11605    11630    11643 
   11631    11662    11745    11796    11812    11850    11915    11959 
   11965    11958    11943    11888    11807    11765    11743    11692 
   11664    11712    11766    11776    11797    11857    11911    11977 
   12098    12226    12280    12312    12393    12457    12434    12356 
   12268    12183    12097    11990    11894    11823    11726    11596 
   11493    11412    11321    11230    11160    11110    11071    11028 
   10960    10870    10808    10820    10881    10955    11063    11219 
   11388    11538    11692    11875    12039    12132    12167    12154 
   12109    12083    12102    12154    12236    12345    12451    12518 
   12560    12596    12626    12672    12722    12718    12644    12545 
   12447    12341    12218    12071    11905    11749    11639    11573 
   11522    11469    11395    11302    11223    11160    11090    11022 
   10979    10952    10902    10862    10870    10899    10928    10984 
   11068    11125    11132    11119    11126    11128    11091    11037 
   11009    10975    10901    10851    10866    10886    10902    10971 
   11080    11191    11287    11371    11448    11514    11566    11615 
   11681    11778    11893    12015    12143    12291    12483    12703 
   12888    13008    13085    13146    13196    13196    13123    13031 
   12918    12731    12495    12239    11944    11639    11367    11132 
   10943    10789    10617    10440    10324    10281    10276    10328 
   10503    10736    10905    11020    11161    11322    11458    11569 
