Origin Time       2025/01/13 21:19:00
Lat.              31.8
Long.             131.6
Depth. (km)       30
Mag.              6.9
Station Code      YMG017
Station Lat.      33.9649
Station Long.     132.1011
Station Height(m) 1
Record Time       2025/01/13 21:20:25
Sampling Freq(Hz) 100Hz
Duration Time(s)  109
Dir.              U-D
Scale Factor      7845(gal)/8223790
Max. Acc. (gal)   2.022
Last Correction   2025/01/13 21:20:25
Memo.             
[...]
   29813    29824    29835    29832    29876    29961    29994    29949 
   29887    29843    29837    29867    29890    29898    29921    29947 
   29948    29941    29944    29964    29998    30048    30118    30163 
   30150    30110    30083    30099    30144    30161    30134    30084 
   30019    29949    29876    29783    29658    29527    29423    29384 
   29413    29450    29481    29555    29643    29677    29662    29637 
   29637    29654    29644    29629    29625    29602    29566    29520 
   29462    29471    29578    29668    29686    29668    29656    29713 
   29824    29874    29875    29909    29948    29938    29884    29841 
   29848    29856    29840    29845    29901    29991    30059    30041 
   29976    29949    29963    29976    29986    30005    30044    30087 
   30091    30079    30114    30173    30208    30207    30159    30076 
   29995    29921    29853    29778    29697    29659    29652    29608 
   29529    29454    29427    29497    29600    29656    29708    29762 
   29770    29772    29805    29829    29825    29837    29884    29886 
   29822    29820    29914    29990    29998    30013    30064    30121 
   30148    30144    30153    30184    30176    30144    30169    30248 
   30316    30357    30346    30277    30196    30164    30169    30149 
   30073    29960    29841    29748    29713    29712    29690    29668 
   29705    29802    29901    29926    29884    29860    29894    29943 
   29972    29957    29887    29822    29814    29837    29849    29793 
   29693    29631    29610    29621    29668    29713    29743    29810 
   29901    29953    29933    29857    29787    29771    29801    29847 
   29879    29889    29906    29911    29872    29794    29693    29609 
   29573    29559    29563    29600    29632    29614    29585    29614 
   29697    29737    29693    29640    29620    29555    29447    29380 
   29358    29334    29300    29308    29409    29556    29660    29679 
   29639    29605    29641    29747    29882    29999    30068    30123 
   30219    30331    30410    30458    30500    30527    30480    30319 
   30109    29930    29801    29713    29673    29690    29747    29783 
   29782    29793    29824    29835    29835    29856    29868    29847 
   29851    29928    30046    30133    30119    30019    29906    29837 
   29833    29813    29727    29666    29658    29631    29632    29714 
   29795    29864    29965    30086    30221    30331    30322    30211 
   30092    29978    29889    29906    30006    30096    30142    30121 
   30036    29960    29932    29909    29887    29907    29940    29938 
   29917    29878    29785    29670    29655    29774    29920    30021 
   30057    29995    29867    29739    29652    29668    29781    29902 
   30001    30087    30159    30198    30159    30056    29968    29936 
   29961    29979    29933    29911    29978    30071    30126    30084 
   30003    29986    29983    29929    29880    29898    29974    30041 
   30055    30019    29943    29855    29802    29779    29798    29898 
   30026    30102    30107    30069    30017    29976    29980    30046 
   30150    30241    30299    30322    30291    30206    30105    30002 
   29902    29860    29889    29880    29756    29587    29488    29457 
   29458    29494    29544    29577    29573    29528    29502    29558 
   29670    29795    29936    30098    30241    30314    30299    30237 
   30198    30211    30246    30267    30221    30073    29857    29662 
   29570    29538    29486    29465    29497    29527    29550    29590 
   29596    29560    29556    29578    29563    29517    29506    29562 
   29627    29627    29623    29722    29864    29911    29871    29872 
   29972    30073    30088    30056    30009    29949    29913    29882 
   29814    29749    29735    29744    29732    29686    29629    29608 
   29636    29656    29655    29682    29722    29744    29786    29835 
   29837    29841    29914    30037    30145    30190    30165    30100 
   30046    30048    30056    30037    30026    30022    30026    30024 
   29957    29855    29787    29737    29663    29596    29529    29400 
   29241    29166    29222    29336    29420    29505    29620    29717 
   29805    29876    29921    29999    30099    30150    30137    30052 
   29968    29963    29956    29857    29722    29647    29633    29619 
   29604    29682    29849    29995    30084    30159    30272    30410 
   30483    30458    30333    30138    29983    29847    29666    29536 
   29486    29438    29366    29263    29155    29116    29166    29262 
   29322    29357    29473    29654    29821    29948    30010    30051 
   30121    30152    30096    29999    29913    29847    29752    29597 
   29442    29328    29261    29262    29285    29286    29327    29454 
   29627    29783    29893    29992    30092    30127    30103    30071 
   30029    30026    30103    30172    30160    30100    30075    30122 
   30200    30276    30352    30392    30329    30167    30003    29905 
   29864    29879    29957    30037    30038    29995    30003    30034 
   30006    29956    29921    29880    29817    29709    29590    29512 
   29398    29207    29088    29184    29459    29748    29910    29948 
   29968    30036    30117    30173    30219    30284    30346    30346 
   30322    30356    30352    30188    29992    29926    29952    29968 
   29933    29872    29851    29899    29998    30113    30194    30167 
   30049    29956    29920    29897    29909    29990    30095    30198 
   30256    30252    30272    30322    30261    30055    29837    29747 
   29783    29845    29864    29886    29918    29853    29689    29586 
   29560    29496    29421    29413    29411    29332    29203    29099 
   29074    29146    29307    29538    29805    30030    30167    30280 
   30396    30437    30406    30396    30418    30450    30491    30487 
   30391    30244    30125    30087    30095    30076    30048    30051 
   30032    29974    29948    29945    29884    29791    29768    29833 
   29899    29902    29872    29851    29810    29712    29578    29454 
   29359    29319    29331    29369    29463    29639    29833    30003 
   30154    30241    30267    30319    30385    30392    30372    30343 
   30277    30179    30071    29980    29928    29957    30045    30103 
   30152    30226    30303    30383    30446    30473    30469    30418 
   30329    30253    30240    30280    30343    30423    30453    30366 
   30225    30073    29917    29781    29668    29619    29654    29670 
   29592    29459    29334    29245    29234    29315    29400    29440 
   29477    29471    29409    29369    29339    29295    29255    29195 
   29151    29178    29222    29282    29408    29567    29677    29728 
   29816    29929    29972    29986    30060    30173    30249    30225 
   30125    30032    29974    29948    29959    29980    30011    30037 
   29974    29826    29733    29763    29790    29697    29601    29641 
   29764    29913    30095    30280    30449    30596    30680    30703 
   30701    30685    30651    30616    30588    30535    30466    30442 
   30445    30445    30461    30416    30252    30072    29976    29990 
   30122    30277    30310    30225    30165    30184    30240    30330 
   30420    30449    30420    30319    30136    29997    29933    29789 
   29523    29269    29119    29065    29068    29137    29284    29405 
   29380    29211    28968    28740    28626    28675    28845    29026 
   29141    29191    29177    29093    29008    29006    29093    29228 
   29350    29438    29511    29543    29515    29474    29452    29435 
   29438    29477    29515    29524    29536    29573    29628    29641 
   29520    29290    29064    28930    28987    29238    29556    29836 
   29987    29926    29689    29409    29224    29188    29227    29251 
   29250    29219    29150    29112    29188    29371    29585    29717 
   29705    29631    29585    29586    29656    29793    29936    30048 
   30107    30094    30078    30126    30199    30250    30256    30153 
   29961    29767    29651    29668    29749    29803    29862    29868 
   29732    29538    29363    29224    29184    29219    29232    29219 
   29174    29041    28898    28884    28984    29126    29274    29425 
   29573    29636    29556    29431    29376    29416    29548    29736 
   29906    30042    30153    30219    30269    30349    30434    30492 
   30527    30554    30581    30592    30553    30469    30362    30242 
   30130    30029    29934    29886    29921    30001    30053    30038 
   29979    29926    29859    29755    29652    29552    29439    29365 
   29323    29268    29268    29376    29500    29581    29658    29740 
   29801    29826    29798    29751    29741    29749    29762    29813 
   29875    29940    30044    30161    30249    30285    30248    30177 
   30121    30046    29947    29839    29710    29585    29497    29463 
   29467    29465    29467    29516    29585    29629    29643    29643 
   29637    29627    29643    29717    29841    29968    30069    30164 
   30200    30148    30099    30092    30063    30024    30028    30059 
   30052    30003    29971    29953    29938    29968    30055    30191 
   30352    30480    30568    30635    30676    30677    30628    30541 
   30481    30466    30429    30323    30183    30073    30024    30002 
   29968    29916    29875    29855    29820    29779    29779    29816 
   29913    30100    30285    30434    30580    30673    30704    30758 
   30855    30951    31009    31035    31059    31074    31054    30985 
   30866    30743    30650    30557    30442    30325    30233    30195 
   30200    30192    30177    30203    30227    30214    30213    30204 
   30149    30125    30163    30217    30307    30423    30497    30534 
   30555    30549    30473    30314    30136    29972    29810    29675 
   29571    29466    29355    29220    29092    29058    29142    29297 
   29450    29498    29447    29446    29546    29621    29605    29532 
   29438    29355    29331    29359    29378    29385    29420    29470 
   29505    29551    29628    29694    29682    29605    29546    29556 
   29643    29781    29909    30001    30063    30094    30110    30137 
   30165    30153    30084    30037    30052    30068    30061    30049 
   30013    29922    29794    29647    29455    29218    29033    28938 
   28864    28802    28792    28804    28796    28800    28876    28985 
   29087    29235    29435    29621    29793    29955    30063    30106 
   30087    30024    29988    29970    29902    29803    29706    29620 
   29558    29489    29377    29239    29119    29030    28960    28930 
   28979    29057    29093    29110    29112    29108    29173    29299 
   29400    29490    29625    29783    29913    29992    30044    30140 
   30298    30465    30623    30754    30829    30894    30973    30973 
   30844    30663    30512    30426    30387    30337    30256    30192 
   30167    30157    30168    30207    30269    30369    30488    30599 
   30709    30808    30869    30870    30809    30715    30618    30542 
   30489    30430    30356    30268    30175    30105    30036    29926 
   29809    29720    29656    29619    29573    29496    29430    29413 
   29447    29506    29556    29632    29735    29785    29786    29797 
   29818    29818    29772    29720    29705    29705    29725    29772 
   29814    29868    29943    29949    29853    29725    29631    29583 
   29550    29511    29478    29465    29501    29614    29751    29879 
   30022    30163    30275    30362    30410    30422    30434    30461 
   30492    30522    30537    30530    30514    30480    30435    30430 
   30433    30389    30331    30295    30271    30272    30296    30314 
   30321    30300    30240    30180    30126    30037    29956    29909 
   29820    29646    29434    29270    29174    29088    29020    29025 
   29057    29066    29074    29104    29146    29222    29358    29547 
   29778    30022    30238    30457    30726    30994    31195    31347 
   31483    31577    31596    31530    31383    31202    31027    30802 
   30518    30265    30057    29821    29586    29439    29367    29323 
   29290    29281    29305    29366    29462    29590    29708    29801 
   29924    30086    30210    30254    30242    30176    30069    29976 
   29889    29755    29587    29435    29297    29173    29077    29015 
   28988    28980    28941    28864    28813    28810    28845    28911 
   28988    29076    29187    29289    29367    29434    29488    29538 
   29551    29455    29288    29182    29141    29057    28925    28783 
   28629    28476    28354    28264    28208    28171    28206    28382 
   28622    28841    29077    29358    29663    29964    30208    30395 
   30565    30700    30778    30811    30788    30719    30622    30488 
   30330    30168    30032    29956    29905    29832    29755    29700 
   29673    29652    29623    29594    29531    29396    29239    29101 
   28973    28879    28838    28825    28806    28786    28768    28746 
   28714    28641    28517    28387    28317    28345    28417    28464 
   28502    28536    28547    28586    28676    28752    28783    28804 
   28827    28846    28908    29061    29276    29466    29594    29721 
   29902    30083    30225    30354    30451    30519    30611    30713 
   30771    30796    30836    30865    30870    30910    30963    30950 
   30917    30952    31020    31056    31093    31156    31240    31365 
   31515    31646    31762    31866    31941    31977    31968    31915 
   31833    31729    31641    31599    31575    31527    31455    31361 
   31245    31125    31027    30915    30754    30613    30555    30535 
   30492    30437    30419    30437    30453    30460    30464    30484 
   30524    30530    30461    30375    30346    30364    30365    30330 
   30272    30225    30199    30176    30153    30138    30107    30010 
   29829    29619    29435    29259    29092    28984    28929    28888 
   28858    28836    28809    28799    28807    28776    28705    28683 
   28750    28856    28960    29057    29138    29214    29293    29347 
   29384    29446    29502    29496    29458    29446    29446    29428 
   29389    29351    29334    29315    29280    29249    29238    29250 
   29315    29438    29563    29658    29772    29933    30118    30329 
   30564    30774    30919    31020    31129    31236    31278    31228 
   31128    30994    30828    30665    30516    30376    30249    30167 
   30161    30219    30264    30284    30329    30385    30424    30488 
   30562    30558    30480    30377    30258    30107    29928    29739 
   29556    29385    29214    29034    28842    28651    28489    28378 
   28304    28264    28259    28289    28393    28575    28798    29080 
   29413    29714    29944    30110    30219    30312    30411    30474 
   30477    30434    30361    30284    30203    30103    29994    29876 
   29739    29578    29401    29203    29012    28860    28740    28641 
   28552    28474    28456    28524    28602    28630    28636    28647 
   28656    28665    28695    28749    28796    28802    28802    28845 
   28900    28912    28894    28895    28929    28973    28999    28996 
   28971    28914    28890    28966    29079    29157    29245    29380 
   29550    29748    29957    30144    30302    30454    30624    30816 
   31000    31121    31163    31170    31182    31217    31257    31259 
   31222    31195    31197    31202    31190    31170    31166    31166 
   31136    31077    31027    31008    30993    30956    30898    30843 
   30820    30834    30832    30785    30713    30661    30616    30523 
   30366    30196    30038    29878    29710    29556    29434    29363 
   29338    29326    29327    29359    29401    29465    29570    29689 
   29799    29901    29965    29999    30024    30029    30021    30011 
   30036    30117    30204    30248    30262    30240    30190    30149 
   30082    29953    29829    29748    29683    29624    29593    29587 
   29612    29658    29691    29702    29712    29709    29679    29632 
   29548    29463    29454    29477    29450    29417    29428    29474 
   29560    29682    29798    29905    30022    30119    30167    30204 
   30253    30283    30321    30377    30407    30423    30453    30454 
   30424    30414    30391    30295    30167    30061    29965    29872 
   29803    29752    29718    29713    29752    29841    29922    29944 
   29943    29941    29897    29826    29782    29756    29749    29791 
   29856    29901    29913    29917    29937    29992    30098    30226 
   30327    30406    30481    30541    30581    30588    30530    30431 
   30329    30183    29991    29812    29652    29506    29378    29253 
   29126    29043    29050    29115    29176    29254    29411    29620 
   29814    29970    30103    30213    30279    30303    30268    30183 
   30114    30052    29928    29759    29597    29458    29385    29394 
   29446    29524    29656    29841    30045    30253    30474    30701 
   30913    31102    31218    31245    31256    31267    31220    31093 
   30909    30707    30504    30291    30051    29822    29640    29457 
   29278    29135    28968    28782    28652    28568    28493    28444 
   28453    28491    28545    28657    28802    28914    29006    29103 
   29197    29293    29400    29513    29610    29666    29667    29633 
   29613    29643    29693    29710    29704    29704    29708    29706 
   29695    29662    29625    29606    29590    29579    29597    29637 
   29683    29755    29863    29978    30078    30156    30204    30234 
   30264    30283    30280    30277    30323    30422    30534    30624 
   30674    30684    30700    30705    30619    30457    30292    30119 
   29916    29693    29469    29263    29084    28938    28854    28846 
   28880    28926    28998    29101    29207    29301    29369    29403 
   29431    29478    29511    29512    29501    29492    29485    29500 
   29531    29556    29586    29601    29578    29574    29619    29685 
   29759    29855    29971    30079    30156    30242    30395    30580 
   30720    30819    30925    31043    31140    31187    31182    31163 
   31148    31110    31039    30947    30855    30773    30688    30607 
   30531    30422    30272    30142    30065    30010    29974    29961 
   29960    29967    29974    29991    30025    30042    30026    29998 
   29991    29991    29957    29893    29840    29789    29694    29574 
   29485    29461    29508    29585    29647    29706    29783    29862 
   29898    29893    29901    29929    29928    29909    29903    29898 
   29857    29774    29678    29631    29628    29636    29646    29643 
   29620    29590    29560    29532    29484    29394    29312    29295 
   29327    29347    29335    29327    29332    29320    29301    29296 
   29293    29290    29261    29191    29118    29062    29038    29037 
   29035    29037    29041    29039    29081    29191    29323    29436 
   29543    29678    29822    29930    30018    30122    30217    30279 
   30368    30518    30694    30862    30994    31087    31170    31252 
   31313    31325    31284    31189    31032    30829    30599    30335 
   30063    29820    29601    29388    29189    29026    28891    28776 
   28674    28593    28529    28459    28399    28372    28336    28304 
