Origin Time       2025/01/13 21:19:00
Lat.              31.8
Long.             131.6
Depth. (km)       30
Mag.              6.9
Station Code      YMG001
Station Lat.      34.6172
Station Long.     131.6022
Station Height(m) 5
Record Time       2025/01/13 21:20:34
Sampling Freq(Hz) 100Hz
Duration Time(s)  105
Dir.              E-W
Scale Factor      7845(gal)/8223790
Max. Acc. (gal)   3.725
Last Correction   2025/01/13 21:20:33
Memo.             
[...]
   -1811    -1817    -1799    -1798    -1830    -1877    -1925    -1964 
   -1995    -2004    -1989    -1945    -1857    -1746    -1634    -1516 
   -1393    -1290    -1205    -1142    -1117    -1121    -1123    -1102 
   -1074    -1053    -1042    -1048    -1069    -1086    -1081    -1065 
   -1048    -1023     -997    -1000    -1042    -1105    -1188    -1266 
   -1313    -1352    -1399    -1426    -1422    -1424    -1436    -1433 
   -1433    -1439    -1436    -1449    -1507    -1567    -1578    -1559 
   -1529    -1485    -1449    -1449    -1487    -1572    -1691    -1807 
   -1911    -2027    -2145    -2246    -2330    -2392    -2427    -2436 
   -2421    -2376    -2295    -2199    -2126    -2085    -2042    -1985 
   -1931    -1879    -1814    -1744    -1659    -1552    -1453    -1375 
   -1286    -1192    -1123    -1067    -1003     -938     -864     -766 
    -693     -676     -697     -750     -842     -953    -1055    -1166 
   -1283    -1390    -1512    -1669    -1840    -2014    -2191    -2361 
   -2516    -2659    -2805    -2929    -3001    -3041    -3056    -3045 
   -3010    -2953    -2875    -2772    -2663    -2558    -2463    -2386 
   -2326    -2274    -2216    -2149    -2070    -1962    -1825    -1688 
   -1557    -1429    -1343    -1309    -1302    -1317    -1345    -1355 
   -1333    -1320    -1320    -1290    -1251    -1233    -1220    -1202 
   -1196    -1178    -1146    -1139    -1167    -1201    -1248    -1314 
   -1389    -1475    -1575    -1674    -1768    -1879    -2003    -2110 
   -2200    -2295    -2388    -2450    -2489    -2508    -2506    -2512 
   -2551    -2625    -2697    -2725    -2693    -2597    -2451    -2273 
   -2068    -1840    -1605    -1379    -1152     -926     -730     -561 
    -421     -326     -256     -168      -76        1       89      178 
     234      243      209      120       -9     -139     -263     -396 
    -527     -654     -793     -940    -1092    -1262    -1433    -1580 
   -1702    -1813    -1926    -2030    -2126    -2222    -2311    -2369 
   -2409    -2438    -2446    -2438    -2421    -2394    -2353    -2320 
   -2309    -2303    -2313    -2336    -2342    -2311    -2247    -2166 
   -2080    -2011    -1971    -1938    -1908    -1887    -1863    -1822 
   -1796    -1802    -1807    -1796    -1788    -1775    -1749    -1734 
   -1732    -1742    -1783    -1827    -1834    -1807    -1773    -1733 
   -1675    -1601    -1522    -1449    -1393    -1345    -1291    -1242 
   -1215    -1204    -1196    -1185    -1174    -1154    -1098    -1023 
    -969     -945     -963    -1036    -1140    -1247    -1363    -1495 
   -1622    -1738    -1837    -1899    -1927    -1954    -1975    -1979 
   -2000    -2050    -2095    -2122    -2139    -2130    -2077    -2012 
   -1945    -1868    -1796    -1746    -1740    -1787    -1861    -1942 
   -2050    -2195    -2340    -2457    -2547    -2627    -2687    -2712 
   -2717    -2720    -2706    -2681    -2656    -2619    -2544    -2436 
   -2304    -2138    -1933    -1705    -1467    -1229    -1024     -858 
    -683     -490     -324     -194      -68       49      124      145 
     132      105       74       25      -54     -137     -228     -419 
    -688     -839     -897    -1051    -1246    -1370    -1472    -1594 
   -1710    -1825    -1945    -2064    -2184    -2309    -2435    -2536 
   -2621    -2735    -2855    -2914    -2933    -2968    -3006    -2995 
   -2921    -2797    -2639    -2454    -2251    -2054    -1884    -1752 
   -1638    -1516    -1389    -1267    -1129     -984     -866     -768 
    -696     -684     -695     -676     -652     -643     -649     -688 
    -764     -851     -969    -1146    -1366    -1580    -1791    -2020 
   -2261    -2492    -2702    -2887    -3032    -3125    -3156    -3129 
   -3069    -3003    -2948    -2928    -2961    -3025    -3079    -3122 
   -3146    -3142    -3092    -2988    -2849    -2694    -2547    -2420 
   -2295    -2147    -1973    -1784    -1567    -1331    -1116     -930 
    -757     -596     -453     -325     -229     -178     -147     -130 
    -137     -168     -213     -260     -313     -359     -409     -479 
    -560     -650     -776     -946    -1129    -1337    -1566    -1765 
   -1935    -2101    -2241    -2313    -2338    -2347    -2328    -2266 
   -2160    -2034    -1921    -1825    -1749    -1695    -1665    -1665 
   -1698    -1750    -1788    -1806    -1802    -1783    -1771    -1756 
   -1733    -1725    -1737    -1746    -1738    -1725    -1725    -1756 
   -1837    -1944    -2018    -2047    -2046    -1979    -1830    -1660 
   -1506    -1371    -1267    -1192    -1127    -1077    -1061    -1061 
   -1047    -1026    -1008    -1004    -1038    -1113    -1212    -1324 
   -1453    -1580    -1684    -1776    -1863    -1952    -2045    -2131 
   -2199    -2239    -2273    -2312    -2340    -2349    -2373    -2421 
   -2447    -2427    -2362    -2243    -2066    -1845    -1607    -1387 
   -1216    -1098    -1009     -923     -828     -737     -650     -581 
    -545     -523     -500     -494     -508     -534     -584     -656 
    -722     -803     -899     -980    -1058    -1152    -1252    -1362 
   -1502    -1656    -1800    -1933    -2054    -2158    -2223    -2238 
   -2214    -2158    -2056    -1895    -1706    -1521    -1348    -1196 
   -1073     -976     -888     -787     -658     -522     -410     -319 
    -253     -220     -199     -176     -160     -152     -152     -198 
    -309     -454     -622     -816    -1012    -1189    -1389    -1651 
   -1934    -2188    -2412    -2624    -2816    -2970    -3068    -3115 
   -3149    -3190    -3226    -3246    -3265    -3268    -3222    -3142 
   -3069    -3009    -2945    -2887    -2829    -2745    -2641    -2543 
   -2447    -2362    -2304    -2246    -2146    -2014    -1857    -1682 
   -1517    -1381    -1247    -1101     -976     -888     -828     -807 
    -846     -909     -965    -1019    -1057    -1058    -1053    -1075 
   -1124    -1193    -1310    -1468    -1638    -1818    -2000    -2176 
   -2330    -2470    -2598    -2702    -2797    -2890    -2953    -2990 
   -3015    -3014    -2963    -2887    -2809    -2727    -2643    -2562 
   -2479    -2381    -2272    -2157    -2042    -1935    -1846    -1768 
   -1672    -1540    -1368    -1179    -1013     -885     -784     -693 
    -603     -518     -492     -550     -581     -527     -513     -594 
    -673     -720     -801     -908    -1023    -1205    -1417    -1594 
   -1790    -2003    -2170    -2317    -2475    -2616    -2725    -2836 
   -2959    -3072    -3175    -3280    -3397    -3514    -3612    -3694 
   -3757    -3771    -3734    -3677    -3600    -3487    -3362    -3226 
   -3064    -2893    -2739    -2574    -2376    -2181    -2004    -1821 
   -1611    -1372    -1100     -807     -535     -286      -37      187 
     395      614      812      942     1032     1109     1128     1090 
    1036      943      772      530      240     -102     -480     -858 
   -1216    -1552    -1872    -2172    -2457    -2736    -2995    -3206 
   -3361    -3469    -3514    -3515    -3493    -3446    -3375    -3267 
   -3096    -2899    -2722    -2560    -2405    -2273    -2147    -1991 
   -1813    -1640    -1452    -1244    -1062     -912     -768     -627 
    -518     -461     -472     -537     -610     -668     -710     -724 
    -696     -639     -600     -595     -606     -625     -662     -699 
    -718     -750     -804     -866     -950    -1055    -1158    -1264 
   -1378    -1486    -1588    -1679    -1753    -1826    -1904    -1985 
   -2049    -2087    -2120    -2145    -2135    -2111    -2096    -2083 
   -2069    -2074    -2103    -2128    -2153    -2193    -2236    -2270 
   -2311    -2350    -2369    -2381    -2381    -2342    -2278    -2199 
   -2096    -1992    -1911    -1841    -1777    -1729    -1699    -1675 
   -1640    -1586    -1516    -1426    -1324    -1200    -1044     -877 
    -719     -577     -457     -360     -288     -243     -226     -232 
    -257     -318     -436     -589     -737     -866     -988    -1096 
   -1200    -1329    -1485    -1641    -1790    -1933    -2079    -2239 
   -2421    -2631    -2866    -3123    -3376    -3578    -3735    -3879 
   -4017    -4153    -4291    -4406    -4473    -4500    -4475    -4399 
   -4302    -4198    -4099    -4002    -3877    -3721    -3558    -3384 
   -3188    -2987    -2789    -2586    -2374    -2142    -1876    -1578 
   -1267     -959     -660     -351      -14      336      680      997 
    1281     1509     1668     1776     1842     1871     1869     1857 
    1841     1827     1827     1804     1721     1586     1405     1166 
     886      596      299       -6     -314     -661    -1061    -1464 
   -1840    -2219    -2596    -2929    -3242    -3532    -3765    -3955 
   -4137    -4298    -4396    -4426    -4407    -4368    -4318    -4240 
   -4143    -4021    -3886    -3758    -3604    -3396    -3150    -2863 
   -2501    -2079    -1664    -1293     -980     -738     -557     -422 
    -333     -271     -197     -125      -91      -83      -97     -145 
    -218     -295     -387     -500     -619     -751     -893    -1007 
   -1089    -1166    -1219    -1213    -1178    -1163    -1179    -1215 
   -1260    -1317    -1391    -1483    -1588    -1691    -1768    -1825 
   -1877    -1908    -1910    -1918    -1950    -1999    -2062    -2127 
   -2185    -2238    -2293    -2359    -2427    -2494    -2544    -2560 
   -2548    -2513    -2451    -2373    -2307    -2241    -2150    -2043 
   -1923    -1782    -1637    -1506    -1377    -1248    -1162    -1104 
   -1034     -953     -857     -741     -623     -530     -456     -390 
    -328     -279     -270     -287     -314     -364     -448     -562 
    -695     -823     -954    -1115    -1312    -1536    -1775    -2010 
   -2227    -2427    -2604    -2760    -2895    -3033    -3184    -3319 
   -3433    -3541    -3636    -3686    -3707    -3726    -3743    -3757 
   -3742    -3663    -3549    -3431    -3291    -3109    -2911    -2702 
   -2451    -2187    -1937    -1680    -1418    -1197    -1020     -869 
    -751     -675     -608     -518     -429     -357     -280     -220 
    -203     -218     -265     -353     -475     -623     -808    -1034 
   -1279    -1532    -1810    -2104    -2390    -2655    -2897    -3115 
   -3316    -3514    -3703    -3852    -3960    -4037    -4071    -4059 
   -4028    -3982    -3921    -3866    -3801    -3692    -3555    -3412 
   -3237    -3036    -2835    -2625    -2386    -2143    -1926    -1733 
   -1566    -1445    -1355    -1248    -1139    -1054     -959     -843 
    -747     -684     -648     -662     -699     -708     -724     -783 
    -861     -928     -950     -955    -1038    -1163    -1225    -1328 
   -1543    -1726    -1872    -2079    -2273    -2431    -2589    -2716 
   -2853    -2995    -3075    -3132    -3187    -3204    -3167    -3105 
   -3037    -2925    -2791    -2663    -2505    -2331    -2166    -1985 
   -1784    -1576    -1343    -1075     -812     -537     -224       95 
     388      665      912     1096     1221     1305     1355     1368 
    1345     1296     1204     1075      946      816      657      472 
     272       54     -147     -306     -457     -635     -814     -954 
   -1098    -1293    -1490    -1657    -1817    -1987    -2150    -2303 
   -2442    -2527    -2566    -2592    -2578    -2506    -2393    -2253 
   -2097    -1964    -1861    -1756    -1652    -1561    -1460    -1335 
   -1200    -1050     -866     -664     -468     -295     -136       18 
     128      152      125       83       44      -12     -103     -209 
    -315     -445     -607     -777     -942    -1107    -1277    -1421 
   -1521    -1607    -1664    -1660    -1641    -1632    -1628    -1640 
   -1676    -1698    -1714    -1772    -1830    -1841    -1838    -1842 
   -1831    -1795    -1746    -1695    -1647    -1609    -1578    -1534 
   -1483    -1431    -1363    -1289    -1225    -1161    -1097    -1050 
   -1024    -1017    -1020    -1031    -1063    -1115    -1186    -1271 
   -1351    -1429    -1522    -1637    -1767    -1900    -2029    -2168 
   -2335    -2527    -2733    -2934    -3118    -3307    -3485    -3616 
   -3727    -3831    -3892    -3917    -3925    -3892    -3827    -3759 
   -3665    -3546    -3435    -3335    -3230    -3107    -2975    -2832 
   -2671    -2494    -2300    -2085    -1869    -1675    -1505    -1363 
   -1242    -1125    -1009     -900     -801     -700     -610     -558 
    -549     -569     -610     -664     -722     -780     -864     -955 
   -1031    -1116    -1220    -1325    -1447    -1603    -1771    -1946 
   -2149    -2353    -2521    -2664    -2818    -2967    -3079    -3167 
   -3226    -3249    -3280    -3325    -3316    -3260    -3207    -3163 
   -3095    -2963    -2754    -2509    -2269    -2030    -1790    -1548 
   -1310    -1098     -909     -746     -615     -507     -421     -341 
    -249     -147      -28      103      228      307      333      301 
     202       39     -166     -373     -577     -795    -1003    -1178 
   -1348    -1518    -1644    -1730    -1818    -1904    -1992    -2127 
   -2317    -2536    -2775    -3025    -3256    -3460    -3632    -3777 
   -3910    -4040    -4132    -4166    -4153    -4086    -3956    -3784 
   -3592    -3373    -3126    -2882    -2658    -2428    -2184    -1942 
   -1701    -1424    -1124     -837     -546     -243       49      332 
     633      936     1223     1503     1777     1995     2127     2209 
    2261     2259     2223     2170     2069     1906     1726     1525 
    1259      963      653      313      -33     -392     -780    -1181 
   -1583    -1988    -2384    -2740    -3053    -3356    -3643    -3878 
   -4081    -4266    -4407    -4509    -4583    -4612    -4584    -4527 
   -4461    -4371    -4264    -4155    -4044    -3920    -3788    -3674 
   -3550    -3408    -3276    -3145    -2987    -2805    -2616    -2423 
   -2238    -2065    -1884    -1702    -1530    -1355    -1165     -977 
    -797     -615     -433     -248      -71       72      183      260 
     310      340      338      315      287      251      190       93 
     -48     -225     -422     -637     -877    -1156    -1459    -1772 
   -2080    -2378    -2681    -2970    -3221    -3437    -3627    -3805 
   -3962    -4087    -4212    -4333    -4419    -4456    -4445    -4391 
   -4293    -4163    -4018    -3844    -3645    -3420    -3148    -2849 
   -2596    -2358    -2029    -1620    -1251     -945     -606     -209 
     147      457      774     1061     1316     1552     1759     1937 
    2025     2016     1961     1842     1653     1389     1062      724 
     372      -29     -472     -939    -1409    -1858    -2299    -2720 
   -3094    -3429    -3740    -4032    -4297    -4526    -4706    -4797 
   -4795    -4730    -4610    -4428    -4195    -3920    -3605    -3238 
   -2825    -2403    -1991    -1620    -1300    -1000     -724     -487 
    -288     -129       -2       79      116      105       24      -89 
    -211     -367     -540     -704     -862    -1024    -1177    -1310 
   -1444    -1578    -1702    -1833    -1981    -2114    -2223    -2317 
   -2371    -2378    -2353    -2286    -2172    -2018    -1850    -1653 
   -1424    -1202    -1000     -803     -634     -517     -418     -328 
    -286     -292     -307     -337     -418     -542     -696     -889 
   -1102    -1318    -1559    -1830    -2093    -2336    -2581    -2820 
   -3034    -3234    -3439    -3643    -3829    -4010    -4178    -4303 
   -4371    -4372    -4302    -4182    -4014    -3785    -3497    -3188 
   -2879    -2567    -2262    -1969    -1682    -1379    -1065     -738 
    -394      -67      207      453      684      886     1055     1197 
    1290     1331     1337     1316     1262     1188     1101     1001 
     884      727      531      315       70     -220     -527     -824 
   -1101    -1363    -1622    -1860    -2041    -2189    -2343    -2496 
   -2637    -2787    -2953    -3114    -3269    -3431    -3580    -3713 
   -3827    -3912    -3990    -4047    -4051    -4032    -4021    -3994 
   -3936    -3858    -3740    -3584    -3406    -3218    -3024    -2798 
   -2544    -2303    -2074    -1849    -1644    -1470    -1296    -1125 
    -982     -843     -692     -564     -467     -364     -270     -209 
    -163     -135     -147     -195     -261     -353     -460     -545 
    -625     -711     -774     -812     -865     -942    -1017    -1117 
   -1274    -1447    -1602    -1763    -1942    -2110    -2265    -2420 
   -2559    -2702    -2898    -3110    -3241    -3284    -3307    -3325 
   -3277    -3145    -2983    -2820    -2613    -2371    -2116    -1823 
   -1520    -1225     -938     -687     -448     -220      -55       67 
     202      337      441      535      646      733      778      788 
     743      645      498      303       71     -199     -496     -824 
   -1197    -1582    -1938    -2259    -2539    -2781    -2987    -3177 
   -3365    -3507    -3588    -3642    -3673    -3661    -3622    -3573 
   -3514    -3445    -3352    -3222    -3082    -2944    -2793    -2625 
   -2446    -2259    -2058    -1846    -1644    -1467    -1313    -1202 
   -1148    -1119    -1102    -1128    -1188    -1273    -1395    -1543 
   -1684    -1819    -1954    -2069    -2158    -2231    -2286    -2331 
   -2377    -2404    -2398    -2377    -2332    -2259    -2176    -2087 
   -1983    -1850    -1706    -1567    -1402    -1201    -1004     -837 
    -681     -521     -371     -240     -139      -75      -27        5 
      -5      -55     -108     -176     -298     -448     -612     -803 
   -1011    -1232    -1463    -1696    -1915    -2104    -2266    -2428 
   -2596    -2755    -2918    -3088    -3246    -3380    -3480    -3530 
   -3538    -3523    -3470    -3365    -3227    -3063    -2879    -2695 
   -2505    -2292    -2068    -1842    -1610    -1386    -1193    -1015 
    -839     -665     -492     -314     -124       55      201      326 
     442      554      676      796      889      967     1021     1007 
     927      819      677      488      256        0     -290     -619 
    -958    -1293    -1636    -1983    -2311    -2624    -2940    -3242 
   -3499    -3712    -3935    -4190    -4422    -4550    -4615    -4747 
   -4891    -4901    -4838    -4787    -4695    -4538    -4359    -4168 
   -3939    -3654    -3364    -3084    -2768    -2444    -2158    -1883 
   -1603    -1352    -1119     -862     -591     -329      -59      207 
     444      650      831      984     1085     1127     1119     1066 
     974      831      608      336       85     -140     -407     -715 
   -1009    -1277    -1536    -1790    -2031    -2251    -2435    -2596 
   -2764    -2930    -3059    -3146    -3202    -3218    -3203    -3163 
   -3090    -2972    -2829    -2683    -2513    -2300    -2080    -1876 
   -1674    -1471    -1263    -1054     -861     -687     -533     -405 
    -284     -153      -27       62      113      170      252      292 
     263      234      216      162       76      -35     -182     -336 
    -495     -680     -880    -1096    -1328    -1568    -1817    -2068 
   -2307    -2523    -2718    -2905    -3059    -3172    -3279    -3368 
   -3420    -3454    -3481    -3481    -3450    -3400    -3329    -3222 
   -3076    -2909    -2717    -2471    -2192    -1930    -1684    -1406 
