Origin Time       2025/01/13 21:19:00
Lat.              31.8
Long.             131.6
Depth. (km)       30
Mag.              6.9
Station Code      YMG008
Station Lat.      34.0119
Station Long.     131.4099
Station Height(m) 5
Record Time       2025/01/13 21:20:45
Sampling Freq(Hz) 100Hz
Duration Time(s)  60
Dir.              N-S
Scale Factor      7845(gal)/8223790
Max. Acc. (gal)   1.516
Last Correction   2025/01/13 21:20:44
Memo.             
[...]
    -627     -630     -607     -567     -526     -540     -614     -700 
    -784     -884     -980    -1023     -990     -903     -796     -702 
    -616     -538     -511     -545     -608     -706     -837     -963 
   -1050    -1082    -1063    -1008     -915     -785     -643     -548 
    -531     -572     -627     -662     -688     -723     -733     -704 
    -685     -665     -591     -453     -310     -226     -206     -195 
    -175     -182     -221     -256     -275     -298     -317     -294 
    -228     -164     -152     -209     -315     -441     -540     -573 
    -580     -635     -734     -789     -764     -677     -549     -399 
    -241      -97      -28      -48      -93     -136     -225     -373 
    -541     -675     -719     -692     -642     -562     -476     -436 
    -441     -476     -542     -611     -656     -685     -697     -658 
    -572     -483     -423     -400     -375     -306     -238     -233 
    -272     -336     -433     -544     -652     -756     -822     -837 
    -845     -851     -814     -761     -739     -737     -760     -828 
    -932    -1031    -1074    -1051    -1008     -957     -866     -765 
    -710     -675     -598     -481     -400     -425     -538     -654 
    -739     -839     -972    -1109    -1215    -1266    -1273    -1246 
   -1165    -1043     -950     -912     -877     -791     -669     -561 
    -504     -503     -511     -502     -503     -534     -588     -669 
    -792     -945    -1086    -1171    -1182    -1147    -1078     -977 
    -876     -768     -611     -440     -307     -238     -256     -332 
    -421     -546     -724     -908    -1061    -1192    -1282    -1281 
   -1178    -1027     -888     -768     -641     -540     -531     -591 
    -658     -724     -818     -942    -1048    -1086    -1055     -985 
    -884     -749     -619     -533     -459     -372     -311     -291 
    -311     -372     -438     -499     -581     -685     -785     -864 
    -895     -857     -764     -631     -480     -345     -243     -155 
    -102     -103     -143     -214     -328     -456     -571     -664 
    -712     -731     -756     -746     -672     -584     -517     -463 
    -437     -442     -463     -494     -508     -486     -459     -467 
    -504     -549     -595     -642     -697     -772     -850     -918 
    -985    -1040    -1080    -1105    -1078    -1011     -959     -912 
    -826     -710     -583     -460     -376     -363     -403     -483 
    -595     -726     -866     -992    -1053    -1020     -913     -768 
    -616     -481     -369     -326     -383     -464     -519     -591 
    -697     -816     -923     -981     -965     -864     -681     -464 
    -272     -148     -105     -139     -243     -411     -641     -874 
   -1031    -1098    -1096    -1001     -824     -616     -406     -234 
    -152     -153     -205     -303     -434     -557     -652     -714 
    -718     -661     -572     -467     -368     -291     -243     -245 
    -294     -353     -426     -523     -621     -715     -810     -873 
    -893     -904     -900     -865     -818     -760     -689     -608 
    -515     -461     -502     -591     -656     -687     -712     -729 
    -729     -718     -680     -598     -477     -360     -297     -301 
    -353     -454     -581     -675     -731     -799     -872     -912 
    -915     -889     -834     -764     -692     -621     -553     -483 
    -410     -364     -349     -355     -406     -523     -658     -774 
    -908    -1071    -1223    -1337    -1420    -1463    -1443    -1344 
   -1188     -999     -788     -595     -460     -392     -402     -506 
    -677     -851     -980    -1061    -1093    -1078    -1027     -940 
    -846     -765     -699     -654     -629     -602     -583     -569 
    -571     -618     -730     -862     -951     -972     -932     -855 
    -774     -719     -696     -685     -660     -633     -630     -645 
    -685     -772     -876     -945     -954     -922     -859     -758 
    -633     -507     -398     -322     -297     -342     -446     -540 
    -580     -588     -589     -594     -592     -540     -414     -241 
     -37      175      314      311      197        1     -251     -496 
    -689     -826     -904     -916     -849     -707     -526     -346 
    -191      -67       -6      -33     -145     -336     -571     -804 
   -1019    -1177    -1236    -1190    -1055     -854     -641     -465 
    -342     -302     -376     -519     -652     -758     -850     -920 
    -969     -980     -935     -862     -795     -745     -723     -724 
    -724     -715     -691     -618     -515     -436     -399     -409 
    -457     -510     -567     -645     -700     -695     -675     -656 
    -595     -517     -477     -494     -540     -557     -535     -550 
    -633     -764     -943    -1143    -1294    -1367    -1368    -1298 
   -1181    -1067     -990     -936     -892     -859     -846     -872 
    -931    -1007    -1105    -1213    -1306    -1382    -1398    -1316 
   -1162     -984     -799     -634     -527     -479     -445     -411 
    -398     -417     -453     -488     -522     -549     -550     -533 
    -503     -450     -379     -311     -233     -162     -167     -248 
    -328     -400     -491     -580     -649     -693     -729     -756 
    -730     -626     -490     -379     -301     -272     -329     -440 
    -545     -625     -672     -692     -699     -691     -673     -639 
    -568     -475     -421     -436     -483     -529     -565     -599 
    -665     -774     -873     -927     -935     -864     -699     -483 
    -274     -129      -85     -130     -244     -396     -548     -657 
    -707     -677     -576     -456     -318     -135       52      184 
     247      249      203       94      -89     -299     -472     -596 
    -688     -737     -742     -756     -788     -807     -822     -838 
    -823     -765     -681     -600     -544     -506     -488     -496 
    -537     -626     -776     -962    -1138    -1301    -1463    -1561 
   -1545    -1447    -1308    -1146     -958     -760     -602     -523 
    -508     -550     -672     -828     -943    -1000    -1012     -984 
    -922     -818     -672     -545     -490     -506     -572     -668 
    -764     -818     -796     -702     -594     -535     -517     -514 
    -541     -558     -538     -522     -527     -534     -530     -499 
    -430     -338     -243     -174     -167     -197     -220     -241 
    -294     -373     -457     -546     -657     -785     -889     -919 
    -884     -820     -731     -619     -531     -491     -472     -477 
    -513     -541     -544     -554     -588     -626     -625     -562 
    -472     -418     -417     -452     -519     -596     -672     -766 
    -857     -893     -881     -835     -757     -666     -579     -499 
    -440     -421     -449     -531     -656     -773     -858     -912 
    -912     -872     -819     -727     -608     -534     -507     -511 
    -561     -642     -727     -816     -908     -988    -1050    -1061 
    -981     -832     -664     -523     -468     -488     -527     -583 
    -689     -826     -945    -1026    -1058    -1046    -1003     -939 
    -878     -839     -826     -832     -846     -850     -858     -897 
    -939     -919     -820     -683     -567     -513     -526     -588 
    -692     -834     -973    -1067    -1120    -1127    -1071     -963 
    -807     -646     -556     -535     -531     -541     -572     -603 
    -634     -680     -745     -837     -927     -982    -1011     -989 
    -908     -841     -838     -889     -993    -1121    -1228    -1289 
   -1266    -1124     -895     -666     -500     -387     -292     -225 
    -238     -348     -479     -569     -619     -631     -610     -581 
    -560     -541     -534     -534     -500     -421     -322     -247 
    -229     -265     -279     -247     -214     -211     -220     -222 
    -238     -302     -386     -422     -402     -363     -314     -226 
    -101       21      105      116       36     -112     -275     -417 
    -542     -666     -777     -837     -828     -766     -656     -530 
    -461     -479     -567     -714     -891    -1050    -1161    -1198 
   -1151    -1031     -876     -719     -579     -450     -325     -236 
    -232     -303     -417     -562     -729     -891    -1007    -1043 
   -1008     -934     -845     -765     -712     -657     -569     -471 
    -375     -284     -236     -253     -311     -399     -523     -666 
    -820     -966    -1058    -1096    -1117    -1124    -1102    -1062 
   -1012     -980     -984    -1017    -1081    -1170    -1244    -1278 
   -1294    -1285    -1213    -1085     -926     -743     -560     -409 
    -305     -274     -333     -448     -587     -741     -888    -1016 
   -1127    -1192    -1202    -1173    -1078     -913     -735     -596 
    -500     -453     -450     -471     -510     -560     -595     -621 
    -649     -685     -751     -837     -907     -972    -1034    -1036 
    -955     -854     -780     -708     -611     -496     -398     -340 
    -310     -328     -442     -630     -810     -949    -1038    -1055 
   -1009     -924     -788     -612     -438     -276     -140      -59 
     -31      -40      -70     -110     -175     -284     -413     -531 
    -649     -756     -811     -827     -846     -850     -819     -781 
    -762     -780     -845     -934    -1035    -1156    -1285    -1401 
   -1501    -1571    -1587    -1541    -1441    -1321    -1204    -1062 
    -891     -745     -637     -529     -430     -378     -379     -414 
    -467     -541     -648     -774     -877     -926     -927     -868 
    -734     -556     -384     -264     -205     -190     -236     -351 
    -498     -634     -727     -762     -741     -683     -603     -491 
    -364     -259     -179     -132     -149     -216     -305     -403 
    -481     -529     -561     -592     -638     -695     -699     -618 
    -507     -411     -324     -251     -211     -248     -372     -540 
    -720     -919    -1107    -1231    -1256    -1166     -969     -729 
    -511     -333     -189     -108     -126     -245     -421     -614 
    -810     -988    -1086    -1081    -1001     -876     -731     -598 
    -488     -409     -367     -371     -414     -504     -626     -747 
    -868     -977    -1046    -1081    -1086    -1034     -903     -714 
    -515     -330     -156        9      149      218      191       86 
     -76     -260     -425     -556     -629     -627     -580     -486 
    -324     -102      144      382      552      612      571      414 
     114     -283     -703    -1088    -1383    -1541    -1557    -1439 
   -1210     -911     -575     -260      -58        0      -74     -294 
    -631    -1004    -1359    -1660    -1881    -2038    -2091    -1979 
   -1723    -1391    -1039     -722     -483     -361     -379     -499 
    -643     -787     -936    -1070    -1155    -1175    -1112     -974 
    -810     -648     -499     -383     -329     -341     -396     -449 
    -459     -442     -450     -500     -577     -649     -677     -672 
    -672     -661     -623     -588     -561     -502     -407     -325 
    -294     -332     -432     -561     -706     -837     -893     -889 
    -877     -864     -855     -870     -889     -908     -953    -1007 
   -1031    -1031     -994     -926     -874     -855     -843     -838 
    -837     -835     -845     -850     -822     -753     -656     -545 
    -438     -344     -268     -226     -225     -248     -299     -379 
    -460     -519     -550     -550     -523     -471     -387     -287 
    -206     -160     -157     -238     -387     -533     -673     -835 
   -1005    -1158    -1267    -1308    -1277    -1169     -994     -778 
    -541     -310     -112       27       90       78      -33     -257 
    -544     -830    -1055    -1177    -1200    -1116     -922     -679 
    -460     -292     -217     -267     -423     -652     -916    -1170 
   -1389    -1532    -1541    -1413    -1189     -899     -589     -322 
    -132      -31      -28     -116     -264     -433     -564     -621 
    -625     -583     -500     -433     -399     -380     -373     -365 
    -333     -306     -322     -372     -442     -517     -567     -602 
    -664     -730     -768     -793     -799     -760     -679     -541 
    -356     -182      -68      -37      -89     -184     -278     -356 
    -410     -429     -429     -441     -444     -418     -396     -407 
    -432     -426     -379     -333     -317     -302     -257     -203 
    -184     -210     -244     -229     -157      -89      -54      -52 
    -105     -220     -346     -456     -571     -712     -859     -985 
   -1055    -1078    -1097    -1108    -1077    -1003     -899     -785 
    -685     -595     -529     -540     -630     -737     -788     -756 
    -660     -561     -503     -453     -387     -337     -314     -342 
    -436     -554     -684     -797     -828     -773     -688     -626 
    -589     -561     -538     -527     -538     -581     -645     -710 
    -762     -774     -751     -708     -648     -618     -654     -687 
    -654     -602     -554     -503     -480     -517     -585     -641 
    -643     -579     -464     -329     -213     -175     -229     -321 
    -415     -508     -584     -652     -749     -892    -1074    -1250 
   -1328    -1283    -1171    -1026     -850     -670     -491     -315 
    -211     -259     -492     -895    -1363    -1768    -2060    -2222 
   -2245    -2173    -2025    -1783    -1493    -1220     -989     -819 
    -738     -760     -868    -1028    -1210    -1395    -1563    -1690 
   -1787    -1875    -1911    -1856    -1749    -1651    -1588    -1571 
   -1561    -1522    -1459    -1395    -1347    -1321    -1304    -1275 
   -1243    -1197    -1098     -938     -765     -603     -454     -322 
    -201     -113      -85      -94     -116     -152     -186     -183 
    -132      -48       32       95      184      349      560      739 
     847      870      791      627      423      222       63      -52 
    -151     -224     -264     -284     -253     -122       99      355 
     575      722      784      762      666      511      307       55 
    -236     -511     -715     -843     -892     -862     -774     -611 
    -363      -78      193      400      464      371      174      -78 
    -340     -542     -668     -738     -758     -730     -648     -514 
    -382     -290     -236     -251     -365     -540     -735     -942 
   -1134    -1306    -1487    -1668    -1827    -1939    -1976    -1945 
   -1890    -1826    -1740    -1640    -1556    -1487    -1422    -1371 
   -1358    -1414    -1543    -1703    -1861    -2014    -2141    -2212 
   -2223    -2160    -2020    -1821    -1578    -1329    -1156    -1089 
   -1081    -1108    -1175    -1237    -1247    -1204    -1108     -965 
    -793     -604     -427     -307     -248     -218     -206     -198 
    -172     -120      -47       20       21      -47     -126     -193 
    -248     -268     -251     -201     -145     -122     -132     -140 
    -139     -135     -136     -183     -315     -511     -706     -881 
   -1019    -1085    -1067     -969     -800     -603     -434     -356 
    -396     -531     -729     -947    -1125    -1243    -1318    -1343 
   -1318    -1291    -1285    -1256    -1173    -1071    -1000     -974 
    -977     -992    -1013    -1032    -1031     -989     -923     -843 
    -737     -621     -526     -459     -429     -441     -495     -589 
    -704     -819     -927    -1024    -1097    -1102    -1028     -908 
    -773     -645     -554     -530     -558     -552     -472     -387 
    -333     -283     -225     -175     -147     -133     -120      -75 
      24      155      279      356      363      325      259      152 
      28      -63      -94      -63        2       74      140      206 
     261      314      368      390      341      203      -20     -278 
    -523     -745     -909     -961     -900     -765     -587     -407 
    -255     -149     -105     -108     -109     -108     -149     -222 
    -313     -427     -544     -611     -602     -521     -430     -394 
    -414     -473     -584     -745     -915    -1062    -1174    -1227 
   -1246    -1263    -1282    -1336    -1462    -1640    -1819    -1945 
   -1996    -1983    -1931    -1850    -1714    -1510    -1264    -1026 
    -843     -715     -623     -612     -699     -819     -924    -1016 
   -1088    -1115    -1084     -997     -873     -746     -661     -656 
    -719     -801     -877     -945     -993    -1012    -1003     -949 
    -839     -689     -503     -292     -102       47      145      136 
      13     -148     -314     -491     -648     -729     -708     -595 
    -434     -286     -159      -36       59       85       32      -71 
    -190     -317     -457     -579     -653     -706     -762     -819 
    -869     -876     -803     -689     -577     -461     -359     -307 
    -301     -294     -295     -338     -445     -623     -823     -978 
   -1058    -1040     -940     -810     -687     -602     -577     -612 
    -702     -859    -1067    -1273    -1485    -1687    -1811    -1836 
   -1791    -1698    -1579    -1452    -1328    -1231    -1194    -1223 
   -1277    -1321    -1345    -1351    -1352    -1335    -1258    -1127 
    -969     -788     -592     -399     -226     -112      -68      -70 
    -103     -191     -330     -498     -666     -795     -858     -874 
    -853     -808     -776     -773     -796     -843     -900     -963 
   -1062    -1202    -1336    -1414    -1440    -1420    -1350    -1243 
   -1108     -938     -754     -603     -504     -449     -445     -504 
    -630     -770     -861     -896     -882     -799     -643     -456 
    -261      -83       62      159      162       51     -149     -414 
    -716    -1015    -1266    -1444    -1536    -1534    -1462    -1331 
   -1161    -1000     -842     -664     -496     -359     -238     -140 
     -71      -49      -85     -160     -243     -311     -371     -415 
    -427     -395     -298     -122       75      225      307      328 
     275      155      -17     -232     -449     -634     -787     -889 
    -911     -830     -645     -376      -70      211      415      507 
     460      279       13     -279     -542     -745     -881     -928 
    -847     -650     -384      -74      238      467      554      514 
     356      116     -144     -411     -677     -881     -966     -912 
    -737     -492     -253      -75        1      -36     -153     -311 
    -513     -745     -958    -1143    -1283    -1331    -1275    -1143 
    -959     -766     -606     -473     -342     -228     -140      -85 
    -106     -234     -421     -603     -756     -861     -913     -932 
    -922     -893     -872     -851     -826     -827     -845     -868 
    -934    -1062    -1209    -1355    -1479    -1533    -1493    -1379 
   -1204     -970     -718     -483     -297     -186     -145     -166 
    -267     -467     -723     -957    -1119    -1200    -1210    -1152 
   -1005     -792     -600     -473     -405     -400     -473     -611 
    -785     -969    -1155    -1341    -1514    -1632    -1637    -1543 
   -1408    -1275    -1179    -1121    -1073    -1021     -959     -870 
    -742     -598     -465     -348     -276     -275     -309     -368 
