Origin Time       2025/01/13 21:19:00
Lat.              31.8
Long.             131.6
Depth. (km)       30
Mag.              6.9
Station Code      YMG010
Station Lat.      34.2303
Station Long.     131.9819
Station Height(m) 61
Record Time       2025/01/13 21:20:52
Sampling Freq(Hz) 100Hz
Duration Time(s)  60
Dir.              U-D
Scale Factor      7845(gal)/8223790
Max. Acc. (gal)   1.006
Last Correction   2025/01/13 21:20:52
Memo.             
[...]
  -10023   -10026    -9961    -9913    -9967   -10056   -10061    -9987 
   -9944   -10000   -10095   -10102   -10029   -10011   -10075   -10112 
  -10080   -10042   -10069   -10146   -10169   -10068    -9915    -9872 
   -9961   -10045   -10021    -9936    -9902    -9954   -10007    -9981 
   -9917    -9884    -9890    -9883    -9830    -9768    -9774    -9853 
   -9937    -9980   -10015   -10095   -10199   -10257   -10235   -10173 
  -10142   -10173   -10219   -10226   -10191   -10158   -10145   -10104 
  -10018    -9946    -9929    -9906    -9823    -9749    -9783    -9892 
   -9957    -9967   -10017   -10123   -10187   -10176   -10149   -10134 
  -10098   -10019    -9942    -9919    -9954    -9998   -10007   -10000 
  -10021   -10087   -10168   -10219   -10265   -10361   -10476   -10507 
  -10440   -10389   -10413   -10431   -10345   -10206   -10127   -10123 
  -10114   -10054    -9979    -9953   -10003   -10068   -10071   -10031 
  -10057   -10173   -10276   -10258   -10153   -10106   -10173   -10243 
  -10216   -10158   -10193   -10334   -10454   -10411   -10230   -10088 
  -10065   -10037    -9906    -9753    -9711    -9769    -9784    -9702 
   -9649    -9741    -9914   -10022   -10021    -9995   -10035   -10116 
  -10150   -10139   -10153   -10193   -10210   -10183   -10134   -10085 
  -10021    -9946    -9929    -9994   -10061   -10077   -10083   -10127 
  -10179   -10180   -10145   -10149   -10200   -10219   -10201   -10231 
  -10339   -10453   -10473   -10389   -10284   -10237   -10241   -10220 
  -10141   -10053   -10029   -10066   -10103   -10093   -10056   -10037 
  -10041   -10021    -9972    -9952    -9984   -10019   -10031   -10034 
  -10034   -10044   -10068   -10093   -10108   -10126   -10147   -10152 
  -10135   -10112   -10075   -10034   -10030   -10050   -10033    -9937 
   -9811    -9755    -9788    -9834    -9842    -9848    -9902    -9995 
  -10053   -10025    -9958    -9933    -9969   -10019   -10015    -9975 
   -9990   -10058   -10099   -10098   -10108   -10142   -10145   -10085 
  -10033   -10053   -10104   -10126   -10125   -10133   -10174   -10228 
  -10241   -10203   -10164   -10165   -10187   -10160   -10068    -9996 
  -10008   -10060   -10092   -10129   -10199   -10277   -10312   -10304 
  -10282   -10246   -10188   -10152   -10169   -10185   -10161   -10139 
  -10147   -10153   -10133   -10108   -10093   -10081   -10071   -10072 
  -10092   -10127   -10160   -10181   -10166   -10099   -10026   -10011 
  -10042   -10061   -10069   -10110   -10170   -10199   -10207   -10257 
  -10343   -10377   -10314   -10223   -10193   -10235   -10288   -10280 
  -10210   -10133   -10077   -10042   -10019   -10010   -10035   -10083 
  -10095   -10050   -10012   -10037   -10075   -10035    -9929    -9871 
   -9929   -10029   -10060   -10012    -9964    -9954    -9979   -10027 
  -10081   -10133   -10206   -10288   -10308   -10247   -10187   -10158 
  -10096    -9996    -9934    -9936    -9979   -10039   -10089   -10107 
  -10098   -10098   -10129   -10177   -10235   -10314   -10385   -10377 
  -10299   -10272   -10366   -10484   -10503   -10473   -10508   -10574 
  -10586   -10570   -10575   -10573   -10538   -10489   -10436   -10366 
  -10292   -10257   -10245   -10184   -10079   -10010    -9991    -9950 
   -9863    -9787    -9776    -9806    -9829    -9834    -9850    -9869 
   -9860    -9829    -9802    -9803    -9834    -9860    -9857    -9842 
   -9848    -9892    -9950    -9972    -9950    -9915    -9877    -9863 
   -9884    -9909    -9909    -9886    -9852    -9842    -9860    -9859 
   -9845    -9865    -9910    -9934    -9919    -9882    -9867    -9886 
   -9887    -9856    -9828    -9815    -9811    -9832    -9895    -9957 
   -9976    -9996   -10081   -10196   -10261   -10266   -10254   -10245 
  -10226   -10184   -10160   -10207   -10296   -10346   -10332   -10293 
  -10261   -10239   -10203   -10130   -10042    -9968    -9915    -9910 
   -9946    -9985   -10015   -10041   -10044   -10011    -9967    -9927 
   -9887    -9834    -9783    -9783    -9842    -9894    -9913    -9958 
  -10056   -10141   -10179   -10183   -10166   -10149   -10164   -10172 
  -10116   -10038   -10011   -10031   -10071   -10125   -10164   -10147 
  -10103   -10091   -10115   -10141   -10162   -10199   -10215   -10143 
  -10002    -9890    -9856    -9848    -9803    -9756    -9756    -9779 
   -9779    -9775    -9794    -9822    -9869    -9941    -9995    -9995 
   -9957    -9919    -9915    -9945    -9953    -9930    -9922    -9938 
   -9937    -9914    -9929    -9995   -10035    -9994    -9921    -9890 
   -9900    -9909    -9887    -9875    -9925   -10004   -10044   -10048 
  -10103   -10241   -10370   -10380   -10304   -10273   -10314   -10328 
  -10254   -10143   -10088   -10111   -10154   -10158   -10130   -10123 
  -10152   -10168   -10127   -10039    -9953    -9918    -9967   -10062 
  -10130   -10130   -10083   -10041   -10034   -10033   -10004    -9975 
   -9987   -10030   -10050   -10026    -9994    -9999   -10035   -10039 
   -9968    -9911    -9965   -10080   -10162   -10192   -10184   -10197 
  -10296   -10405   -10412   -10335   -10258   -10227   -10251   -10249 
  -10146   -10045   -10087   -10223   -10292   -10285   -10296   -10353 
  -10416   -10428   -10373   -10316   -10309   -10295   -10211   -10089 
   -9975    -9900    -9887    -9907    -9921    -9946    -9983    -9994 
   -9984   -10010   -10100   -10195   -10207   -10139   -10075   -10087 
  -10160   -10218   -10230   -10222   -10211   -10199   -10173   -10125 
  -10065   -10027   -10022   -10025   -10011    -9998   -10012   -10058 
  -10100   -10107   -10092   -10081   -10085   -10093   -10104   -10133 
  -10164   -10149   -10098   -10072   -10071   -10034    -9980    -9980 
  -10021   -10035   -10046   -10123   -10245   -10324   -10339   -10354 
  -10405   -10436   -10403   -10346   -10323   -10324   -10318   -10296 
  -10266   -10230   -10187   -10133   -10062   -10011   -10015   -10065 
  -10129   -10195   -10268   -10338   -10378   -10368   -10320   -10266 
  -10216   -10169   -10147   -10146   -10137   -10127   -10147   -10176 
  -10162   -10102   -10037    -9985    -9923    -9855    -9845    -9927 
  -10039   -10066   -10010    -9994   -10077   -10170   -10172   -10100 
  -10065   -10118   -10179   -10158   -10081    -9998    -9926    -9890 
   -9887    -9886    -9894    -9949   -10053   -10143   -10146   -10085 
  -10062   -10115   -10185   -10206   -10176   -10156   -10179   -10208 
  -10196   -10145   -10135   -10215   -10295   -10291   -10243   -10247 
  -10328   -10435   -10488   -10478   -10463   -10481   -10509   -10492 
  -10404   -10326   -10336   -10395   -10399   -10309   -10207   -10183 
  -10211   -10208   -10169   -10138   -10139   -10174   -10212   -10211 
  -10168   -10130   -10135   -10157   -10173   -10219   -10264   -10241 
  -10192   -10195   -10231   -10227   -10166   -10098   -10062   -10057 
  -10048   -10033   -10039   -10053   -10045   -10033   -10008    -9936 
   -9842    -9795    -9792    -9791    -9784    -9805    -9867    -9930 
   -9950    -9945    -9964    -9992    -9985    -9968    -9995   -10045 
  -10066   -10081   -10130   -10191   -10230   -10251   -10284   -10343 
  -10404   -10416   -10386   -10381   -10409   -10417   -10399   -10408 
  -10467   -10527   -10520   -10426   -10296   -10208   -10191   -10191 
  -10166   -10169   -10242   -10334   -10384   -10405   -10392   -10320 
  -10253   -10269   -10331   -10322   -10220   -10168   -10266   -10434 
  -10523   -10500   -10440   -10438   -10489   -10493   -10409   -10316 
  -10278   -10266   -10246   -10231   -10208   -10145   -10048    -9952 
   -9926   -10023   -10214   -10420   -10577   -10650   -10628   -10555 
  -10496   -10450   -10373   -10269   -10179   -10127   -10130   -10179 
  -10220   -10201   -10143   -10107   -10103   -10080   -10019    -9969 
   -9965    -9983    -9996   -10019   -10050   -10053   -10029   -10014 
  -10018   -10021   -10003    -9956    -9903    -9899    -9973   -10062 
  -10080   -10039   -10021   -10030   -10025    -9999    -9992   -10021 
  -10061   -10091   -10119   -10152   -10169   -10172   -10203   -10260 
  -10261   -10181   -10111   -10134   -10212   -10265   -10251   -10200 
  -10180   -10199   -10180   -10118   -10107   -10158   -10197   -10192 
  -10125    -9967    -9767    -9618    -9552    -9517    -9470    -9428 
   -9429    -9463    -9498    -9528    -9551    -9532    -9472    -9425 
   -9412    -9396    -9358    -9304    -9240    -9182    -9174    -9217 
   -9243    -9236    -9265    -9364    -9477    -9528    -9526    -9576 
   -9732    -9906    -9977    -9942    -9898    -9927   -10004   -10033 
   -9995    -9971   -10015   -10077   -10068    -9985    -9922    -9944 
   -9995   -10004   -10011   -10088   -10210   -10292   -10322   -10362 
  -10455   -10552   -10573   -10524   -10509   -10571   -10640   -10623 
  -10509   -10390   -10363   -10389   -10362   -10278   -10219   -10212 
  -10226   -10237   -10239   -10245   -10264   -10277   -10285   -10312 
  -10354   -10355   -10296   -10215   -10152   -10104   -10025    -9904 
   -9814    -9796    -9786    -9717    -9633    -9617    -9683    -9778 
   -9828    -9805    -9756    -9755    -9802    -9811    -9734    -9657 
   -9693    -9807    -9855    -9779    -9697    -9709    -9778    -9809 
   -9757    -9693    -9721    -9829    -9898    -9868    -9815    -9852 
   -9952    -9990    -9934    -9873    -9857    -9849    -9829    -9809 
   -9794    -9815    -9880    -9936    -9945    -9919    -9891    -9887 
   -9899    -9871    -9798    -9752    -9771    -9806    -9810    -9782 
   -9744    -9736    -9774    -9823    -9845    -9852    -9879    -9926 
   -9956    -9968   -10012   -10138   -10289   -10327   -10218   -10114 
  -10147   -10253   -10293   -10243   -10184   -10211   -10315   -10374 
  -10349   -10328   -10361   -10384   -10358   -10336   -10370   -10411 
  -10389   -10326   -10320   -10388   -10431   -10396   -10319   -10250 
  -10220   -10218   -10219   -10231   -10243   -10207   -10160   -10183 
  -10215   -10152   -10049   -10025   -10076   -10139   -10184   -10215 
  -10237   -10251   -10258   -10246   -10219   -10218   -10266   -10291 
  -10220   -10100   -10033   -10046   -10075   -10042    -9961    -9906 
   -9918    -9952    -9960    -9975   -10029   -10072   -10037    -9930 
   -9828    -9760    -9690    -9607    -9562    -9585    -9666    -9786 
   -9918    -9995    -9963    -9850    -9755    -9737    -9765    -9775 
   -9752    -9722    -9706    -9690    -9651    -9618    -9634    -9698 
   -9787    -9894   -10000   -10089   -10162   -10226   -10261   -10249 
  -10228   -10274   -10390   -10466   -10422   -10341   -10349   -10442 
  -10524   -10575   -10651   -10750   -10813   -10808   -10754   -10683 
  -10608   -10525   -10458   -10446   -10490   -10561   -10631   -10667 
  -10644   -10602   -10586   -10570   -10528   -10501   -10520   -10527 
  -10451   -10324   -10237   -10238   -10280   -10273   -10192   -10115 
  -10110   -10134   -10111   -10038    -9975    -9968   -10017   -10072 
  -10089   -10058   -10007    -9979    -9979    -9980    -9976    -9999 
  -10046   -10048    -9972    -9871    -9810    -9794    -9778    -9729 
   -9678    -9671    -9711    -9753    -9779    -9819    -9877    -9903 
   -9879    -9864    -9911    -9976    -9979    -9933    -9913    -9936 
   -9975   -10011   -10029   -10035   -10035   -10008    -9976    -9971 
   -9964    -9921    -9871    -9833    -9809    -9821    -9872    -9923 
   -9945    -9945    -9972   -10049   -10112   -10081   -10006   -10010 
  -10102   -10156   -10107   -10027   -10023   -10115   -10211   -10231 
  -10234   -10295   -10368   -10376   -10338   -10320   -10339   -10353 
  -10327   -10287   -10253   -10233   -10250   -10307   -10363   -10397 
  -10427   -10482   -10544   -10569   -10542   -10504   -10493   -10498 
  -10500   -10503   -10508   -10500   -10480   -10462   -10434   -10386 
  -10342   -10320   -10328   -10353   -10363   -10346   -10342   -10370 
  -10374   -10316   -10262   -10265   -10273   -10237   -10208   -10226 
  -10234   -10215   -10219   -10245   -10235   -10203   -10207   -10247 
  -10268   -10246   -10222   -10207   -10191   -10169   -10123   -10026 
   -9884    -9764    -9717    -9697    -9649    -9621    -9667    -9757 
   -9805    -9779    -9738    -9760    -9821    -9845    -9819    -9807 
   -9857    -9967   -10085   -10174   -10241   -10305   -10358   -10382 
  -10378   -10361   -10365   -10413   -10478   -10521   -10547   -10581 
  -10627   -10658   -10670   -10690   -10732   -10766   -10758   -10697 
  -10625   -10585   -10551   -10477   -10380   -10299   -10234   -10169 
  -10096   -10018    -9981   -10006   -10056   -10100   -10131   -10146 
  -10147   -10142   -10118   -10061    -9996    -9979   -10003    -9999 
   -9945    -9888    -9859    -9848    -9838    -9833    -9846    -9879 
   -9925    -9992   -10073   -10142   -10161   -10153   -10169   -10208 
  -10211   -10169   -10111   -10053   -10007    -9976    -9952    -9927 
   -9886    -9817    -9775    -9833    -9946    -9990    -9927    -9853 
   -9868    -9946    -9975    -9925    -9894    -9949   -10037   -10062 
  -10007    -9950    -9957    -9991    -9980    -9929    -9898    -9927 
   -9996   -10044   -10048   -10057   -10119   -10211   -10268   -10269 
  -10234   -10183   -10137   -10107   -10066    -9981    -9879    -9833 
   -9859    -9883    -9844    -9772    -9713    -9664    -9598    -9525 
   -9468    -9429    -9398    -9383    -9389    -9394    -9393    -9377 
   -9324    -9235    -9138    -9065    -9038    -9053    -9085    -9139 
   -9231    -9324    -9373    -9375    -9373    -9385    -9385    -9356 
   -9335    -9371    -9423    -9412    -9366    -9375    -9455    -9548 
   -9612    -9652    -9702    -9780    -9891   -10012   -10091   -10116 
  -10125   -10146   -10170   -10177   -10176   -10193   -10223   -10254 
  -10299   -10357   -10395   -10392   -10386   -10423   -10478   -10513 
  -10530   -10534   -10542   -10552   -10552   -10559   -10604   -10659 
  -10667   -10612   -10555   -10561   -10605   -10612   -10571   -10567 
  -10643   -10741   -10798   -10808   -10789   -10759   -10741   -10748 
  -10755   -10712   -10638   -10617   -10659   -10679   -10651   -10609 
  -10597   -10609   -10589   -10519   -10459   -10450   -10457   -10428 
  -10362   -10304   -10296   -10311   -10293   -10231   -10169   -10146 
  -10161   -10197   -10201   -10126   -10015    -9952    -9925    -9859 
   -9765    -9740    -9799    -9867    -9903    -9922    -9957   -10014 
  -10044   -10025   -10008   -10012   -10006    -9975    -9933    -9898 
   -9894    -9941   -10011   -10049   -10046   -10015    -9980    -9958 
   -9940    -9921    -9930    -9961    -9969    -9927    -9887    -9929 
  -10042   -10115   -10122   -10145   -10235   -10346   -10401   -10392 
  -10362   -10347   -10372   -10431   -10480   -10519   -10588   -10669 
  -10720   -10746   -10760   -10771   -10782   -10790   -10778   -10754 
  -10737   -10717   -10689   -10683   -10675   -10592   -10453   -10336 
  -10243   -10133   -10007    -9886    -9794    -9764    -9778    -9765 
   -9714    -9690    -9721    -9774    -9819    -9849    -9875    -9918 
   -9961    -9965    -9925    -9868    -9826    -9815    -9829    -9852 
   -9869    -9863    -9841    -9842    -9892    -9954    -9984    -9981 
   -9976   -10000   -10048   -10073   -10053   -10006    -9958    -9948 
   -9971    -9985    -9984    -9985    -9975    -9933    -9868    -9811 
   -9795    -9805    -9791    -9736    -9668    -9641    -9668    -9718 
   -9733    -9690    -9649    -9656    -9680    -9664    -9580    -9463 
   -9382    -9356    -9350    -9347    -9366    -9409    -9456    -9495 
   -9539    -9586    -9612    -9612    -9625    -9672    -9736    -9790 
   -9807    -9809    -9842    -9900    -9940    -9961    -9964    -9952 
   -9964   -10014   -10057   -10077   -10098   -10146   -10220   -10278 
  -10304   -10327   -10362   -10395   -10399   -10355   -10292   -10266 
  -10265   -10247   -10227   -10212   -10189   -10180   -10197   -10233 
  -10272   -10315   -10359   -10393   -10424   -10471   -10503   -10482 
  -10446   -10438   -10444   -10412   -10323   -10231   -10201   -10206 
  -10172   -10102   -10052   -10025    -9991    -9938    -9888    -9879 
   -9909    -9915    -9863    -9811    -9822    -9859    -9865    -9856 
   -9867    -9894    -9931    -9981   -10026   -10064   -10107   -10143 
  -10166   -10207   -10273   -10318   -10315   -10289   -10272   -10287 
  -10324   -10335   -10292   -10226   -10197   -10214   -10227   -10222 
  -10214   -10210   -10218   -10242   -10278   -10322   -10372   -10411 
  -10427   -10416   -10382   -10368   -10385   -10389   -10347   -10288 
  -10253   -10258   -10273   -10254   -10239   -10296   -10400   -10462 
  -10450   -10405   -10386   -10404   -10419   -10401   -10366   -10349 
  -10355   -10368   -10366   -10335   -10276   -10224   -10203   -10183 
  -10143   -10103   -10060   -10003    -9958    -9952    -9976   -10012 
  -10050   -10088   -10127   -10131   -10076   -10003    -9958    -9915 
   -9834    -9742    -9697    -9675    -9620    -9540    -9474    -9425 
   -9390    -9389    -9423    -9478    -9520    -9510    -9458    -9431 
   -9467    -9517    -9522    -9494    -9505    -9593    -9711    -9801 
   -9875    -9973   -10081   -10152   -10161   -10120   -10069   -10060 
  -10093   -10114   -10087   -10049   -10046   -10068   -10057   -10000 
   -9967    -9990   -10008    -9988    -9975   -10002   -10048   -10069 
  -10038    -9985    -9969    -9988    -9980    -9930    -9895    -9915 
   -9973   -10021   -10027   -10021   -10029   -10033   -10014   -10002 
  -10019   -10060   -10098   -10103   -10065   -10012    -9995   -10035 
  -10112   -10161   -10164   -10164   -10193   -10222   -10206   -10150 
  -10115   -10146   -10207   -10237   -10237   -10241   -10254   -10274 
  -10311   -10354   -10372   -10357   -10351   -10370   -10377   -10349 
  -10311   -10308   -10332   -10320   -10246   -10139   -10052   -10000 
   -9964    -9926    -9904    -9923    -9960    -9975    -9953    -9909 
   -9888    -9915    -9958    -9972    -9965    -9968    -9994   -10026 
  -10039   -10044   -10062   -10093   -10112   -10106   -10076   -10052 
  -10053   -10083   -10112   -10095   -10044   -10022   -10042   -10057 
  -10050   -10049   -10069   -10103   -10137   -10158   -10154   -10118 
  -10066   -10044   -10050   -10044   -10023   -10029   -10044   -10017 
   -9953    -9914    -9921    -9941    -9946    -9954    -9976    -9992 
   -9990    -9992   -10034   -10099   -10145   -10162   -10193   -10258 
  -10320   -10334   -10314   -10324   -10384   -10436   -10440   -10420 
  -10407   -10393   -10377   -10361   -10332   -10303   -10299   -10311 
  -10307   -10284   -10266   -10291   -10346   -10378   -10369   -10358 
  -10368   -10377   -10361   -10330   -10331   -10369   -10374   -10312 
  -10235   -10203   -10212   -10215   -10164   -10084   -10057   -10087 
  -10098   -10056   -10000    -9980   -10000   -10014    -9983    -9934 
   -9914    -9915    -9906    -9875    -9848    -9857    -9902    -9944 
   -9957    -9965    -9994   -10037   -10076   -10085   -10066   -10052 
  -10060   -10072   -10058   -10026   -10033   -10096   -10157   -10169 
  -10162   -10187   -10245   -10276   -10249   -10210   -10208   -10231 
  -10261   -10297   -10346   -10403   -10463   -10524   -10554   -10540 
