Origin Time       2025/01/13 21:19:00
Lat.              31.8
Long.             131.6
Depth. (km)       30
Mag.              6.9
Station Code      YMG003
Station Lat.      34.3830
Station Long.     131.5999
Station Height(m) 289
Record Time       2025/01/13 21:20:57
Sampling Freq(Hz) 100Hz
Duration Time(s)  60
Dir.              U-D
Scale Factor      7845(gal)/8223790
Max. Acc. (gal)   1.081
Last Correction   2025/01/13 21:20:58
Memo.             
[...]
   25400    25390    25377    25357    25330    25315    25316    25312 
   25303    25296    25284    25265    25254    25265    25286    25304 
   25311    25315    25320    25323    25327    25339    25355    25369 
   25381    25385    25384    25382    25386    25401    25427    25448 
   25458    25461    25466    25471    25470    25456    25440    25428 
   25420    25415    25424    25459    25509    25559    25605    25639 
   25645    25620    25575    25536    25505    25474    25451    25442 
   25443    25447    25450    25462    25482    25500    25504    25490 
   25470    25458    25452    25450    25448    25446    25443    25438 
   25427    25407    25378    25350    25339    25347    25350    25344 
   25340    25326    25299    25267    25246    25238    25239    25247 
   25258    25266    25274    25288    25301    25313    25340    25378 
   25421    25466    25494    25510    25527    25532    25532    25535 
   25536    25543    25558    25575    25594    25606    25608    25602 
   25596    25589    25582    25571    25556    25540    25521    25506 
   25497    25490    25474    25448    25419    25394    25377    25355 
   25335    25324    25327    25344    25362    25369    25361    25343 
   25331    25324    25316    25308    25305    25313    25321    25326 
   25338    25359    25384    25413    25438    25452    25466    25477 
   25483    25494    25508    25521    25533    25536    25527    25520 
   25517    25508    25493    25473    25448    25425    25405    25375 
   25342    25321    25319    25316    25303    25286    25272    25258 
   25251    25247    25239    25219    25193    25169    25150    25151 
   25178    25209    25232    25246    25257    25270    25289    25308 
   25332    25370    25416    25444    25451    25452    25456    25470 
   25493    25516    25533    25543    25537    25520    25510    25517 
   25536    25559    25582    25600    25620    25643    25660    25677 
   25689    25682    25664    25648    25636    25636    25643    25644 
   25637    25625    25612    25594    25562    25527    25504    25492 
   25481    25469    25450    25423    25398    25377    25355    25338 
   25323    25305    25292    25289    25290    25289    25284    25282 
   25292    25304    25305    25293    25272    25246    25222    25209 
   25208    25213    25227    25246    25273    25307    25340    25369 
   25390    25394    25371    25332    25286    25232    25184    25146 
   25119    25105    25108    25122    25131    25126    25114    25110 
   25114    25127    25149    25176    25204    25235    25267    25299 
   25320    25335    25346    25348    25346    25348    25354    25359 
   25371    25386    25401    25417    25429    25438    25435    25421 
   25409    25402    25400    25409    25429    25448    25467    25489 
   25492    25477    25465    25454    25444    25440    25432    25427 
   25434    25442    25442    25436    25417    25394    25382    25384 
   25392    25411    25439    25471    25501    25523    25531    25521 
   25498    25477    25462    25442    25421    25402    25386    25367 
   25342    25317    25300    25289    25290    25304    25319    25326 
   25326    25315    25305    25312    25339    25374    25413    25451 
   25483    25510    25527    25531    25521    25512    25523    25555 
   25582    25601    25616    25624    25625    25620    25601    25574 
   25551    25529    25512    25506    25506    25513    25527    25544 
   25551    25546    25537    25532    25520    25506    25497    25498 
   25515    25535    25542    25540    25539    25523    25492    25467 
   25451    25440    25439    25440    25442    25443    25440    25435 
   25438    25443    25434    25409    25396    25393    25388    25386 
   25389    25386    25373    25354    25335    25320    25317    25332 
   25353    25370    25385    25398    25409    25415    25415    25421 
   25436    25455    25474    25497    25520    25536    25542    25535 
   25519    25500    25478    25455    25440    25435    25435    25439 
   25443    25446    25440    25427    25415    25405    25393    25378 
   25358    25331    25309    25292    25276    25265    25257    25251 
   25253    25263    25286    25321    25359    25392    25420    25440 
   25446    25436    25415    25393    25378    25371    25373    25374 
   25366    25354    25339    25313    25285    25261    25230    25197 
   25184    25188    25204    25219    25220    25200    25168    25141 
   25124    25114    25112    25122    25130    25141    25161    25180 
   25185    25193    25211    25224    25228    25236    25238    25230 
   25220    25226    25235    25242    25251    25269    25285    25292 
   25285    25272    25255    25242    25228    25212    25207    25223 
   25262    25323    25394    25458    25504    25528    25536    25542 
   25552    25574    25605    25643    25679    25708    25725    25729 
   25722    25714    25708    25708    25717    25726    25726    25710 
   25672    25616    25559    25516    25481    25450    25423    25393 
   25358    25323    25290    25258    25227    25203    25181    25170 
   25176    25185    25191    25189    25189    25195    25201    25207 
   25211    25208    25203    25203    25207    25213    25227    25239 
   25234    25213    25185    25162    25158    25177    25208    25246 
   25284    25316    25344    25374    25404    25431    25450    25462 
   25470    25483    25508    25525    25532    25529    25513    25483 
   25446    25400    25343    25293    25269    25266    25269    25273 
   25276    25274    25274    25277    25280    25289    25308    25323 
   25334    25342    25351    25367    25392    25420    25440    25452 
   25471    25498    25525    25544    25560    25577    25593    25605 
   25617    25627    25617    25596    25575    25560    25550    25540 
   25529    25519    25497    25479    25489    25512    25529    25544 
   25566    25579    25578    25569    25555    25540    25529    25528 
   25523    25508    25497    25490    25493    25516    25540    25552 
   25551    25536    25516    25496    25478    25474    25475    25478 
   25481    25482    25474    25455    25428    25393    25354    25315 
   25277    25250    25239    25240    25247    25251    25246    25235 
   25215    25182    25151    25137    25138    25143    25153    25165 
   25178    25182    25176    25166    25155    25143    25138    25134 
   25127    25123    25114    25104    25097    25078    25049    25023 
   24996    24966    24950    24946    24952    24970    25004    25041 
   25074    25103    25120    25123    25126    25132    25143    25157 
   25172    25193    25219    25232    25235    25240    25255    25280 
   25301    25315    25330    25346    25363    25388    25417    25450 
   25488    25528    25563    25590    25617    25639    25652    25670 
   25698    25729    25758    25789    25822    25853    25878    25897 
   25911    25918    25917    25910    25907    25911    25909    25898 
   25886    25870    25848    25829    25813    25791    25763    25736 
   25718    25697    25677    25660    25643    25621    25608    25605 
   25605    25601    25600    25598    25597    25596    25600    25612 
   25625    25647    25672    25686    25693    25693    25683    25677 
   25678    25683    25690    25689    25672    25645    25610    25575 
   25558    25551    25544    25532    25524    25517    25504    25485 
   25473    25463    25454    25444    25435    25416    25396    25385 
   25380    25374    25377    25388    25396    25400    25409    25423 
   25429    25428    25425    25419    25407    25388    25367    25344 
   25324    25309    25292    25272    25263    25257    25238    25208 
   25165    25111    25060    25004    24948    24900    24865    24833 
   24807    24783    24761    24746    24738    24734    24734    24732 
   24722    24721    24721    24717    24718    24721    24714    24703 
   24699    24703    24711    24721    24733    24750    24775    24806 
   24831    24844    24848    24854    24869    24892    24918    24941 
   24957    24962    24968    24981    24993    25004    25014    25014 
   25015    25030    25053    25073    25108    25166    25235    25300 
   25358    25411    25451    25479    25502    25529    25559    25582 
   25597    25606    25614    25631    25663    25709    25763    25821 
   25867    25894    25911    25928    25938    25938    25933    25929 
   25925    25922    25924    25932    25942    25949    25947    25936 
   25915    25882    25852    25828    25805    25794    25798    25801 
   25787    25759    25721    25689    25667    25643    25613    25582 
   25550    25515    25481    25451    25423    25392    25359    25336 
   25320    25319    25332    25347    25354    25355    25346    25324 
   25299    25276    25254    25236    25224    25204    25169    25130 
   25095    25070    25065    25070    25076    25076    25077    25078 
   25089    25108    25122    25127    25127    25127    25126    25123 
   25120    25120    25115    25103    25088    25077    25061    25042 
   25034    25043    25068    25089    25096    25093    25088    25085 
   25093    25111    25124    25134    25143    25149    25151    25161 
   25174    25201    25235    25270    25304    25332    25342    25348 
   25367    25400    25435    25465    25493    25525    25559    25596 
   25633    25671    25710    25740    25758    25778    25799    25816 
   25829    25841    25848    25847    25837    25825    25814    25801 
   25795    25799    25810    25816    25812    25812    25818    25824 
   25826    25841    25868    25902    25940    25978    26011    26044 
   26075    26092    26091    26079    26056    26014    25971    25932 
   25895    25863    25828    25790    25756    25731    25717    25718 
   25732    25753    25787    25829    25868    25905    25934    25952 
   25956    25955    25956    25956    25960    25979    26006    26026 
   26048    26067    26065    26048    26021    25988    25951    25906 
   25866    25832    25793    25752    25725    25702    25679    25658 
   25641    25624    25609    25593    25566    25524    25482    25442 
   25397    25353    25309    25267    25228    25192    25159    25130 
   25099    25061    25018    24968    24914    24857    24804    24759 
   24718    24690    24671    24656    24646    24638    24621    24591 
   24555    24525    24516    24525    24551    24586    24614    24640 
   24667    24691    24717    24740    24757    24764    24763    24752 
   24733    24713    24700    24699    24715    24740    24761    24783 
   24808    24835    24861    24895    24931    24966    25003    25034 
   25056    25087    25122    25146    25170    25201    25228    25253 
   25277    25303    25324    25343    25351    25353    25362    25386 
   25424    25469    25510    25544    25567    25583    25590    25596 
   25604    25613    25618    25621    25620    25610    25593    25570 
   25550    25537    25529    25528    25532    25542    25555    25567 
   25578    25582    25579    25574    25570    25571    25590    25624 
   25663    25713    25766    25806    25837    25860    25874    25883 
   25894    25907    25924    25936    25947    25960    25957    25937 
   25914    25890    25866    25852    25851    25848    25844    25851 
   25864    25875    25891    25914    25936    25952    25960    25956 
   25942    25924    25905    25887    25872    25864    25857    25847 
   25830    25803    25771    25740    25710    25686    25662    25637 
   25624    25616    25610    25612    25609    25593    25573    25543 
   25510    25486    25467    25450    25436    25424    25404    25374 
   25340    25307    25273    25234    25188    25139    25095    25053 
   25016    24987    24953    24915    24871    24817    24771    24737 
   24709    24686    24659    24621    24583    24555    24532    24520 
   24529    24543    24548    24545    24536    24518    24499    24489 
   24487    24498    24510    24513    24514    24520    24522    24524 
   24530    24530    24522    24516    24514    24516    24525    24538 
   24552    24567    24579    24601    24638    24684    24736    24791 
   24833    24858    24869    24872    24880    24896    24921    24956 
   24996    25033    25061    25089    25124    25162    25205    25254 
   25304    25350    25396    25436    25470    25494    25512    25529 
   25542    25546    25555    25571    25589    25610    25627    25636 
   25645    25659    25682    25717    25755    25793    25830    25863 
   25888    25915    25945    25984    26028    26068    26102    26126 
   26136    26137    26134    26127    26123    26126    26131    26134 
   26134    26126    26114    26106    26099    26095    26099    26104 
   26109    26117    26123    26131    26138    26144    26136    26122 
   26119    26133    26150    26169    26192    26218    26241    26264 
   26279    26276    26262    26248    26227    26199    26165    26129 
   26090    26050    26017    25987    25953    25917    25879    25840 
   25797    25748    25701    25663    25628    25591    25558    25525 
   25496    25475    25461    25442    25420    25394    25359    25320 
   25276    25228    25185    25147    25110    25069    25026    24979 
   24925    24872    24814    24749    24691    24630    24563    24505 
   24451    24398    24358    24325    24298    24281    24270    24263 
   24259    24260    24270    24287    24320    24364    24416    24482 
   24544    24601    24665    24725    24764    24803    24841    24868 
   24891    24914    24931    24948    24965    24976    24987    25006 
   25027    25054    25083    25101    25111    25110    25104    25097 
   25099    25110    25127    25150    25176    25207    25250    25292 
   25328    25358    25367    25363    25362    25357    25343    25335 
   25336    25340    25347    25359    25374    25385    25393    25407 
   25424    25436    25440    25447    25454    25459    25463    25471 
   25485    25510    25536    25559    25585    25613    25641    25674 
   25701    25722    25741    25760    25780    25805    25829    25851 
   25861    25866    25870    25870    25871    25875    25872    25860 
   25843    25818    25791    25760    25725    25695    25670    25640 
   25617    25601    25578    25552    25524    25496    25479    25471 
   25459    25446    25431    25420    25411    25398    25375    25340 
   25303    25273    25245    25218    25191    25165    25139    25116 
   25095    25076    25057    25041    25030    25027    25033    25051 
   25080    25112    25141    25172    25201    25232    25267    25304 
   25338    25369    25398    25431    25465    25497    25525    25548 
   25567    25586    25600    25617    25635    25647    25655    25662 
   25664    25671    25686    25708    25733    25764    25797    25818 
   25826    25826    25828    25833    25845    25866    25891    25910 
   25918    25907    25880    25844    25798    25747    25695    25644 
   25593    25548    25508    25474    25454    25435    25412    25394 
   25385    25381    25384    25396    25420    25446    25466    25479 
   25488    25492    25486    25475    25465    25455    25451    25462 
   25479    25502    25529    25556    25579    25602    25628    25664 
   25714    25764    25806    25839    25856    25863    25872    25882 
   25893    25903    25911    25910    25901    25894    25890    25882 
   25878    25883    25895    25902    25902    25899    25897    25890 
   25883    25875    25866    25860    25857    25844    25824    25805 
   25782    25760    25739    25713    25679    25647    25623    25604 
   25581    25552    25523    25490    25451    25416    25393    25381 
   25380    25386    25386    25381    25380    25378    25386    25402 
   25405    25402    25405    25401    25386    25366    25339    25311 
   25289    25266    25231    25185    25142    25100    25050    24996 
   24946    24900    24852    24808    24776    24746    24719    24698 
   24679    24653    24625    24595    24565    24541    24534    24543 
   24557    24574    24592    24610    24624    24629    24628    24624 
   24622    24621    24621    24629    24642    24656    24673    24696 
   24723    24750    24777    24804    24827    24840    24844    24845 
   24841    24835    24841    24852    24860    24858    24848    24831 
   24815    24803    24796    24795    24799    24813    24829    24838 
   24848    24862    24887    24923    24973    25031    25091    25146 
   25200    25257    25323    25392    25450    25498    25540    25575 
   25601    25618    25632    25645    25658    25670    25679    25678 
   25667    25655    25648    25644    25648    25659    25675    25693 
   25716    25739    25759    25778    25797    25809    25816    25825 
   25834    25839    25843    25847    25849    25852    25853    25845 
   25829    25813    25798    25783    25770    25753    25732    25714 
   25699    25678    25658    25640    25620    25602    25586    25578 
   25581    25585    25589    25596    25604    25613    25629    25655 
   25683    25712    25741    25763    25779    25791    25797    25795 
   25798    25807    25825    25847    25872    25899    25925    25947 
   25968    25994    26017    26030    26038    26049    26059    26057 
   26056    26048    26026    25994    25955    25911    25872    25834 
   25793    25747    25699    25650    25597    25547    25504    25471 
   25443    25415    25392    25375    25365    25362    25363    25363 
   25363    25366    25366    25359    25346    25335    25323    25308 
   25292    25272    25247    25218    25189    25165    25142    25122 
   25096    25065    25031    24996    24965    24941    24922    24916 
   24921    24927    24935    24953    24979    25010    25051    25100 
   25141    25174    25213    25253    25284    25311    25334    25344 
   25346    25344    25342    25340    25339    25338    25343    25351 
   25350    25339    25334    25328    25320    25320    25331    25347 
   25367    25390    25417    25442    25461    25475    25482    25478 
   25471    25466    25465    25465    25465    25461    25448    25431 
   25411    25388    25362    25338    25321    25304    25285    25272 
   25259    25243    25224    25200    25174    25147    25127    25120 
   25124    25134    25155    25188    25238    25301    25371    25447 
   25528    25613    25697    25772    25834    25883    25914    25930 
   25934    25926    25906    25874    25830    25785    25741    25698 
   25654    25609    25569    25537    25515    25494    25478    25470 
   25459    25444    25424    25397    25365    25326    25280    25235 
   25191    25147    25111    25083    25061    25039    25020    25003 
   24988    24975    24966    24960    24957    24968    24992    25024 
   25058    25087    25105    25122    25135    25143    25150    25151 
   25147    25143    25147    25153    25161    25172    25185    25195 
   25207    25220    25226    25234    25247    25261    25274    25285 
   25296    25309    25321    25331    25342    25355    25369    25378 
   25384    25392    25409    25428    25446    25471    25506    25544 
   25578    25618    25667    25717    25768    25814    25845    25872 
