Origin Time       2025/01/13 21:19:00
Lat.              31.8
Long.             131.6
Depth. (km)       30
Mag.              6.9
Station Code      YMG016
Station Lat.      34.1703
Station Long.     132.1764
Station Height(m) 7
Record Time       2025/01/13 21:20:28
Sampling Freq(Hz) 100Hz
Duration Time(s)  117
Dir.              U-D
Scale Factor      7845(gal)/8223790
Max. Acc. (gal)   1.668
Last Correction   2025/01/13 21:20:27
Memo.             
[...]
   -3601    -3673    -3655    -3634    -3693    -3758    -3727    -3640 
   -3580    -3535    -3473    -3400    -3345    -3310    -3250    -3156 
   -3105    -3154    -3248    -3288    -3257    -3227    -3276    -3346 
   -3345    -3287    -3256    -3292    -3385    -3480    -3537    -3578 
   -3618    -3651    -3673    -3654    -3580    -3508    -3519    -3618 
   -3701    -3704    -3690    -3738    -3813    -3842    -3820    -3804 
   -3802    -3796    -3769    -3703    -3565    -3346    -3172    -3196 
   -3356    -3438    -3381    -3345    -3434    -3539    -3542    -3496 
   -3501    -3550    -3568    -3518    -3419    -3304    -3181    -3073 
   -3037    -3072    -3091    -3033    -2918    -2805    -2743    -2766 
   -2855    -2941    -2970    -2980    -3051    -3171    -3289    -3397 
   -3515    -3663    -3824    -3929    -3971    -3997    -3994    -3942 
   -3875    -3808    -3701    -3531    -3346    -3207    -3105    -3033 
   -3028    -3064    -3083    -3105    -3195    -3323    -3393    -3411 
   -3456    -3515    -3527    -3505    -3526    -3605    -3686    -3738 
   -3766    -3736    -3655    -3635    -3709    -3757    -3676    -3553 
   -3562    -3707    -3789    -3712    -3596    -3558    -3604    -3676 
   -3734    -3777    -3825    -3879    -3919    -3935    -3970    -4075 
   -4179    -4136    -3928    -3685    -3523    -3423    -3298    -3132 
   -3010    -2951    -2889    -2816    -2816    -2916    -3030    -3099 
   -3177    -3316    -3468    -3566    -3596    -3569    -3522    -3522 
   -3618    -3769    -3879    -3892    -3846    -3816    -3823    -3854 
   -3921    -4017    -4087    -4101    -4051    -3937    -3790    -3634 
   -3443    -3215    -3034    -2965    -2929    -2808    -2625    -2516 
   -2525    -2571    -2582    -2590    -2664    -2789    -2922    -3079 
   -3250    -3388    -3477    -3519    -3505    -3491    -3534    -3593 
   -3600    -3578    -3597    -3649    -3697    -3773    -3881    -3955 
   -3989    -4036    -4075    -4060    -4032    -4041    -4067    -4055 
   -4002    -3958    -3948    -3932    -3865    -3761    -3659    -3581 
   -3520    -3449    -3350    -3233    -3109    -3030    -3045    -3123 
   -3206    -3265    -3298    -3291    -3229    -3138    -3103    -3179 
   -3330    -3464    -3534    -3557    -3546    -3518    -3538    -3634 
   -3740    -3781    -3721    -3585    -3427    -3285    -3171    -3078 
   -2983    -2910    -2907    -2975    -3078    -3200    -3330    -3426 
   -3483    -3558    -3685    -3805    -3840    -3798    -3755    -3742 
   -3721    -3680    -3638    -3578    -3450    -3280    -3150    -3083 
   -3061    -3086    -3137    -3175    -3191    -3218    -3277    -3362 
   -3447    -3481    -3434    -3384    -3400    -3422    -3369    -3271 
   -3206    -3194    -3198    -3223    -3315    -3453    -3550    -3555 
   -3492    -3429    -3399    -3376    -3346    -3315    -3291    -3262 
   -3213    -3150    -3090    -3003    -2914    -2933    -3102    -3283 
   -3364    -3406    -3497    -3615    -3672    -3665    -3667    -3699 
   -3713    -3677    -3584    -3464    -3381    -3377    -3411    -3392 
   -3292    -3172    -3068    -2978    -2940    -3001    -3130    -3262 
   -3338    -3342    -3329    -3364    -3461    -3569    -3640    -3707 
   -3809    -3915    -3952    -3896    -3757    -3588    -3412    -3241 
   -3133    -3119    -3115    -3060    -2999    -2955    -2910    -2884 
   -2924    -3014    -3086    -3091    -3057    -3056    -3111    -3200 
   -3298    -3376    -3393    -3346    -3289    -3268    -3269    -3273 
   -3289    -3316    -3323    -3281    -3234    -3272    -3387    -3474 
   -3472    -3449    -3488    -3555    -3558    -3508    -3515    -3591 
   -3609    -3516    -3434    -3496    -3685    -3858    -3882    -3778 
   -3690    -3716    -3780    -3759    -3678    -3640    -3639    -3618 
   -3584    -3555    -3515    -3465    -3426    -3389    -3353    -3348 
   -3360    -3337    -3262    -3188    -3179    -3244    -3329    -3370 
   -3368    -3366    -3368    -3350    -3339    -3348    -3302    -3175 
   -3042    -2983    -2995    -3024    -3028    -3040    -3127    -3271 
   -3379    -3450    -3577    -3753    -3823    -3731    -3611    -3555 
   -3469    -3258    -3010    -2833    -2693    -2542    -2442    -2444 
   -2500    -2543    -2590    -2681    -2794    -2890    -2943    -2959 
   -2998    -3117    -3277    -3380    -3384    -3348    -3337    -3334 
   -3342    -3411    -3514    -3551    -3512    -3505    -3613    -3788 
   -3937    -4045    -4121    -4152    -4151    -4152    -4159    -4171 
   -4210    -4256    -4260    -4199    -4101    -4010    -3948    -3893 
   -3838    -3790    -3780    -3798    -3794    -3755    -3708    -3624 
   -3495    -3384    -3343    -3364    -3370    -3276    -3109    -3011 
   -3044    -3123    -3199    -3304    -3414    -3460    -3466    -3505 
   -3564    -3607    -3654    -3723    -3802    -3885    -3944    -3906 
   -3754    -3574    -3439    -3312    -3164    -3053    -3042    -3105 
   -3141    -3102    -3079    -3149    -3273    -3384    -3470    -3526 
   -3538    -3507    -3416    -3257    -3083    -2960    -2907    -2899 
   -2937    -3056    -3221    -3303    -3258    -3214    -3311    -3534 
   -3761    -3912    -3986    -4008    -4009    -4025    -4071    -4129 
   -4151    -4117    -4036    -3906    -3739    -3608    -3588    -3639 
   -3676    -3701    -3767    -3829    -3789    -3669    -3558    -3466 
   -3377    -3346    -3391    -3439    -3450    -3472    -3543    -3639 
   -3711    -3747    -3761    -3728    -3643    -3577    -3582    -3623 
   -3665    -3742    -3879    -4009    -4058    -4064    -4086    -4099 
   -4068    -4002    -3959    -3985    -4012    -3923    -3734    -3585 
   -3507    -3388    -3206    -3084    -3106    -3217    -3318    -3381 
   -3423    -3456    -3492    -3566    -3680    -3774    -3797    -3786 
   -3820    -3908    -3978    -4009    -4036    -4039    -3996    -3955 
   -3958    -3964    -3915    -3812    -3704    -3604    -3485    -3358 
   -3319    -3404    -3500    -3503    -3510    -3650    -3836    -3905 
   -3882    -3886    -3916    -3894    -3805    -3680    -3526    -3342 
   -3176    -3063    -2982    -2936    -2937    -2959    -2990    -3069 
   -3213    -3361    -3474    -3585    -3676    -3674    -3584    -3492 
   -3453    -3453    -3456    -3410    -3298    -3168    -3079    -3059 
   -3111    -3214    -3319    -3414    -3514    -3611    -3686    -3744 
   -3781    -3809    -3834    -3827    -3804    -3832    -3901    -3913 
   -3863    -3867    -3970    -4071    -4060    -3923    -3744    -3624 
   -3572    -3551    -3555    -3565    -3539    -3466    -3403    -3399 
   -3435    -3503    -3600    -3647    -3599    -3537    -3527    -3546 
   -3609    -3748    -3870    -3835    -3670    -3553    -3572    -3640 
   -3636    -3530    -3372    -3183    -2971    -2809    -2748    -2741 
   -2698    -2563    -2374    -2228    -2170    -2169    -2211    -2305 
   -2396    -2419    -2419    -2477    -2583    -2700    -2802    -2895 
   -2988    -3079    -3160    -3242    -3325    -3376    -3387    -3419 
   -3523    -3673    -3821    -3920    -3894    -3744    -3570    -3430 
   -3311    -3213    -3145    -3080    -2976    -2863    -2836    -2897 
   -2907    -2795    -2695    -2749    -2880    -2948    -2963    -2992 
   -3011    -2978    -2938    -2926    -2883    -2795    -2745    -2751 
   -2755    -2772    -2859    -2979    -3051    -3076    -3130    -3233 
   -3327    -3389    -3453    -3526    -3549    -3511    -3492    -3555 
   -3640    -3658    -3630    -3619    -3604    -3500    -3306    -3138 
   -3096    -3168    -3273    -3331    -3329    -3303    -3307    -3373 
   -3507    -3661    -3781    -3848    -3889    -3971    -4137    -4328 
   -4453    -4536    -4639    -4745    -4804    -4803    -4738    -4612 
   -4469    -4367    -4263    -4075    -3866    -3742    -3635    -3456 
   -3261    -3150    -3119    -3087    -2992    -2878    -2835    -2902 
   -3002    -3033    -3026    -3084    -3199    -3276    -3287    -3269 
   -3280    -3350    -3423    -3423    -3356    -3287    -3235    -3157 
   -3040    -2961    -2971    -3010    -2987    -2894    -2820    -2833 
   -2886    -2884    -2812    -2732    -2693    -2689    -2706    -2735 
   -2783    -2866    -2926    -2874    -2770    -2747    -2799    -2826 
   -2794    -2754    -2760    -2837    -2964    -3072    -3103    -3094 
   -3149    -3287    -3414    -3465    -3477    -3554    -3727    -3909 
   -4039    -4145    -4264    -4409    -4546    -4630    -4639    -4580 
   -4506    -4477    -4446    -4336    -4189    -4082    -4001    -3890 
   -3740    -3600    -3488    -3369    -3252    -3200    -3200    -3184 
   -3194    -3261    -3273    -3175    -3098    -3109    -3080    -2955 
   -2884    -2964    -3061    -3030    -2956    -3006    -3159    -3249 
   -3226    -3195    -3234    -3302    -3349    -3406    -3488    -3553 
   -3569    -3557    -3550    -3538    -3477    -3376    -3294    -3249 
   -3211    -3191    -3180    -3114    -2987    -2893    -2890    -2920 
   -2903    -2876    -2903    -2986    -3113    -3276    -3447    -3620 
   -3820    -4039    -4217    -4299    -4334    -4398    -4490    -4581 
   -4665    -4727    -4757    -4756    -4700    -4576    -4422    -4299 
   -4207    -4094    -3931    -3735    -3561    -3442    -3377    -3352 
   -3365    -3403    -3429    -3418    -3383    -3348    -3312    -3264 
   -3202    -3177    -3227    -3319    -3412    -3504    -3613    -3730 
   -3811    -3834    -3825    -3819    -3823    -3809    -3743    -3651 
   -3612    -3636    -3627    -3510    -3326    -3148    -3005    -2920 
   -2887    -2883    -2899    -2932    -2941    -2933    -2959    -3029 
   -3099    -3140    -3165    -3204    -3238    -3219    -3179    -3168 
   -3173    -3176    -3194    -3230    -3267    -3283    -3294    -3326 
   -3364    -3348    -3303    -3308    -3333    -3311    -3280    -3279 
   -3249    -3161    -3052    -2944    -2821    -2702    -2613    -2536 
   -2486    -2506    -2567    -2575    -2527    -2508    -2567    -2681 
   -2798    -2859    -2828    -2741    -2662    -2619    -2619    -2655 
   -2698    -2737    -2775    -2794    -2768    -2743    -2805    -2943 
   -3052    -3076    -3057    -3105    -3275    -3493    -3663    -3813 
   -3997    -4172    -4276    -4344    -4455    -4612    -4739    -4799 
   -4830    -4881    -4946    -4969    -4946    -4928    -4923    -4901 
   -4878    -4841    -4725    -4523    -4341    -4276    -4303    -4309 
   -4240    -4155    -4106    -4074    -4033    -4006    -4013    -4040 
   -4058    -4048    -4023    -4005    -4012    -4047    -4082    -4106 
   -4144    -4176    -4141    -4074    -4052    -4070    -4064    -4028 
   -4004    -3969    -3877    -3755    -3658    -3595    -3541    -3478 
   -3395    -3300    -3227    -3190    -3132    -2990    -2785    -2637 
   -2624    -2637    -2536    -2404    -2442    -2652    -2840    -2917 
   -2997    -3134    -3250    -3319    -3393    -3510    -3650    -3743 
   -3732    -3669    -3676    -3769    -3831    -3777    -3654    -3581 
   -3609    -3654    -3619    -3527    -3470    -3446    -3354    -3184 
   -3030    -2940    -2856    -2712    -2536    -2438    -2470    -2551 
   -2577    -2559    -2566    -2597    -2612    -2617    -2651    -2708 
   -2752    -2759    -2747    -2766    -2809    -2826    -2808    -2778 
   -2762    -2798    -2887    -2975    -3042    -3099    -3149    -3203 
   -3258    -3281    -3272    -3268    -3312    -3397    -3507    -3639 
   -3762    -3816    -3812    -3809    -3842    -3881    -3878    -3812 
   -3690    -3545    -3396    -3261    -3154    -3086    -3038    -3003 
   -2992    -3011    -3041    -3069    -3106    -3138    -3163    -3207 
   -3277    -3330    -3321    -3265    -3257    -3330    -3408    -3437 
   -3447    -3495    -3599    -3709    -3755    -3739    -3713    -3696 
   -3673    -3642    -3592    -3512    -3439    -3388    -3304    -3202 
   -3160    -3179    -3200    -3222    -3283    -3403    -3558    -3688 
   -3762    -3797    -3835    -3889    -3915    -3867    -3771    -3669 
   -3586    -3514    -3420    -3323    -3260    -3237    -3242    -3256 
   -3262    -3285    -3337    -3403    -3504    -3661    -3854    -4055 
   -4222    -4313    -4353    -4409    -4494    -4560    -4579    -4581 
   -4583    -4534    -4406    -4257    -4158    -4095    -4013    -3921 
   -3889    -3917    -3937    -3908    -3870    -3882    -3948    -4024 
   -4068    -4078    -4052    -3983    -3870    -3736    -3624    -3541 
   -3450    -3339    -3244    -3207    -3218    -3237    -3254    -3267 
   -3256    -3227    -3198    -3204    -3267    -3327    -3302    -3208 
   -3148    -3156    -3175    -3160    -3106    -3017    -2911    -2830 
   -2758    -2614    -2420    -2300    -2274    -2265    -2247    -2258 
   -2282    -2277    -2274    -2328    -2412    -2461    -2463    -2442 
   -2413    -2408    -2448    -2489    -2467    -2385    -2327    -2349 
   -2415    -2469    -2481    -2455    -2425    -2439    -2523    -2675 
   -2849    -2999    -3156    -3383    -3686    -3986    -4203    -4348 
   -4488    -4631    -4742    -4811    -4855    -4870    -4816    -4707 
   -4649    -4687    -4711    -4639    -4533    -4465    -4422    -4352 
   -4255    -4168    -4102    -4029    -3956    -3904    -3892    -3929 
   -3987    -4004    -3960    -3901    -3870    -3863    -3844    -3809 
   -3792    -3805    -3831    -3859    -3955    -4151    -4328    -4419 
   -4546    -4761    -4930    -4968    -4970    -5035    -5136    -5179 
   -5123    -5013    -4912    -4804    -4654    -4465    -4259    -4043 
   -3831    -3643    -3476    -3312    -3156    -3028    -2922    -2810 
   -2677    -2542    -2434    -2347    -2247    -2115    -1956    -1815 
   -1730    -1691    -1692    -1733    -1772    -1786    -1800    -1842 
   -1898    -1946    -2016    -2154    -2327    -2455    -2556    -2700 
   -2868    -3025    -3194    -3384    -3543    -3650    -3708    -3739 
   -3765    -3778    -3785    -3812    -3815    -3735    -3612    -3512 
   -3435    -3348    -3244    -3153    -3088    -3055    -3068    -3110 
   -3134    -3123    -3094    -3061    -3010    -2933    -2860    -2803 
   -2745    -2708    -2706    -2695    -2648    -2625    -2671    -2776 
   -2907    -3053    -3202    -3338    -3445    -3519    -3592    -3666 
   -3703    -3689    -3662    -3645    -3623    -3572    -3499    -3433 
   -3385    -3346    -3271    -3130    -2990    -2932    -2934    -2937 
   -2955    -3024    -3105    -3134    -3156    -3237    -3348    -3446 
   -3570    -3738    -3921    -4105    -4278    -4411    -4527    -4679 
   -4847    -4965    -4993    -4974    -4973    -4974    -4912    -4819 
   -4792    -4804    -4741    -4561    -4347    -4191    -4081    -3952 
   -3781    -3596    -3435    -3289    -3110    -2913    -2786    -2752 
   -2728    -2636    -2502    -2435    -2493    -2610    -2689    -2720 
   -2748    -2795    -2844    -2852    -2809    -2751    -2710    -2666 
   -2590    -2494    -2420    -2363    -2305    -2272    -2284    -2332 
   -2403    -2494    -2619    -2774    -2963    -3202    -3477    -3731 
   -3935    -4079    -4166    -4210    -4213    -4168    -4112    -4052 
   -3944    -3763    -3558    -3408    -3326    -3253    -3145    -3001 
   -2845    -2731    -2708    -2766    -2862    -2972    -3063    -3118 
   -3181    -3288    -3407    -3489    -3527    -3532    -3514    -3474 
   -3412    -3335    -3283    -3265    -3244    -3188    -3106    -3033 
   -3026    -3102    -3196    -3254    -3300    -3385    -3518    -3676 
   -3816    -3920    -3977    -3990    -4000    -4020    -4009    -3913 
   -3735    -3531    -3338    -3132    -2921    -2776    -2720    -2718 
   -2721    -2694    -2668    -2733    -2909    -3095    -3200    -3295 
   -3483    -3715    -3894    -4005    -4112    -4264    -4426    -4525 
   -4536    -4494    -4449    -4419    -4382    -4342    -4334    -4332 
   -4287    -4221    -4187    -4182    -4151    -4067    -3962    -3859 
   -3742    -3608    -3504    -3446    -3400    -3346    -3310    -3326 
   -3416    -3569    -3712    -3785    -3820    -3879    -3971    -4085 
   -4234    -4395    -4495    -4509    -4471    -4436    -4407    -4348 
   -4245    -4114    -3958    -3778    -3586    -3376    -3140    -2916 
   -2758    -2679    -2632    -2579    -2560    -2600    -2652    -2683 
   -2728    -2821    -2937    -3056    -3214    -3404    -3559    -3649 
   -3720    -3785    -3792    -3732    -3658    -3589    -3487    -3312 
   -3113    -2963    -2862    -2751    -2606    -2454    -2371    -2390 
   -2420    -2409    -2420    -2486    -2565    -2608    -2620    -2679 
   -2821    -2967    -3046    -3090    -3159    -3250    -3323    -3352 
   -3342    -3334    -3376    -3468    -3546    -3566    -3543    -3484 
   -3416    -3412    -3472    -3523    -3528    -3501    -3460    -3404 
   -3322    -3223    -3168    -3177    -3191    -3156    -3106    -3099 
   -3125    -3145    -3169    -3225    -3291    -3342    -3377    -3422 
   -3492    -3564    -3582    -3543    -3505    -3515    -3553    -3573 
   -3576    -3581    -3572    -3537    -3524    -3564    -3626    -3678 
   -3719    -3763    -3811    -3844    -3873    -3901    -3892    -3824 
   -3735    -3645    -3538    -3419    -3300    -3191    -3082    -2959 
   -2829    -2732    -2714    -2775    -2874    -2982    -3138    -3366 
   -3604    -3775    -3906    -4052    -4212    -4326    -4352    -4317 
   -4286    -4287    -4295    -4253    -4170    -4136    -4167    -4163 
   -4075    -3977    -3912    -3861    -3809    -3770    -3748    -3758 
   -3797    -3828    -3847    -3878    -3905    -3904    -3873    -3819 
   -3763    -3715    -3659    -3588    -3500    -3407    -3314    -3211 
   -3114    -3042    -2988    -2934    -2880    -2836    -2816    -2833 
   -2897    -2982    -3037    -3030    -3001    -3024    -3114    -3219 
   -3299    -3360    -3414    -3458    -3487    -3492    -3483    -3491 
   -3508    -3489    -3434    -3387    -3360    -3321    -3242    -3123 
   -3002    -2913    -2840    -2739    -2600    -2470    -2405    -2419 
   -2477    -2539    -2585    -2631    -2700    -2793    -2894    -3007 
   -3167    -3365    -3569    -3755    -3916    -4055    -4190    -4351 
   -4533    -4692    -4791    -4818    -4795    -4764    -4745    -4719 
   -4650    -4540    -4428    -4347    -4271    -4143    -3963    -3766 
   -3557    -3342    -3134    -2936    -2760    -2605    -2459    -2344 
   -2273    -2234    -2212    -2208    -2236    -2299    -2365    -2434 
   -2540    -2683    -2814    -2897    -2953    -3034    -3149    -3253 
   -3337    -3442    -3555    -3631    -3670    -3712    -3781    -3862 
   -3915    -3925    -3932    -3970    -4010    -3994    -3923    -3870 
   -3874    -3898    -3882    -3829    -3805    -3821    -3802    -3734 
   -3689    -3688    -3690    -3678    -3649    -3619    -3592    -3532 
   -3451    -3395    -3357    -3294    -3204    -3119    -3057    -3022 
   -3013    -3025    -3048    -3072    -3102    -3142    -3187    -3248 
   -3348    -3473    -3604    -3753    -3908    -4028    -4102    -4151 
   -4201    -4257    -4320    -4379    -4388    -4310    -4168    -4037 
   -3951    -3869    -3754    -3653    -3600    -3568    -3532    -3493 
   -3438    -3368    -3323    -3308    -3281    -3211    -3107    -3006 
