Origin Time       2025/01/13 21:19:00
Lat.              31.8
Long.             131.6
Depth. (km)       30
Mag.              6.9
Station Code      YMG015
Station Lat.      34.0966
Station Long.     132.0761
Station Height(m) 64
Record Time       2025/01/13 21:20:46
Sampling Freq(Hz) 100Hz
Duration Time(s)  72
Dir.              N-S
Scale Factor      7845(gal)/8223790
Max. Acc. (gal)   3.799
Last Correction   2025/01/13 21:20:46
Memo.             
[...]
    3985     4025     4067     4089     4104     4143     4217     4276 
    4261     4174     4070     4006     3981     3958     3936     3915 
    3865     3790     3700     3559     3350     3140     2986     2887 
    2848     2859     2876     2897     2956     3051     3146     3235 
    3296     3306     3283     3260     3246     3265     3345     3447 
    3519     3569     3628     3711     3797     3836     3824     3832 
    3915     4060     4210     4311     4379     4445     4472     4442 
    4390     4330     4263     4167     4001     3792     3607     3450 
    3280     3096     2947     2859     2816     2783     2771     2832 
    2972     3092     3149     3196     3264     3335     3414     3470 
    3470     3464     3526     3636     3719     3780     3867     3955 
    3982     3944     3871     3780     3672     3542     3377     3190 
    3005     2868     2821     2853     2913     2982     3086     3225 
    3385     3574     3800     4025     4203     4318     4376     4396 
    4401     4395     4360     4284     4203     4155     4108     4027 
    3927     3828     3748     3715     3750     3812     3842     3846 
    3842     3839     3846     3819     3730     3607     3478     3365 
    3287     3289     3380     3487     3592     3701     3777     3842 
    3932     4043     4168     4267     4287     4245     4202     4128 
    3981     3824     3697     3566     3447     3380     3343     3298 
    3256     3237     3211     3184     3190     3218     3254     3283 
    3294     3312     3362     3423     3485     3585     3743     3948 
    4197     4445     4595     4603     4536     4477     4426     4355 
    4286     4202     4064     3893     3684     3414     3137     2924 
    2783     2695     2640     2582     2490     2405     2380     2398 
    2408     2423     2505     2616     2724     2889     3114     3362 
    3650     3985     4301     4510     4596     4629     4648     4602 
    4440     4228     4090     4045     4047     4075     4104     4098 
    4105     4170     4257     4295     4256     4178     4097     4004 
    3908     3816     3727     3665     3647     3672     3696     3681 
    3622     3530     3412     3291     3198     3152     3149     3181 
    3226     3268     3349     3488     3635     3727     3763     3804 
    3893     3990     4031     4029     4047     4068     4041     3979 
    3923     3865     3798     3757     3757     3720     3585     3403 
    3249     3161     3150     3192     3238     3257     3262     3262 
    3258     3277     3323     3372     3411     3418     3391     3353 
    3327     3358     3469     3618     3734     3777     3759     3716 
    3694     3719     3754     3751     3724     3690     3662     3655 
    3654     3628     3578     3493     3365     3245     3181     3157 
    3165     3244     3402     3592     3778     3939     4051     4106 
    4116     4077     3987     3882     3773     3665     3592     3555 
    3508     3447     3403     3377     3368     3368     3370     3383 
    3420     3465     3478     3458     3446     3476     3527     3577 
    3630     3696     3775     3871     3962     4023     4055     4071 
    4079     4106     4195     4325     4450     4552     4591     4541 
    4417     4268     4131     3994     3858     3715     3570     3473 
    3426     3377     3308     3226     3176     3208     3314     3416 
    3461     3472     3524     3628     3731     3771     3731     3649 
    3588     3574     3593     3636     3713     3801     3882     3981 
    4091     4190     4234     4197     4095     3985     3894     3817 
    3720     3609     3505     3397     3273     3140     2982     2781 
    2556     2369     2282     2336     2481     2613     2698     2749 
    2789     2871     3026     3214     3396     3584     3792     4029 
    4305     4594     4828     4978     5058     5090     5098     5109 
    5113     5071     4949     4757     4531     4302     4113     3979 
    3852     3707     3549     3383     3229     3113     3030     2960 
    2893     2844     2839     2879     2965     3099     3267     3435 
    3565     3642     3678     3689     3697     3688     3615     3499 
    3411     3358     3319     3333     3439     3597     3728     3812 
    3870     3921     3973     4014     4020     3977     3904     3820 
    3773     3820     3943     4097     4280     4465     4623     4777 
    4914     4981     4972     4901     4777     4639     4525     4401 
    4245     4099     3987     3896     3804     3716     3620     3492 
    3338     3173     3007     2817     2577     2322     2119     2015 
    2033     2134     2270     2446     2635     2805     2963     3096 
    3200     3303     3402     3460     3477     3470     3464     3493 
    3585     3700     3805     3890     3920     3882     3824     3771 
    3731     3708     3685     3624     3532     3474     3472     3466 
    3414     3335     3287     3234     3125     3024     2971     2898 
    2814     2820     2936     3117     3310     3445     3485     3477 
    3492     3499     3430     3338     3329     3393     3493     3643 
    3831     4001     4129     4248     4380     4477     4521     4565 
    4615     4627     4626     4619     4590     4573     4585     4611 
    4642     4627     4515     4352     4232     4180     4109     3948 
    3761     3634     3570     3547     3519     3460     3396     3327 
    3240     3177     3117     3003     2876     2782     2740     2767 
    2812     2808     2782     2817     2949     3150     3381     3605 
    3820     4047     4264     4467     4672     4831     4880     4843 
    4760     4598     4324     4010     3770     3636     3577     3558 
    3554     3557     3582     3627     3672     3689     3640     3535 
    3427     3349     3315     3337     3407     3551     3823     4183 
    4537     4810     4976     5054     5070     5020     4895     4711 
    4487     4249     4058     3937     3859     3812     3786     3747 
    3665     3554     3454     3372     3292     3184     3034     2867 
    2717     2601     2535     2531     2559     2592     2617     2621 
    2600     2555     2496     2459     2479     2570     2736     2926 
    3073     3180     3233     3202     3130     3073     3078     3183 
    3354     3531     3663     3734     3785     3844     3908     3987 
    4036     4013     3983     4012     4075     4122     4117     4017 
    3838     3654     3535     3511     3573     3659     3716     3734 
    3726     3707     3709     3766     3858     3933     3986     4027 
    4031     3991     3935     3896     3906     3967     4009     3975 
    3859     3682     3489     3354     3311     3310     3298     3276 
    3279     3343     3476     3639     3780     3882     3973     4056 
    4120     4202     4317     4419     4484     4525     4544     4531 
    4509     4507     4523     4552     4579     4552     4448     4313 
    4183     4074     3998     3959     3933     3910     3894     3862 
    3800     3703     3559     3381     3222     3105     3013     2949 
    2938     3002     3136     3310     3495     3643     3732     3767 
    3731     3626     3511     3399     3250     3075     2936     2868 
    2886     2968     3025     2990     2917     2906     2978     3096 
    3226     3321     3333     3280     3244     3254     3254     3226 
    3233     3291     3373     3483     3546     3478     3375     3372 
    3464     3551     3555     3492     3411     3321     3276     3341 
    3460     3553     3623     3694     3777     3886     4023     4166 
    4291     4386     4453     4494     4513     4529     4526     4461 
    4321     4112     3870     3685     3604     3562     3472     3338 
    3240     3199     3214     3291     3416     3562     3720     3871 
    3998     4097     4141     4097     3989     3879     3805     3784 
    3808     3831     3824     3808     3805     3831     3909     4035 
    4168     4270     4330     4357     4374     4422     4510     4606 
    4688     4737     4718     4637     4558     4540     4556     4540 
    4469     4364     4237     4106     4018     3983     3939     3856 
    3740     3582     3384     3184     3037     2971     2971     3021 
    3106     3192     3257     3342     3430     3431     3385     3360 
    3268     3078     2883     2721     2628     2673     2822     2952 
    2970     2874     2722     2582     2509     2527     2555     2479 
    2319     2169     2073     2002     1879     1686     1526     1489 
    1584     1802     2052     2222     2326     2432     2566     2729 
    2901     3040     3134     3214     3325     3470     3611     3712 
    3775     3825     3904     4047     4225     4351     4372     4324 
    4293     4332     4402     4449     4463     4469     4503     4538 
    4531     4510     4550     4661     4781     4880     4962     5034 
    5117     5223     5308     5320     5246     5103     4934     4788 
    4683     4622     4599     4600     4622     4657     4668     4604 
    4459     4272     4078     3867     3605     3281     2944     2671 
    2513     2458     2436     2398     2343     2293     2273     2312 
    2404     2527     2663     2837     3100     3462     3846     4147 
    4333     4453     4581     4745     4897     5004     5085     5179 
    5325     5524     5710     5813     5830     5815     5814     5829 
    5817     5711     5509     5292     5134     5050     5027     5026 
    5000     4955     4892     4770     4598     4415     4239     4090 
    3994     3920     3816     3670     3505     3366     3289     3267 
    3248     3217     3171     3087     2988     2949     2967     2949 
    2870     2756     2605     2439     2334     2312     2346     2423 
    2550     2706     2884     3072     3207     3219     3122     3018 
    2986     3013     3052     3102     3179     3271     3365     3460 
    3504     3458     3353     3249     3181     3168     3202     3256 
    3302     3315     3307     3306     3327     3384     3485     3612 
    3740     3869     3993     4093     4159     4202     4236     4234 
    4156     4000     3805     3642     3562     3550     3538     3478 
    3370     3258     3187     3176     3226     3296     3306     3218 
    3052     2830     2567     2286     2003     1711     1397     1085 
     834      683      638      696      834     1011     1185     1314 
    1393     1475     1614     1811     2045     2305     2604     2948 
    3343     3793     4257     4673     5036     5387     5721     5996 
    6195     6304     6328     6316     6300     6230     6081     5890 
    5705     5564     5470     5385     5266     5085     4841     4536 
    4201     3904     3684     3534     3431     3346     3277     3260 
    3310     3388     3449     3472     3454     3427     3445     3526 
    3624     3693     3740     3778     3789     3743     3615     3427 
    3272     3217     3238     3279     3302     3289     3267     3281 
    3357     3466     3578     3689     3801     3905     3997     4094 
    4205     4297     4317     4261     4195     4178     4213     4257 
    4275     4256     4209     4156     4117     4055     3917     3715 
    3496     3304     3176     3102     3034     2980     2964     2960 
    2984     3084     3215     3292     3314     3303     3284     3287 
    3295     3292     3311     3388     3534     3730     3935     4140 
    4347     4556     4768     4969     5140     5289     5435     5589 
    5760     5935     6064     6133     6170     6172     6145     6107 
    6034     5880     5640     5341     5012     4675     4349     4037 
    3713     3339     2879     2357     1854     1428     1086      797 
     525      263       39     -112     -163     -118      -25       71 
     175      306      446      584      747      945     1169     1428 
    1711     1987     2238     2459     2655     2849     3069     3306 
    3527     3707     3832     3913     3985     4064     4149     4271 
    4437     4602     4765     4963     5188     5402     5578     5694 
    5752     5764     5705     5560     5371     5175     4977     4799 
    4641     4452     4197     3904     3616     3380     3227     3160 
    3136     3094     3010     2929     2899     2943     3044     3144 
    3187     3169     3137     3161     3288     3504     3759     3998 
    4212     4433     4683     4927     5098     5165     5147     5086 
    5020     4958     4853     4665     4415     4144     3875     3650 
    3478     3316     3132     2936     2740     2567     2428     2324 
    2255     2224     2224     2228     2203     2124     2014     1907 
    1830     1807     1838     1894     1995     2189     2457     2727 
    2968     3191     3407     3613     3804     3956     4040     4050 
    4010     3959     3915     3862     3770     3645     3523     3419 
    3334     3296     3343     3454     3568     3655     3738     3842 
    3998     4214     4463     4734     5039     5364     5667     5902 
    6061     6170     6261     6349     6411     6412     6354     6270 
    6192     6138     6079     5961     5798     5630     5451     5238 
    5000     4726     4407     4091     3792     3468     3110     2749 
    2423     2153     1942     1773     1640     1540     1479     1475 
    1541     1692     1907     2146     2400     2675     2975     3308 
    3661     4005     4320     4612     4904     5228     5595     5969 
    6303     6586     6840     7096     7350     7554     7639     7574 
    7389     7132     6831     6500     6099     5617     5097     4577 
    4078     3615     3196     2808     2435     2084     1753     1429 
    1129      874      672      537      468      445      454      504 
     608      751      896     1019     1127     1220     1306     1413 
    1549     1703     1880     2079     2263     2444     2654     2880 
    3095     3292     3456     3578     3709     3893     4091     4252 
    4361     4436     4502     4580     4685     4826     4982     5128 
    5273     5429     5576     5675     5711     5710     5694     5640 
    5545     5436     5331     5217     5078     4912     4723     4510 
    4301     4106     3897     3658     3369     3030     2691     2404 
    2170     1984     1861     1799     1744     1683     1637     1595 
    1566     1537     1462     1347     1252     1206     1216     1259 
    1300     1333     1393     1525     1742     2031     2332     2574 
    2759     2945     3176     3445     3716     3970     4180     4336 
    4477     4633     4788     4942     5077     5179     5283     5413 
    5555     5705     5849     5969     6081     6183     6259     6327 
    6374     6365     6297     6203     6112     6021     5922     5821 
    5729     5637     5540     5463     5393     5262     5057     4808 
    4542     4268     3979     3681     3392     3122     2887     2691 
    2544     2451     2378     2270     2116     1942     1788     1679 
    1603     1548     1502     1456     1408     1387     1416     1479 
    1560     1652     1752     1868     2010     2166     2326     2470 
    2602     2745     2907     3082     3254     3403     3518     3603 
    3654     3666     3663     3658     3657     3661     3658     3657 
    3676     3731     3821     3925     4021     4091     4120     4121 
    4120     4126     4168     4267     4382     4461     4504     4541 
    4552     4522     4504     4530     4552     4549     4541     4519 
    4482     4444     4375     4239     4044     3827     3607     3376 
    3144     2955     2812     2693     2593     2504     2425     2378 
    2378     2411     2452     2502     2565     2637     2747     2913 
    3114     3322     3515     3689     3869     4051     4190     4279 
    4365     4448     4518     4580     4581     4521     4429     4297 
    4148     4017     3878     3692     3470     3260     3088     2979 
    2941     2916     2852     2739     2574     2397     2254     2173 
    2170     2223     2296     2400     2566     2817     3150     3504 
    3816     4068     4270     4413     4518     4648     4833     5053 
    5267     5463     5638     5783     5883     5933     5945     5923 
    5859     5767     5663     5521     5337     5116     4866     4615 
    4357     4067     3738     3354     2909     2451     2042     1711 
    1468     1296     1152     1043      993      985     1011     1111 
    1285     1505     1753     2008     2253     2509     2786     3064 
    3315     3520     3678     3797     3901     4018     4151     4294 
    4440     4567     4650     4715     4780     4827     4842     4824 
    4769     4675     4553     4421     4282     4124     3927     3690 
    3445     3221     3036     2928     2918     2978     3072     3186 
    3318     3472     3651     3835     3955     3959     3881     3786 
    3721     3680     3628     3549     3449     3339     3226     3111 
    3017     2975     2976     2982     2998     3028     3057     3114 
    3206     3299     3370     3434     3489     3543     3634     3778 
    3952     4136     4325     4504     4684     4900     5136     5347 
    5528     5676     5786     5873     5946     5991     5981     5896 
    5745     5566     5367     5109     4776     4413     4055     3705 
    3366     3048     2737     2430     2149     1919     1723     1533 
    1343     1166     1030      972     1016     1134     1283     1463 
    1653     1856     2101     2408     2767     3164     3547     3865 
    4133     4403     4685     4947     5182     5386     5533     5624 
    5670     5656     5586     5481     5341     5177     4982     4734 
    4432     4109     3792     3483     3207     2991     2814     2637 
    2455     2293     2181     2123     2097     2091     2097     2099 
    2097     2112     2123     2104     2083     2088     2126     2189 
    2270     2380     2523     2675     2816     2955     3080     3172 
    3246     3338     3439     3518     3588     3667     3748     3846 
    3971     4113     4257     4398     4525     4646     4795     4963 
    5103     5201     5279     5359     5449     5535     5579     5578 
    5555     5547     5574     5633     5703     5745     5737     5675 
    5552     5373     5170     4963     4738     4482     4203     3939 
    3727     3585     3514     3492     3485     3469     3434     3384 
    3329     3260     3180     3098     2997     2872     2754     2652 
    2569     2486     2394     2293     2193     2111     2070     2096 
    2193     2338     2494     2659     2845     3072     3349     3622 
    3829     3955     4024     4090     4185     4295     4401     4480 
    4525     4561     4621     4707     4793     4838     4816     4770 
    4746     4727     4683     4617     4538     4433     4293     4122 
    3916     3669     3423     3226     3073     2948     2843     2739 
    2636     2555     2512     2496     2492     2484     2465     2444 
    2452     2501     2573     2664     2778     2901     3021     3142 
    3261     3362     3457     3561     3669     3782     3913     4044 
    4170     4314     4490     4685     4881     5053     5188     5294 
    5350     5310     5177     4986     4760     4513     4264     4006 
    3738     3496     3304     3148     2995     2841     2682     2535 
