Origin Time       2025/01/13 21:19:00
Lat.              31.8
Long.             131.6
Depth. (km)       30
Mag.              6.9
Station Code      YMG017
Station Lat.      33.9649
Station Long.     132.1011
Station Height(m) 1
Record Time       2025/01/13 21:20:25
Sampling Freq(Hz) 100Hz
Duration Time(s)  109
Dir.              N-S
Scale Factor      7845(gal)/8223790
Max. Acc. (gal)   9.774
Last Correction   2025/01/13 21:20:25
Memo.             
[...]
   -4621    -4612    -4603    -4564    -4496    -4379    -4244    -4126 
   -4028    -3966    -3935    -3896    -3820    -3732    -3694    -3713 
   -3751    -3807    -3916    -4090    -4313    -4561    -4797    -4988 
   -5161    -5328    -5454    -5530    -5551    -5462    -5287    -5111 
   -4980    -4934    -4982    -5076    -5161    -5225    -5290    -5378 
   -5483    -5605    -5776    -6023    -6285    -6489    -6639    -6739 
   -6755    -6713    -6694    -6739    -6820    -6893    -6922    -6899 
   -6837    -6775    -6729    -6705    -6728    -6790    -6832    -6813 
   -6760    -6723    -6713    -6721    -6748    -6775    -6777    -6718 
   -6546    -6272    -5984    -5726    -5479    -5221    -4942    -4611 
   -4205    -3780    -3423    -3148    -2934    -2817    -2814    -2903 
   -3057    -3254    -3485    -3721    -3919    -4071    -4201    -4313 
   -4415    -4542    -4702    -4881    -5055    -5197    -5300    -5360 
   -5371    -5360    -5379    -5462    -5599    -5764    -5940    -6143 
   -6384    -6633    -6866    -7051    -7156    -7173    -7098    -6918 
   -6667    -6420    -6227    -6038    -5794    -5529    -5262    -4969 
   -4698    -4509    -4413    -4406    -4486    -4664    -4924    -5209 
   -5490    -5780    -6081    -6412    -6766    -7045    -7217    -7310 
   -7299    -7195    -7017    -6709    -6284    -5860    -5541    -5356 
   -5265    -5201    -5127    -5028    -4908    -4808    -4757    -4739 
   -4765    -4812    -4824    -4827    -4889    -4993    -5098    -5211 
   -5327    -5406    -5387    -5246    -5011    -4739    -4495    -4322 
   -4237    -4197    -4172    -4189    -4226    -4252    -4293    -4355 
   -4410    -4491    -4637    -4835    -5027    -5163    -5283    -5421 
   -5521    -5587    -5703    -5859    -5995    -6123    -6246    -6334 
   -6385    -6411    -6424    -6444    -6501    -6608    -6743    -6887 
   -7030    -7157    -7258    -7337    -7377    -7346    -7256    -7121 
   -6924    -6696    -6455    -6170    -5840    -5526    -5283    -5119 
   -5019    -4978    -4993    -5042    -5116    -5200    -5263    -5256 
   -5127    -4876    -4573    -4280    -4021    -3832    -3739    -3750 
   -3861    -4023    -4178    -4307    -4405    -4471    -4513    -4522 
   -4515    -4537    -4588    -4642    -4675    -4692    -4711    -4719 
   -4704    -4687    -4692    -4737    -4822    -4932    -5046    -5139 
   -5208    -5300    -5462    -5668    -5887    -6120    -6366    -6600 
   -6824    -7025    -7172    -7249    -7245    -7155    -7005    -6809 
   -6539    -6223    -5941    -5761    -5729    -5792    -5854    -5900 
   -5929    -5911    -5841    -5728    -5559    -5344    -5124    -4927 
   -4761    -4603    -4446    -4305    -4210    -4203    -4309    -4492 
   -4698    -4878    -5031    -5205    -5404    -5578    -5694    -5721 
   -5652    -5551    -5475    -5398    -5294    -5185    -5098    -5065 
   -5049    -4976    -4870    -4777    -4683    -4604    -4585    -4621 
   -4726    -4900    -5130    -5441    -5852    -6313    -6759    -7133 
   -7410    -7587    -7688    -7720    -7684    -7616    -7550    -7492 
   -7445    -7395    -7333    -7261    -7155    -7006    -6835    -6615 
   -6358    -6138    -5969    -5837    -5699    -5497    -5240    -4977 
   -4714    -4468    -4259    -4098    -3991    -3931    -3886    -3828 
   -3761    -3693    -3619    -3549    -3504    -3492    -3496    -3481 
   -3446    -3433    -3477    -3613    -3874    -4234    -4602    -4885 
   -5059    -5175    -5293    -5428    -5587    -5767    -5927    -6037 
   -6079    -6034    -5907    -5746    -5599    -5509    -5508    -5570 
   -5636    -5670    -5667    -5649    -5640    -5653    -5671    -5672 
   -5672    -5682    -5679    -5647    -5587    -5509    -5417    -5327 
   -5250    -5194    -5182    -5204    -5246    -5323    -5427    -5553 
   -5733    -5975    -6255    -6532    -6748    -6902    -7067    -7294 
   -7574    -7877    -8178    -8449    -8671    -8830    -8895    -8856 
   -8739    -8588    -8441    -8295    -8118    -7920    -7711    -7469 
   -7214    -6967    -6704    -6388    -6008    -5579    -5135    -4712 
   -4352    -4044    -3717    -3331    -2930    -2559    -2216    -1904 
   -1613    -1335    -1107     -919     -724     -560     -502     -575 
    -788    -1131    -1553    -2033    -2548    -3059    -3546    -4001 
   -4411    -4787    -5144    -5494    -5844    -6193    -6486    -6691 
   -6870    -7090    -7364    -7666    -7954    -8201    -8374    -8429 
   -8374    -8291    -8247    -8233    -8218    -8176    -8121    -8077 
   -8021    -7915    -7746    -7496    -7176    -6821    -6455    -6115 
   -5848    -5671    -5552    -5440    -5300    -5136    -4973    -4827 
   -4695    -4552    -4386    -4209    -4028    -3848    -3697    -3593 
   -3535    -3543    -3639    -3781    -3908    -4001    -4062    -4104 
   -4170    -4270    -4365    -4441    -4498    -4552    -4639    -4756 
   -4846    -4897    -4961    -5089    -5290    -5522    -5736    -5900 
   -6019    -6110    -6173    -6222    -6266    -6297    -6322    -6338 
   -6323    -6268    -6168    -6016    -5841    -5683    -5576    -5518 
   -5501    -5505    -5524    -5583    -5699    -5856    -6056    -6319 
   -6594    -6768    -6781    -6678    -6507    -6266    -5953    -5582 
   -5146    -4650    -4132    -3632    -3222    -2979    -2911    -2986 
   -3176    -3450    -3763    -4108    -4457    -4745    -4970    -5188 
   -5387    -5544    -5678    -5805    -5946    -6120    -6305    -6458 
   -6554    -6570    -6477    -6288    -6060    -5832    -5605    -5387 
   -5178    -4974    -4811    -4710    -4653    -4626    -4652    -4762 
   -4966    -5223    -5478    -5688    -5821    -5845    -5722    -5472 
   -5169    -4877    -4645    -4514    -4468    -4465    -4488    -4519 
   -4533    -4542    -4568    -4625    -4752    -4978    -5286    -5628 
   -5922    -6083    -6100    -6039    -5962    -5898    -5863    -5844 
   -5778    -5607    -5320    -4942    -4534    -4153    -3825    -3557 
   -3350    -3227    -3229    -3353    -3573    -3888    -4275    -4658 
   -4946    -5076    -5059    -4976    -4915    -4931    -5032    -5194 
   -5402    -5660    -5996    -6403    -6832    -7238    -7600    -7901 
   -8145    -8357    -8544    -8677    -8742    -8726    -8621    -8440 
   -8228    -8004    -7761    -7491    -7180    -6808    -6373    -5917 
   -5474    -5046    -4612    -4187    -3823    -3547    -3361    -3260 
   -3242    -3303    -3418    -3554    -3700    -3885    -4131    -4436 
   -4792    -5165    -5514    -5829    -6110    -6367    -6593    -6783 
   -6939    -7033    -7059    -7059    -7045    -7009    -6971    -6941 
   -6906    -6894    -6934    -7044    -7236    -7454    -7591    -7604 
   -7527    -7385    -7173    -6868    -6474    -6039    -5613    -5215 
   -4841    -4486    -4153    -3843    -3564    -3327    -3152    -3076 
   -3106    -3195    -3312    -3477    -3682    -3896    -4136    -4432 
   -4738    -5004    -5219    -5381    -5494    -5570    -5584    -5517 
   -5405    -5314    -5300    -5389    -5560    -5761    -5979    -6220 
   -6490    -6797    -7141    -7481    -7751    -7913    -7969    -7952 
   -7898    -7819    -7726    -7612    -7437    -7159    -6787    -6338 
   -5830    -5333    -4895    -4502    -4158    -3848    -3535    -3223 
   -2960    -2764    -2631    -2551    -2536    -2608    -2768    -2980 
   -3196    -3388    -3530    -3618    -3676    -3716    -3715    -3665 
   -3570    -3433    -3264    -3088    -2936    -2830    -2758    -2683 
   -2586    -2488    -2452    -2505    -2608    -2735    -2893    -3117 
   -3480    -4013    -4671    -5395    -6143    -6871    -7541    -8135 
   -8625    -8997    -9271    -9463    -9590    -9666    -9688    -9680 
   -9686    -9729    -9807    -9903    -9977    -9988    -9923    -9778 
   -9532    -9205    -8834    -8452    -8105    -7811    -7546    -7312 
   -7126    -6978    -6839    -6682    -6496    -6303    -6130    -5960 
   -5744    -5439    -5036    -4585    -4174    -3851    -3623    -3474 
   -3376    -3295    -3223    -3129    -2980    -2789    -2567    -2346 
   -2191    -2124    -2127    -2182    -2268    -2354    -2447    -2539 
   -2613    -2709    -2871    -3094    -3325    -3511    -3636    -3742 
   -3877    -4077    -4348    -4679    -5050    -5432    -5790    -6124 
   -6461    -6785    -7071    -7321    -7550    -7747    -7906    -8044 
   -8174    -8298    -8444    -8622    -8802    -8935    -9012    -9045 
   -9046    -9020    -8950    -8810    -8595    -8324    -8024    -7697 
   -7318    -6885    -6435    -6007    -5653    -5416    -5289    -5248 
   -5277    -5347    -5436    -5522    -5593    -5637    -5624    -5547 
   -5420    -5256    -5094    -4958    -4824    -4638    -4376    -4058 
   -3697    -3298    -2863    -2424    -1995    -1583    -1212     -895 
    -641     -467     -395     -425     -521     -661     -847    -1074 
   -1351    -1668    -1972    -2257    -2536    -2805    -3086    -3414 
   -3780    -4163    -4553    -4943    -5347    -5790    -6280    -6781 
   -7242    -7658    -8055    -8445    -8837    -9240    -9648   -10050 
  -10447   -10817   -11115   -11294   -11335   -11268   -11110   -10852 
  -10470    -9945    -9293    -8556    -7762    -6920    -6031    -5123 
   -4248    -3445    -2727    -2114    -1634    -1294    -1082     -999 
   -1035    -1155    -1313    -1489    -1683    -1903    -2161    -2469 
   -2802    -3118    -3404    -3659    -3905    -4194    -4554    -4965 
   -5408    -5894    -6439    -7034    -7635    -8202    -8733    -9236 
   -9711   -10160   -10569   -10885   -11071   -11117   -11032   -10844 
  -10565   -10184    -9693    -9084    -8379    -7635    -6895    -6178 
   -5505    -4897    -4388    -3982    -3626    -3267    -2899    -2558 
   -2274    -2043    -1846    -1691    -1583    -1529    -1537    -1610 
   -1745    -1925    -2116    -2304    -2485    -2658    -2844    -3040 
   -3202    -3295    -3304    -3245    -3149    -3045    -2951    -2880 
   -2853    -2860    -2891    -2953    -3025    -3084    -3129    -3129 
   -3072    -2987    -2909    -2862    -2870    -2949    -3126    -3408 
   -3754    -4097    -4401    -4677    -4962    -5266    -5541    -5763 
   -5952    -6161    -6481    -6970    -7585    -8262    -8970    -9688 
  -10389   -11060   -11684   -12225   -12654   -12954   -13116   -13147 
  -13076   -12945   -12762   -12510   -12183   -11792   -11360   -10894 
  -10357    -9713    -8981    -8209    -7439    -6727    -6111    -5606 
   -5197    -4839    -4482    -4110    -3735    -3341    -2876    -2319 
   -1695    -1028     -334      371     1065     1701     2238     2637 
    2867     2920     2809     2551     2173     1692     1117      434 
    -372    -1267    -2162    -2994    -3786    -4600    -5455    -6345 
   -7241    -8097    -8876    -9540   -10073   -10497   -10829   -11071 
  -11232   -11307   -11290   -11198   -11063   -10886   -10654   -10362 
  -10031    -9686    -9336    -8985    -8646    -8320    -7971    -7568 
   -7122    -6678    -6266    -5903    -5582    -5309    -5105    -4951 
   -4820    -4695    -4542    -4364    -4206    -4087    -3997    -3932 
   -3893    -3890    -3940    -4028    -4149    -4315    -4511    -4706 
   -4885    -5034    -5119    -5134    -5119    -5096    -5044    -4974 
   -4916    -4873    -4830    -4783    -4749    -4753    -4793    -4870 
   -4976    -5081    -5170    -5238    -5244    -5173    -5026    -4826 
   -4619    -4425    -4220    -3982    -3705    -3379    -3006    -2619 
   -2269    -1987    -1769    -1644    -1645    -1771    -2000    -2316 
   -2709    -3171    -3676    -4199    -4750    -5323    -5902    -6486 
   -7074    -7635    -8174    -8688    -9146    -9493    -9691    -9749 
   -9713    -9629    -9544    -9490    -9481    -9509    -9539    -9504 
   -9362    -9113    -8791    -8473    -8228    -8056    -7915    -7739 
   -7500    -7207    -6885    -6558    -6227    -5881    -5526    -5165 
   -4779    -4355    -3925    -3553    -3279    -3086    -2948    -2832 
   -2697    -2513    -2268    -1957    -1594    -1182     -747     -360 
     -81       86      153      108      -71     -398     -862    -1422 
   -2041    -2706    -3412    -4143    -4850    -5508    -6143    -6789 
   -7447    -8110    -8777    -9424    -9985   -10409   -10700   -10887 
  -10990   -11003   -10916   -10717   -10447   -10149    -9842    -9531 
   -9192    -8831    -8518    -8297    -8132    -7978    -7815    -7618 
   -7365    -7051    -6673    -6237    -5765    -5275    -4791    -4342 
   -3936    -3549    -3184    -2852    -2540    -2218    -1846    -1418 
    -967     -531     -130      243      599      919     1170     1304 
    1275     1121      896      592      202     -255     -749    -1267 
   -1841    -2477    -3167    -3933    -4781    -5667    -6542    -7376 
   -8167    -8932    -9657   -10289   -10790   -11156   -11416   -11603 
  -11724   -11773   -11740   -11658   -11605   -11627   -11703   -11794 
  -11857   -11877   -11877   -11863   -11813   -11718   -11577   -11392 
  -11145   -10820   -10411    -9898    -9263    -8519    -7699    -6790 
   -5775    -4683    -3557    -2423    -1301     -193      899     1921 
    2806     3522     4058     4414     4612     4703     4734     4725 
    4664     4506     4221     3813     3277     2605     1831      997 
     124     -774    -1695    -2654    -3653    -4692    -5773    -6872 
   -7970    -9073   -10161   -11179   -12113   -12981   -13782   -14481 
  -15034   -15425   -15650   -15695   -15558   -15260   -14810   -14229 
  -13525   -12704   -11793   -10836    -9860    -8870    -7879    -6924 
   -6039    -5223    -4453    -3744    -3109    -2543    -2039    -1591 
   -1188     -816     -457      -93      284      634      899     1042 
    1067     1044     1027      999      919      787      630      467 
     271       21     -307     -760    -1351    -2052    -2820    -3604 
   -4384    -5188    -6038    -6912    -7767    -8587    -9352   -10025 
  -10546   -10887   -11049   -11040   -10891   -10629   -10274    -9871 
   -9464    -9085    -8735    -8397    -8054    -7717    -7389    -7063 
   -6748    -6447    -6137    -5817    -5485    -5121    -4745    -4394 
   -4087    -3834    -3627    -3464    -3341    -3260    -3217    -3200 
   -3221    -3289    -3407    -3591    -3846    -4133    -4421    -4725 
   -5058    -5405    -5725    -5980    -6150    -6220    -6187    -6080 
   -5949    -5825    -5736    -5706    -5738    -5815    -5911    -6004 
   -6080    -6123    -6150    -6166    -6147    -6112    -6093    -6084 
   -6057    -5975    -5819    -5624    -5425    -5225    -5022    -4818 
   -4634    -4506    -4440    -4433    -4495    -4622    -4791    -4974 
   -5147    -5329    -5570    -5888    -6265    -6654    -7014    -7362 
   -7727    -8066    -8329    -8518    -8656    -8756    -8806    -8800 
   -8764    -8702    -8592    -8414    -8190    -7959    -7738    -7526 
   -7330    -7142    -6951    -6741    -6511    -6273    -6031    -5761 
   -5439    -5061    -4631    -4179    -3753    -3396    -3118    -2917 
   -2798    -2758    -2782    -2847    -2933    -3042    -3187    -3368 
   -3586    -3844    -4091    -4267    -4378    -4461    -4526    -4575 
   -4619    -4669    -4722    -4758    -4764    -4739    -4688    -4610 
   -4514    -4418    -4321    -4222    -4108    -3975    -3879    -3879 
   -3971    -4094    -4212    -4325    -4450    -4572    -4683    -4783 
   -4869    -4963    -5108    -5286    -5449    -5610    -5792    -5968 
   -6122    -6284    -6490    -6727    -6951    -7150    -7318    -7443 
   -7530    -7591    -7647    -7731    -7859    -8035    -8233    -8392 
   -8480    -8496    -8437    -8306    -8117    -7873    -7591    -7281 
   -6945    -6575    -6170    -5742    -5323    -4936    -4583    -4253 
   -3928    -3605    -3273    -2913    -2550    -2181    -1786    -1393 
   -1032     -746     -545     -383     -249     -167     -143     -197 
    -344     -556     -807    -1092    -1424    -1830    -2335    -2925 
   -3565    -4255    -4984    -5726    -6453    -7142    -7796    -8409 
   -8976    -9504   -10000   -10455   -10854   -11175   -11402   -11543 
  -11611   -11634   -11653   -11664   -11638   -11549   -11394   -11198 
  -10993   -10758   -10477   -10158    -9801    -9408    -8993    -8557 
   -8085    -7558    -6949    -6254    -5506    -4752    -4032    -3360 
   -2743    -2181    -1651    -1131     -606      -82      413      854 
    1196     1383     1409     1289     1038      685      233     -328 
   -1007    -1792    -2624    -3466    -4330    -5186    -5988    -6728 
   -7406    -8021    -8580    -9094    -9553    -9917   -10156   -10301 
  -10404   -10470   -10465   -10354   -10166    -9950    -9718    -9456 
   -9154    -8816    -8455    -8094    -7747    -7388    -7009    -6613 
   -6193    -5730    -5219    -4661    -4101    -3599    -3187    -2857 
   -2585    -2336    -2110    -1906    -1713    -1536    -1382    -1239 
   -1102     -963     -826     -708     -629     -596     -630     -733 
    -915    -1205    -1587    -2027    -2508    -2992    -3441    -3862 
   -4274    -4652    -4978    -5265    -5520    -5746    -5950    -6139 
   -6303    -6407    -6459    -6504    -6536    -6539    -6535    -6542 
   -6577    -6652    -6772    -6948    -7183    -7472    -7819    -8213 
   -8618    -9027    -9445    -9845   -10197   -10493   -10725   -10901 
  -11036   -11122   -11141   -11099   -10995   -10806   -10544   -10227 
   -9852    -9428    -8977    -8506    -8019    -7519    -7003    -6463 
   -5900    -5339    -4806    -4286    -3758    -3237    -2756    -2334 
   -1950    -1571    -1182     -792     -414      -55      279      583 
     835     1016     1101     1071      931      689      344      -87 
    -556    -1023    -1489    -1956    -2430    -2906    -3391    -3909 
   -4487    -5131    -5813    -6484    -7109    -7681    -8205    -8681 
   -9082    -9394    -9643    -9856   -10027   -10143   -10207   -10223 
  -10204   -10172   -10138   -10083   -10003    -9922    -9842    -9764 
   -9697    -9630    -9548    -9429    -9250    -8999    -8683    -8303 
   -7850    -7329    -6747    -6095    -5395    -4666    -3897    -3103 
   -2305    -1533     -847     -251      288      764     1136     1390 
    1529     1580     1574     1512     1402     1246     1030      792 
     561      333      106     -133     -423     -765    -1132    -1529 
   -1981    -2497    -3063    -3658    -4270    -4903    -5568    -6257 
   -6945    -7619    -8279    -8924    -9545   -10141   -10705   -11219 
  -11674   -12067   -12391   -12646   -12834   -12949   -12989   -12964 
  -12870   -12734   -12568   -12344   -12058   -11718   -11321   -10874 
  -10373    -9810    -9200    -8550    -7869    -7160    -6409    -5614 
   -4787    -3931    -3064    -2218    -1405     -654        8      616 
    1177     1671     2101     2459     2722     2902     2992     2976 
    2824     2512     2073     1545      931      230     -546    -1394 
   -2292    -3199    -4085    -4934    -5732    -6469    -7138    -7743 
   -8297    -8787    -9197    -9545    -9836   -10065   -10242   -10380 
  -10494   -10604   -10716   -10818   -10886   -10914   -10909   -10891 
  -10894   -10905   -10875   -10785   -10628   -10401   -10116    -9787 
   -9387    -8903    -8360    -7780    -7196    -6604    -5967    -5298 
