Origin Time       2025/01/13 21:19:00
Lat.              31.8
Long.             131.6
Depth. (km)       30
Mag.              6.9
Station Code      YMG008
Station Lat.      34.0119
Station Long.     131.4099
Station Height(m) 5
Record Time       2025/01/13 21:20:45
Sampling Freq(Hz) 100Hz
Duration Time(s)  60
Dir.              U-D
Scale Factor      7845(gal)/8223790
Max. Acc. (gal)   1.222
Last Correction   2025/01/13 21:20:44
Memo.             
[...]
   -1413    -1377    -1325    -1302    -1323    -1339    -1308    -1260 
   -1242    -1254    -1286    -1324    -1354    -1358    -1332    -1301 
   -1286    -1298    -1327    -1355    -1366    -1343    -1305    -1285 
   -1279    -1269    -1232    -1182    -1166    -1197    -1239    -1254 
   -1237    -1212    -1196    -1197    -1206    -1205    -1204    -1225 
   -1267    -1318    -1351    -1354    -1331    -1300    -1282    -1290 
   -1308    -1309    -1262    -1192    -1170    -1221    -1297    -1318 
   -1263    -1196    -1170    -1189    -1205    -1165    -1107    -1098 
   -1139    -1188    -1200    -1186    -1198    -1236    -1254    -1224 
   -1167    -1134    -1132    -1139    -1138    -1131    -1121    -1107 
   -1092    -1090    -1096    -1107    -1134    -1166    -1173    -1154 
   -1148    -1171    -1194    -1205    -1217    -1221    -1193    -1151 
   -1148    -1185    -1223    -1236    -1227    -1213    -1221    -1235 
   -1223    -1192    -1156    -1117    -1094    -1100    -1115    -1119 
   -1112    -1113    -1144    -1175    -1166    -1143    -1150    -1198 
   -1263    -1286    -1246    -1205    -1216    -1246    -1262    -1271 
   -1281    -1301    -1321    -1300    -1237    -1192    -1173    -1147 
   -1100    -1035     -969     -939     -954     -978     -997    -1000 
    -985     -986    -1032    -1111    -1196    -1262    -1286    -1274 
   -1255    -1244    -1244    -1260    -1271    -1269    -1283    -1309 
   -1305    -1279    -1255    -1232    -1227    -1242    -1252    -1251 
   -1239    -1213    -1209    -1255    -1309    -1328    -1306    -1266 
   -1239    -1210    -1144    -1054     -989     -984    -1012    -1011 
    -953     -882     -872     -909     -896     -812     -742     -741 
    -778     -793     -760     -737     -781     -854     -881     -857 
    -854     -913     -999    -1047    -1044    -1028    -1031    -1050 
   -1054    -1012     -959     -953     -967     -959     -943     -939 
    -939     -942     -950     -949     -945     -966    -1007    -1055 
   -1098    -1092    -1032     -984    -1009    -1093    -1159    -1159 
   -1124    -1136    -1216    -1293    -1298    -1229    -1154    -1142 
   -1174    -1178    -1143    -1113    -1134    -1206    -1286    -1341 
   -1379    -1410    -1425    -1424    -1439    -1480    -1518    -1536 
   -1528    -1513    -1520    -1545    -1579    -1610    -1605    -1575 
   -1552    -1526    -1498    -1480    -1459    -1418    -1371    -1318 
   -1255    -1216    -1239    -1302    -1363    -1394    -1398    -1402 
   -1420    -1448    -1479    -1495    -1475    -1424    -1393    -1404 
   -1433    -1445    -1408    -1329    -1266    -1232    -1186    -1113 
   -1027     -961     -959     -994    -1004     -985     -990    -1027 
   -1062    -1058    -1005     -962    -1000    -1082    -1123    -1116 
   -1101    -1098    -1108    -1105    -1107    -1147    -1201    -1223 
   -1216    -1221    -1269    -1360    -1456    -1491    -1463    -1425 
   -1433    -1474    -1474    -1397    -1309    -1277    -1290    -1314 
   -1331    -1317    -1275    -1247    -1243    -1227    -1204    -1193 
   -1192    -1198    -1198    -1183    -1194    -1237    -1270    -1287 
   -1314    -1327    -1308    -1287    -1270    -1251    -1254    -1262 
   -1243    -1197    -1140    -1093    -1073    -1057    -1021     -984 
    -967     -970     -984    -1003    -1016    -1024    -1043    -1062 
   -1062    -1051    -1050    -1069    -1097    -1104    -1070    -1021 
    -993    -1000    -1030    -1047    -1030    -1028    -1061    -1077 
   -1085    -1139    -1244    -1362    -1440    -1453    -1439    -1455 
   -1514    -1583    -1610    -1570    -1499    -1464    -1463    -1451 
   -1414    -1356    -1310    -1300    -1282    -1227    -1183    -1193 
   -1219    -1215    -1169    -1116    -1120    -1183    -1239    -1250 
   -1228    -1202    -1216    -1259    -1270    -1225    -1156    -1098 
   -1082    -1093    -1073    -1012     -969     -981    -1012    -1013 
    -973     -928     -938    -1003    -1062    -1073    -1055    -1077 
   -1163    -1243    -1227    -1127    -1034    -1000    -1013    -1043 
   -1054    -1043    -1042    -1053    -1051    -1032    -1011    -1011 
   -1046    -1089    -1119    -1150    -1178    -1188    -1189    -1198 
   -1205    -1201    -1192    -1174    -1167    -1185    -1206    -1197 
   -1151    -1100    -1096    -1129    -1143    -1119    -1092    -1088 
   -1098    -1111    -1124    -1156    -1197    -1202    -1167    -1144 
   -1154    -1181    -1198    -1173    -1109    -1066    -1077    -1107 
   -1105    -1080    -1059    -1062    -1094    -1139    -1162    -1156 
   -1123    -1070    -1044    -1065    -1090    -1092    -1073    -1062 
   -1089    -1138    -1161    -1144    -1125    -1128    -1162    -1206 
   -1223    -1236    -1301    -1378    -1395    -1359    -1325    -1331 
   -1359    -1355    -1304    -1254    -1239    -1239    -1229    -1205 
   -1169    -1143    -1131    -1104    -1059    -1030    -1036    -1059 
   -1069    -1074    -1108    -1158    -1173    -1140    -1097    -1067 
   -1057    -1040     -981     -912     -903     -940     -966     -970 
    -962     -942     -913     -892     -886     -903     -928     -951 
    -993    -1053    -1093    -1115    -1144    -1159    -1152    -1144 
   -1127    -1109    -1129    -1173    -1201    -1190    -1131    -1059 
   -1019     -996     -947     -905     -907     -909     -888     -869 
    -877     -924     -990    -1042    -1080    -1132    -1204    -1262 
   -1277    -1255    -1242    -1263    -1285    -1250    -1197    -1202 
   -1279    -1360    -1371    -1320    -1282    -1285    -1275    -1229 
   -1193    -1196    -1239    -1287    -1281    -1224    -1204    -1273 
   -1383    -1448    -1414    -1327    -1274    -1277    -1290    -1285 
   -1271    -1270    -1273    -1274    -1274    -1283    -1297    -1294 
   -1275    -1250    -1225    -1228    -1251    -1251    -1229    -1204 
   -1174    -1159    -1177    -1193    -1174    -1131    -1096    -1108 
   -1175    -1239    -1243    -1209    -1213    -1281    -1360    -1395 
   -1383    -1370    -1389    -1426    -1432    -1385    -1318    -1298 
   -1333    -1366    -1352    -1320    -1310    -1335    -1366    -1374 
   -1366    -1368    -1387    -1395    -1360    -1278    -1201    -1205 
   -1281    -1329    -1302    -1233    -1173    -1158    -1167    -1155 
   -1132    -1112    -1077    -1043    -1036    -1048    -1070    -1089 
   -1092    -1078    -1065    -1053    -1034    -1026    -1038    -1070 
   -1100    -1078    -1012     -959     -957    -1012    -1081    -1097 
   -1050     -992     -949     -913     -900     -927     -969     -986 
    -966     -919     -888     -924    -1005    -1063    -1065    -1027 
    -997    -1024    -1097    -1144    -1143    -1135    -1151    -1188 
   -1219    -1213    -1171    -1129    -1111    -1101    -1065     -982 
    -903     -891     -932     -973     -982     -954     -922     -939 
    -985     -988     -938     -878     -847     -843     -849     -866 
    -928    -1038    -1135    -1171    -1179    -1200    -1232    -1248 
   -1237    -1236    -1273    -1323    -1351    -1354    -1325    -1282 
   -1269    -1300    -1321    -1296    -1233    -1155    -1107    -1117 
   -1138    -1120    -1074    -1036    -1059    -1129    -1177    -1174 
   -1148    -1131    -1116    -1078    -1009     -942     -928     -949 
    -936     -885     -837     -832     -886     -947     -954     -927 
    -919     -936     -976    -1015    -1036    -1085    -1171    -1215 
   -1178    -1131    -1121    -1136    -1155    -1162    -1162    -1174 
   -1197    -1224    -1260    -1309    -1340    -1335    -1296    -1240 
   -1216    -1259    -1331    -1382    -1397    -1381    -1363    -1368 
   -1381    -1386    -1379    -1345    -1294    -1250    -1215    -1188 
   -1175    -1167    -1155    -1139    -1109    -1065    -1035    -1024 
   -1015    -1003     -969     -904     -843     -828     -853     -889 
    -930     -978    -1028    -1048    -1024    -1001    -1042    -1120 
   -1161    -1142    -1094    -1062    -1078    -1125    -1144    -1131 
   -1112    -1093    -1081    -1066    -1039    -1024    -1024    -1007 
    -989     -996    -1013    -1034    -1070    -1123    -1188    -1259 
   -1304    -1310    -1320    -1341    -1331    -1282    -1229    -1202 
   -1212    -1244    -1258    -1244    -1243    -1286    -1362    -1416 
   -1420    -1395    -1372    -1374    -1406    -1441    -1441    -1425 
   -1416    -1398    -1372    -1360    -1358    -1358    -1372    -1395 
   -1405    -1393    -1372    -1370    -1399    -1431    -1422    -1389 
   -1374    -1387    -1398    -1374    -1320    -1281    -1286    -1324 
   -1356    -1354    -1331    -1329    -1363    -1399    -1409    -1402 
   -1389    -1371    -1372    -1391    -1394    -1374    -1360    -1371 
   -1389    -1381    -1343    -1317    -1328    -1320    -1262    -1194 
   -1154    -1139    -1116    -1043     -957     -926     -950     -967 
    -920     -814     -734     -731     -761     -766     -753     -753 
    -768     -787     -792     -772     -764     -796     -835     -838 
    -805     -766     -758     -800     -851     -876     -901     -947 
    -996    -1034    -1055    -1073    -1104    -1147    -1209    -1301 
   -1381    -1408    -1398    -1381    -1345    -1290    -1252    -1240 
   -1224    -1198    -1163    -1129    -1113    -1105    -1098    -1088 
   -1044     -977     -930     -915     -893     -842     -781     -756 
    -774     -808     -834     -873     -930     -997    -1077    -1150 
   -1198    -1247    -1298    -1312    -1289    -1297    -1358    -1432 
   -1485    -1507    -1512    -1532    -1574    -1614    -1649    -1682 
   -1705    -1721    -1729    -1719    -1705    -1702    -1707    -1702 
   -1682    -1653    -1630    -1607    -1570    -1529    -1494    -1458 
   -1416    -1386    -1370    -1355    -1332    -1293    -1244    -1210 
   -1209    -1228    -1256    -1275    -1262    -1243    -1277    -1344 
   -1377    -1341    -1278    -1255    -1283    -1308    -1294    -1264 
   -1252    -1258    -1263    -1248    -1215    -1182    -1163    -1148 
   -1116    -1053     -989     -973     -985     -970     -918     -865 
    -842     -865     -918     -950     -935     -907     -899     -918 
    -938     -912     -874     -915    -1024    -1113    -1139    -1127 
   -1124    -1148    -1178    -1183    -1170    -1161    -1162    -1175 
   -1188    -1173    -1159    -1175    -1189    -1188    -1190    -1205 
   -1232    -1277    -1327    -1371    -1405    -1420    -1420    -1412 
   -1404    -1405    -1416    -1413    -1382    -1337    -1308    -1296 
   -1277    -1233    -1173    -1139    -1148    -1169    -1169    -1165 
   -1173    -1190    -1210    -1209    -1185    -1179    -1196    -1198 
   -1186    -1171    -1170    -1197    -1228    -1235    -1221    -1198 
   -1165    -1125    -1097    -1085    -1098    -1117    -1124    -1147 
   -1201    -1247    -1266    -1281    -1301    -1313    -1305    -1270 
   -1231    -1244    -1304    -1347    -1360    -1359    -1345    -1332 
   -1304    -1248    -1197    -1200    -1260    -1321    -1332    -1302 
   -1287    -1309    -1329    -1314    -1269    -1198    -1140    -1123 
   -1109    -1075    -1048    -1042    -1043    -1047    -1039    -1016 
   -1003    -1013    -1021    -1011     -986     -962     -959     -972 
    -953     -915     -913     -957    -1011    -1042    -1034    -1011 
   -1017    -1061    -1107    -1109    -1053    -1004    -1015    -1046 
   -1046    -1030    -1020    -1031    -1074    -1129    -1165    -1171 
   -1173    -1209    -1282    -1340    -1345    -1324    -1318    -1323 
   -1327    -1340    -1340    -1321    -1309    -1300    -1304    -1335 
   -1359    -1359    -1363    -1383    -1409    -1445    -1475    -1468 
   -1452    -1463    -1486    -1505    -1512    -1497    -1479    -1483 
   -1502    -1530    -1561    -1583    -1588    -1579    -1561    -1556 
   -1561    -1551    -1513    -1491    -1513    -1555    -1561    -1502 
   -1405    -1335    -1314    -1286    -1202    -1080     -963     -886 
    -841     -784     -730     -718     -735     -741     -719     -668 
    -606     -568     -561     -567     -573     -575     -569     -588 
    -639     -691     -745     -796     -804     -783     -795     -837 
    -889     -940     -965     -969     -966     -958     -963     -985 
    -994    -1001    -1031    -1071    -1107    -1135    -1154    -1155 
   -1158    -1189    -1239    -1258    -1223    -1154    -1102    -1088 
   -1090    -1093    -1081    -1053    -1030    -1030    -1016     -961 
    -892     -850     -851     -880     -899     -901     -908     -930 
    -970    -1032    -1094    -1138    -1174    -1213    -1235    -1237 
   -1252    -1309    -1420    -1544    -1622    -1663    -1699    -1741 
   -1786    -1821    -1838    -1838    -1830    -1823    -1817    -1825 
   -1861    -1912    -1935    -1903    -1845    -1810    -1804    -1798 
   -1780    -1757    -1740    -1726    -1695    -1630    -1548    -1503 
   -1509    -1530    -1529    -1495    -1470    -1487    -1499    -1452 
   -1383    -1354    -1377    -1418    -1421    -1360    -1291    -1290 
   -1356    -1441    -1482    -1452    -1395    -1359    -1321    -1259 
   -1169    -1059     -970     -926     -892     -835     -778     -735 
    -699     -673     -648     -604     -550     -499     -459     -445 
    -444     -422     -382     -334     -279     -217     -167     -128 
     -86      -49      -25        0       45       95      113       83 
      40        1      -44      -85     -109     -133     -160     -172 
    -182     -220     -286     -341     -353     -342     -364     -441 
    -531     -588     -603     -596     -606     -656     -711     -731 
    -722     -704     -689     -681     -665     -637     -629     -653 
    -687     -735     -795     -841     -881     -931     -986    -1048 
   -1123    -1192    -1246    -1291    -1337    -1395    -1475    -1564 
   -1633    -1679    -1713    -1746    -1804    -1872    -1899    -1892 
   -1898    -1930    -1969    -1989    -1979    -1975    -1999    -2018 
   -2008    -1992    -1979    -1966    -1945    -1906    -1868    -1857 
   -1844    -1780    -1679    -1588    -1529    -1502    -1490    -1452 
   -1405    -1382    -1363    -1318    -1254    -1204    -1202    -1237 
   -1259    -1236    -1181    -1131    -1123    -1140    -1129    -1092 
   -1084    -1117    -1174    -1232    -1251    -1229    -1216    -1217 
   -1193    -1127    -1061    -1047    -1078    -1100    -1069    -1011 
    -970     -963     -977     -994     -996     -976     -939     -900 
    -881     -896     -926     -949     -955     -932     -884     -847 
    -843     -857     -862     -853     -828     -797     -770     -766 
    -788     -807     -808     -801     -803     -815     -846     -897 
    -935     -934     -911     -904     -938    -1013    -1080    -1088 
   -1062    -1046    -1078    -1159    -1248    -1304    -1333    -1360 
   -1379    -1381    -1372    -1370    -1393    -1439    -1462    -1440 
   -1394    -1363    -1362    -1378    -1383    -1364    -1360    -1399 
   -1458    -1502    -1517    -1522    -1552    -1591    -1598    -1583 
   -1571    -1564    -1556    -1540    -1501    -1452    -1422    -1414 
   -1417    -1414    -1395    -1362    -1321    -1285    -1251    -1212 
   -1174    -1158    -1150    -1124    -1089    -1086    -1129    -1185 
   -1231    -1252    -1246    -1235    -1251    -1273    -1285    -1291 
   -1278    -1258    -1264    -1290    -1305    -1313    -1314    -1320 
   -1351    -1387    -1397    -1387    -1377    -1368    -1367    -1355 
   -1327    -1314    -1324    -1325    -1316    -1314    -1308    -1278 
   -1227    -1161    -1105    -1080    -1053    -1003     -963     -945 
    -930     -920     -911     -904     -930     -988    -1038    -1048 
   -1031    -1020    -1036    -1057    -1065    -1065    -1081    -1120 
   -1150    -1142    -1113    -1102    -1123    -1143    -1142    -1127 
   -1105    -1090    -1101    -1121    -1127    -1135    -1165    -1194 
   -1202    -1183    -1150    -1131    -1146    -1173    -1188    -1194 
   -1213    -1247    -1287    -1331    -1395    -1485    -1584    -1667 
   -1722    -1756    -1796    -1856    -1899    -1906    -1900    -1904 
   -1911    -1910    -1902    -1900    -1915    -1933    -1917    -1858 
   -1777    -1718    -1698    -1682    -1632    -1570    -1520    -1493 
   -1489    -1489    -1464    -1421    -1379    -1347    -1318    -1291 
   -1269    -1244    -1216    -1175    -1123    -1081    -1057    -1031 
   -1019    -1013     -992     -969     -965     -961     -957     -973 
    -990     -984     -972     -980    -1004    -1035    -1040     -996 
    -924     -865     -847     -850     -832     -774     -710     -675 
    -665     -660     -639     -595     -545     -521     -523     -548 
    -589     -627     -646     -653     -669     -718     -773     -797 
    -800     -805     -812     -810     -811     -816     -823     -839 
    -843     -819     -791     -770     -774     -812     -869     -912 
    -927     -922     -911     -915     -945     -973     -984    -1000 
   -1032    -1073    -1117    -1151    -1154    -1135    -1116    -1093 
   -1062    -1039    -1043    -1065    -1084    -1090    -1094    -1117 
   -1148    -1167    -1169    -1151    -1128    -1129    -1150    -1151 
   -1120    -1071    -1035    -1030    -1039    -1026    -1001     -984 
    -981     -997    -1008     -982     -936     -893     -862     -858 
    -878     -909     -947    -1001    -1065    -1121    -1174    -1225 
   -1286    -1358    -1408    -1422    -1445    -1480    -1501    -1512 
   -1548    -1617    -1694    -1746    -1771    -1792    -1827    -1857 
   -1880    -1898    -1894    -1863    -1818    -1775    -1728    -1669 
   -1610    -1586    -1593    -1571    -1501    -1424    -1375    -1356 
   -1352    -1323    -1250    -1178    -1152    -1165    -1171    -1152 
   -1123    -1107    -1101    -1092    -1073    -1063    -1067    -1062 
   -1034     -999     -992    -1017    -1040    -1036    -1017    -1003 
   -1003    -1019    -1036    -1054    -1086    -1119    -1131    -1131 
   -1125    -1108    -1089    -1081    -1077    -1074    -1074    -1062 
   -1044    -1047    -1062    -1073    -1080    -1071    -1048    -1032 
   -1024    -1007     -988     -988    -1008    -1027    -1019     -982 
    -947     -936     -946     -969     -977     -959     -949     -958 
    -965     -942     -903     -880     -880     -878     -861     -835 
    -822     -832     -862     -893     -900     -891     -885     -877 
    -858     -837     -823     -823     -828     -841     -865     -905 
    -959    -1017    -1074    -1134    -1173    -1185    -1188    -1193 
   -1221    -1291    -1383    -1466    -1514    -1514    -1495    -1507 
   -1541    -1556    -1539    -1494    -1444    -1416    -1397    -1359 
   -1314    -1283    -1260    -1229    -1185    -1124    -1054     -999 
    -954     -904     -849     -793     -749     -733     -727     -711 
    -703     -720     -747     -761     -774     -796     -827     -878 
    -928     -963    -1001    -1039    -1084    -1152    -1221    -1264 
   -1294    -1323    -1354    -1393    -1420    -1387    -1305    -1246 
   -1227    -1228    -1246    -1264    -1282    -1325    -1381    -1409 
