Origin Time       2025/01/13 21:19:00
Lat.              31.8
Long.             131.6
Depth. (km)       30
Mag.              6.9
Station Code      YMG002
Station Lat.      34.4077
Station Long.     131.3986
Station Height(m) 3
Record Time       2025/01/13 21:20:40
Sampling Freq(Hz) 100Hz
Duration Time(s)  108
Dir.              E-W
Scale Factor      7845(gal)/8223790
Max. Acc. (gal)   3.910
Last Correction   2025/01/13 21:20:41
Memo.             
[...]
     175      207      221      214      202      175      141      121 
      98       78       70       76       91      108      140      168 
     180      205      233      238      216      166       91      -13 
    -136     -253     -372     -479     -561     -635     -700     -745 
    -758     -734     -679     -572     -432     -298     -180      -91 
     -36       -2       32       94      171      274      410      545 
     677      812      931     1013     1075     1138     1177     1200 
    1243     1293     1344     1417     1528     1682     1884     2149 
    2440     2724     3011     3272     3478     3642     3762     3834 
    3867     3875     3851     3767     3636     3480     3288     3086 
    2893     2687     2457     2211     1964     1710     1460     1223 
     966      700      444      197      -29     -241     -425     -585 
    -733     -842     -924     -996    -1046    -1077    -1100    -1127 
   -1151    -1171    -1198    -1219    -1227    -1231    -1227    -1201 
   -1143    -1051     -934     -784     -615     -437     -256     -114 
      -6       87      186      314      471      665      895     1158 
    1470     1798     2114     2398     2637     2837     2998     3117 
    3196     3229     3235     3215     3145     3036     2886     2698 
    2498     2300     2115     1942     1788     1655     1526     1408 
    1298     1183     1089     1024      965      899      830      765 
     675      571      481      399      344      333      357      402 
     452      500      496      418      280       68     -189     -422 
    -607     -751     -851     -891     -901     -912     -897     -865 
    -832     -780     -714     -657     -611     -556     -480     -409 
    -321     -217     -143      -74       12       95      163      230 
     310      359      365      360      317      252      211      194 
     191      199      226      248      261      309      372      434 
     531      687      882     1108     1363     1603     1786     1934 
    2037     2061     2042     2004     1941     1861     1787     1718 
    1620     1502     1397     1269     1113      969      837      719 
     630      594      598      633      718      830      947     1074 
    1175     1237     1260     1231     1131      962      758      531 
     305      120      -31     -147     -224     -274     -307     -334 
    -352     -373     -415     -436     -432     -425     -394     -341 
    -298     -275     -260     -264     -319     -396     -468     -558 
    -645     -697     -727     -726     -666     -549     -425     -305 
    -175      -70        6       83      152      205      259      342 
     425      492      599      737      862     1012     1196     1359 
    1491     1629     1756     1837     1907     1971     1992     1996 
    2000     1981     1944     1914     1890     1838     1769     1692 
    1561     1381     1189      980      746      529      357      210 
      78      -24     -139     -275     -396     -508     -622     -720 
    -791     -847     -888     -882     -849     -822     -785     -761 
    -770     -792     -801     -801     -797     -769     -720     -680 
    -638     -589     -562     -545     -513     -473     -446     -413 
    -351     -291     -225     -129      -21      116      311      549 
     815     1101     1389     1629     1817     1971     2066     2114 
    2139     2133     2099     2062     2029     2006     2004     2034 
    2088     2161     2268     2392     2516     2639     2763     2870 
    2945     3014     3082     3117     3134     3140     3119     3087 
    3051     3006     2943     2872     2812     2732     2639     2542 
    2407     2222     2003     1750     1462     1165      900      648 
     414      245      116       -4     -101     -189     -287     -386 
    -456     -531     -642     -746     -851     -990    -1138    -1262 
   -1385    -1525    -1655    -1771    -1900    -2012    -2083    -2139 
   -2168    -2149    -2104    -2061    -2015    -1954    -1904    -1849 
   -1749    -1632    -1489    -1302    -1092     -885     -703     -525 
    -360     -225      -76       90      260      453      675      907 
    1127     1352     1591     1811     2022     2215     2365     2479 
    2546     2552     2517     2457     2371     2257     2149     2064 
    1979     1925     1896     1858     1829     1809     1798     1788 
    1780     1772     1732     1669     1603     1499     1363     1210 
    1034      827      612      434      274      136       49       -9 
     -59      -85      -87      -99     -128     -143     -162     -198 
    -183     -117      -37       83      255      436      602      773 
     945     1074     1202     1351     1467     1560     1655     1717 
    1740     1759     1804     1846     1900     1993     2080     2150 
    2232     2312     2373     2430     2500     2552     2586     2635 
    2648     2598     2508     2366     2165     1930     1709     1506 
    1308     1147     1026      901      795      704      591      446 
     284      116      -75     -255     -387     -514     -641     -750 
    -868     -999    -1111    -1198    -1293    -1377    -1417    -1453 
   -1486    -1489    -1480    -1459    -1393    -1274    -1119     -932 
    -703     -477     -276      -68      118      274      429      580 
     708      819      932     1030     1085     1127     1154     1148 
    1136     1136     1139     1140     1162     1204     1236     1267 
    1296     1277     1223     1158     1082     1015      978      973 
     962      959      992     1024     1047     1082     1108     1107 
    1086     1070     1048     1015     1001      977      918      869 
     830      780      743      737      724      695      681      669 
     627      600      600      595      591      606      635      666 
     722      812      892      973     1074     1170     1267     1394 
    1530     1641     1728     1807     1850     1865     1879     1861 
    1803     1733     1657     1561     1453     1368     1293     1210 
    1151     1108     1054     1004      977      982     1005     1051 
    1132     1210     1287     1366     1424     1459     1471     1460 
    1428     1386     1364     1347     1309     1251     1154     1026 
     874      710      550      394      249      118       -4     -110 
    -216     -330     -448     -567     -672     -758     -830     -886 
    -931     -951     -959     -966     -970     -986    -1005    -1009 
   -1008     -999     -976     -938     -892     -859     -826     -795 
    -787     -788     -799     -808     -804     -785     -745     -689 
    -612     -507     -379     -216      -27      175      382      589 
     808     1015     1196     1377     1555     1725     1876     2006 
    2120     2201     2270     2334     2374     2424     2486     2538 
    2594     2662     2728     2776     2818     2857     2857     2836 
    2809     2754     2671     2575     2467     2338     2189     2057 
    1921     1769     1624     1453     1243      992      715      436 
     136     -166     -429     -664     -893    -1107    -1256    -1375 
   -1503    -1584    -1614    -1652    -1679    -1664    -1628    -1597 
   -1552    -1475    -1404    -1348    -1281    -1210    -1147    -1088 
   -1011     -922     -824     -665     -456     -226       44      353 
     693     1063     1440     1799     2114     2390     2625     2820 
    3006     3164     3280     3385     3470     3519     3538     3549 
    3541     3499     3460     3426     3368     3310     3272     3238 
    3206     3180     3148     3080     2994     2894     2743     2554 
    2342     2093     1813     1509     1202      888      557      253 
     -29     -306     -560     -792    -1009    -1215    -1385    -1520 
   -1652    -1764    -1853    -1935    -1995    -2030    -2043    -2049 
   -2047    -2022    -1989    -1939    -1858    -1772    -1676    -1571 
   -1470    -1363    -1250    -1125     -993     -857     -700     -534 
    -357     -164       14      186      360      534      703      869 
    1040     1198     1343     1491     1621     1732     1831     1907 
    1968     2025     2074     2106     2111     2108     2087     2035 
    1968     1877     1752     1588     1402     1210     1016      841 
     687      533      380      226       55     -126     -297     -448 
    -589     -699     -760     -805     -832     -823     -796     -750 
    -673     -561     -433     -294     -139        0      124      270 
     415      548      683      822      947     1050     1154     1252 
    1325     1395     1453     1478     1487     1505     1537     1578 
    1634     1722     1817     1930     2077     2216     2335     2440 
    2536     2609     2650     2686     2713     2718     2720     2702 
    2650     2569     2467     2349     2201     2041     1867     1660 
    1444     1224     1000      787      584      400      240       99 
     -17     -116     -199     -286     -373     -444     -510     -580 
    -637     -685     -726     -770     -822     -882     -969    -1066 
   -1170    -1289    -1397    -1498    -1599    -1675    -1709    -1707 
   -1683    -1611    -1501    -1382    -1229    -1042     -842     -629 
    -406     -184       24      238      477      719      973     1258 
    1549     1830     2103     2370     2609     2808     2991     3144 
    3257     3343     3392     3404     3389     3348     3275     3164 
    3044     2907     2737     2565     2389     2207     2033     1867 
    1715     1560     1410     1291     1178     1075      993      903 
     797      670      531      369      174      -31     -255     -499 
    -741     -980    -1206    -1417    -1607    -1756    -1879    -1981 
   -2064    -2130    -2172    -2192    -2189    -2157    -2114    -2050 
   -1975    -1894    -1799    -1713    -1624    -1533    -1448    -1347 
   -1240    -1120     -972     -804     -621     -429     -218       10 
     234      463      685      891     1090     1282     1479     1692 
    1915     2149     2376     2598     2812     2995     3159     3310 
    3456     3591     3719     3848     3958     4045     4132     4193 
    4225     4245     4253     4247     4230     4222     4203     4155 
    4097     4021     3915     3793     3658     3500     3296     3057 
    2791     2481     2150     1814     1455     1090      733      388 
      52     -271     -567     -850    -1120    -1362    -1591    -1809 
   -1998    -2170    -2344    -2519    -2681    -2836    -2982    -3095 
   -3179    -3242    -3260    -3230    -3167    -3080    -2953    -2786 
   -2598    -2363    -2083    -1776    -1437    -1073     -691     -303 
      76      448      792     1120     1425     1692     1945     2176 
    2378     2560     2717     2853     2978     3095     3217     3331 
    3449     3559     3642     3711     3761     3773     3750     3685 
    3593     3476     3327     3161     2961     2733     2502     2263 
    2012     1746     1471     1185      892      625      373      122 
    -117     -353     -594     -832    -1061    -1275    -1480    -1652 
   -1779    -1881    -1962    -2022    -2068    -2100    -2114    -2115 
   -2123    -2131    -2128    -2143    -2170    -2176    -2158    -2114 
   -2030    -1907    -1763    -1605    -1413    -1205    -1003     -781 
    -541     -298      -52      209      476      724      972     1219 
    1441     1655     1865     2057     2228     2396     2556     2690 
    2820     2957     3068     3165     3268     3349     3400     3441 
    3474     3480     3446     3391     3295     3157     3013     2863 
    2705     2552     2412     2286     2164     2052     1941     1819 
    1707     1595     1478     1367     1246     1104      943      766 
     579      376      178      -20     -226     -417     -599     -764 
    -896     -996    -1070    -1127    -1171    -1212    -1271    -1337 
   -1416    -1502    -1575    -1644    -1705    -1749    -1786    -1803 
   -1800    -1761    -1674    -1567    -1433    -1277    -1115     -950 
    -787     -612     -429     -230      -16      182      378      588 
     807     1032     1254     1482     1714     1929     2141     2332 
    2489     2625     2731     2813     2878     2925     2961     2987 
    3006     3014     2991     2963     2929     2883     2828     2767 
    2704     2623     2544     2488     2427     2369     2315     2246 
    2178     2108     2035     1948     1834     1711     1560     1378 
    1183      958      710      450      183      -87     -356     -599 
    -820    -1024    -1201    -1358    -1494    -1602    -1679    -1722 
   -1741    -1737    -1714    -1684    -1636    -1580    -1518    -1441 
   -1363    -1266    -1144    -1012     -868     -726     -579     -430 
    -307     -194      -86        8      101      193      291      383 
     469      577      695      835     1005     1186     1378     1576 
    1776     1971     2162     2362     2547     2717     2882     3015 
    3121     3218     3303     3370     3418     3465     3499     3505 
    3510     3499     3460     3411     3356     3277     3176     3084 
    3002     2889     2766     2654     2527     2384     2226     2041 
    1818     1579     1343     1086      818      549      260      -40 
    -337     -629     -923    -1216    -1478    -1725    -1973    -2207 
   -2432    -2652    -2849    -3019    -3165    -3283    -3365    -3403 
   -3414    -3391    -3321    -3210    -3064    -2872    -2624    -2328 
   -2000    -1638    -1262     -876     -479      -95      274      637 
     981     1316     1633     1926     2196     2450     2695     2925 
    3136     3331     3507     3673     3815     3937     4047     4131 
    4190     4234     4257     4259     4234     4193     4137     4054 
    3951     3819     3643     3431     3183     2902     2589     2231 
    1841     1424      980      521       63     -390     -838    -1250 
   -1614    -1953    -2261    -2533    -2775    -2986    -3154    -3271 
   -3354    -3397    -3385    -3343    -3280    -3187    -3073    -2940 
   -2783    -2597    -2394    -2193    -1975    -1748    -1534    -1314 
   -1090     -873     -656     -433     -197       48      315      608 
     907     1227     1574     1923     2269     2613     2952     3262 
    3543     3798     4004     4164     4286     4355     4384     4382 
    4353     4301     4218     4125     4002     3844     3680     3489 
    3261     3010     2745     2471     2187     1904     1628     1339 
    1065      814      569      341      140      -39     -214     -361 
    -464     -550     -610     -639     -665     -669     -658     -639 
    -623     -623     -616     -610     -599     -567     -525     -481 
    -432     -382     -336     -297     -263     -244     -234     -224 
    -222     -220     -206     -191     -163     -121      -79      -48 
     -24       12       43       76      141      206      272      357 
     445      527      612      719      823      911     1020     1136 
    1236     1340     1440     1526     1595     1652     1710     1750 
    1787     1831     1857     1871     1877     1865     1827     1773 
    1717     1645     1564     1487     1399     1313     1236     1162 
    1088     1007      931      861      792      746      699      648 
     612      569      515      463      413      359      295      243 
     198      149      120      113      125      152      187      244 
     306      373      444      498      542      571      576      557 
     511      456      399      336      275      214      155       87 
       9      -60     -126     -183     -213     -229     -234     -237 
    -232     -214     -210     -203     -186     -176     -152     -103 
     -35       45      141      263      375      471      580      672 
     733      784      835      866      876      889      892      868 
     858      865      874      903      959     1036     1115     1200 
    1285     1337     1383     1432     1449     1452     1453     1451 
    1444     1441     1448     1443     1437     1451     1451     1432 
    1414     1387     1341     1281     1228     1167     1082     1009 
     936      843      754      677      607      535      481      453 
     429      409      396      383      373      363      345      322 
     291      256      222      195      172      149      145      152 
     155      163      171      180      197      220      257      291 
     322      363      406      465      542      625      706      781 
     864      940     1008     1089     1167     1239     1318     1405 
    1490     1571     1661     1740     1788     1826     1845     1829 
    1792     1736     1660     1571     1483     1408     1320     1225 
    1143     1040      927      823      711      587      457      344 
     236      129       48      -28     -105     -171     -240     -322 
    -410     -481     -550     -616     -653     -669     -685     -681 
    -665     -643     -607     -549     -476     -407     -328     -232 
    -144      -48       60      168      278      395      523      649 
     772      900     1011     1105     1197     1281     1358     1422 
    1490     1545     1582     1614     1621     1605     1594     1578 
    1551     1513     1474     1431     1370     1321     1294     1263 
    1244     1235     1216     1183     1139     1090     1030      962 
     899      816      722      619      506      399      294      191 
      99       13      -59     -135     -210     -278     -349     -411 
    -468     -527     -573     -614     -641     -660     -672     -662 
    -641     -588     -498     -386     -253     -114       28      174 
     317      471      619      757      907     1062     1215     1374 
    1532     1680     1818     1958     2087     2185     2286     2376 
    2440     2498     2532     2528     2485     2425     2359     2259 
    2151     2054     1949     1848     1746     1641     1529     1417 
    1314     1202     1098     1011      915      827      756      687 
     614      534      472      418      353      302      251      190 
     129       62       -6      -85     -168     -248     -341     -433 
    -515     -598     -666     -723     -766     -796     -812     -792 
    -751     -692     -606     -503     -386     -257     -114       39 
     193      361      534      699      862     1009     1158     1308 
    1447     1593     1745     1883     2016     2154     2284     2386 
    2470     2544     2594     2635     2679     2708     2724     2740 
    2752     2740     2705     2673     2617     2527     2440     2342 
    2212     2072     1926     1757     1561     1377     1197      997 
     810      633      446      265      105      -48     -213     -367 
    -511     -665     -803     -919    -1024    -1123    -1206    -1281 
   -1374    -1475    -1553    -1633    -1711    -1759    -1786    -1796 
   -1777    -1725    -1655    -1578    -1475    -1356    -1247    -1128 
   -1004     -877     -735     -572     -391     -201        2      216 
     414      612      820     1024     1225     1429     1634     1829 
    2015     2200     2365     2524     2687     2835     2976     3117 
    3242     3350     3439     3512     3554     3568     3572     3547 
