Origin Time       2025/01/13 21:19:00
Lat.              31.8
Long.             131.6
Depth. (km)       30
Mag.              6.9
Station Code      YMG011
Station Lat.      34.0643
Station Long.     131.0213
Station Height(m) 25
Record Time       2025/01/13 21:20:23
Sampling Freq(Hz) 100Hz
Duration Time(s)  109
Dir.              E-W
Scale Factor      7845(gal)/8223790
Max. Acc. (gal)   3.870
Last Correction   2025/01/13 21:20:23
Memo.             
[...]
    1039     1150     1246     1323     1386     1435     1467     1490 
    1513     1534     1563     1618     1711     1852     2030     2216 
    2390     2542     2658     2729     2759     2756     2728     2674 
    2600     2509     2412     2319     2234     2149     2065     1984 
    1892     1800     1718     1644     1574     1503     1444     1399 
    1363     1345     1364     1412     1480     1572     1688     1817 
    1937     2043     2139     2200     2220     2214     2178     2107 
    1993     1848     1680     1486     1259     1017      773      535 
     322      149       21      -71     -125     -130      -93      -13 
     110      272      461      665      866     1054     1224     1372 
    1503     1632     1768     1917     2072     2230     2384     2527 
    2640     2716     2763     2786     2790     2785     2771     2751 
    2725     2689     2640     2593     2538     2465     2380     2284 
    2184     2089     2003     1930     1881     1857     1863     1891 
    1923     1950     1965     1957     1926     1872     1795     1706 
    1615     1540     1482     1435     1399     1371     1351     1332 
    1302     1260     1201     1129     1061     1004      958      928 
     923      930      935      961     1017     1088     1165     1250 
    1332     1414     1498     1576     1642     1690     1711     1707 
    1687     1660     1645     1655     1687     1729     1769     1815 
    1861     1906     1962     2035     2112     2220     2386     2587 
    2801     3024     3235     3403     3515     3555     3515     3404 
    3238     3033     2810     2566     2301     2010     1692     1366 
    1042      754      533      375      282      248      263      313 
     391      510      675      885     1144     1448     1786     2135 
    2469     2770     3024     3215     3333     3368     3330     3231 
    3086     2922     2778     2674     2606     2563     2538     2523 
    2517     2525     2547     2581     2631     2706     2790     2864 
    2934     2992     3021     3018     2982     2916     2824     2694 
    2538     2371     2200     2030     1873     1741     1632     1544 
    1478     1441     1428     1413     1386     1359     1329     1289 
    1259     1259     1289     1356     1471     1626     1802     1973 
    2131     2265     2358     2416     2446     2447     2434     2411 
    2366     2300     2223     2145     2065     1977     1869     1746 
    1629     1529     1463     1441     1451     1483     1543     1622 
    1698     1768     1841     1914     1975     2014     2026     2002 
    1929     1815     1679     1532     1387     1255     1127     1000 
     873      751      635      507      352      180        8     -149 
    -263     -302     -256     -122       97      387      712     1042 
    1345     1593     1767     1875     1930     1956     1972     1989 
    2023     2081     2164     2266     2374     2471     2550     2604 
    2632     2641     2654     2674     2700     2718     2712     2679 
    2636     2583     2532     2489     2451     2420     2398     2385 
    2370     2339     2293     2242     2182     2123     2085     2060 
    2020     1968     1904     1837     1788     1779     1821     1915 
    2045     2207     2407     2636     2884     3140     3385     3620 
    3839     4033     4213     4367     4475     4540     4560     4531 
    4468     4369     4229     4055     3847     3611     3368     3127 
    2898     2682     2463     2241     2019     1786     1555     1354 
    1178     1028      916      838      787      764      760      765 
     777      788      783      761      737      714      697      706 
     745      814      918     1061     1212     1356     1499     1632 
    1749     1857     1945     2006     2045     2072     2093     2111 
    2122     2145     2189     2247     2322     2421     2542     2664 
    2778     2880     2974     3052     3109     3133     3127     3098 
    3049     2972     2872     2767     2655     2523     2370     2205 
    2033     1852     1676     1514     1372     1252     1155     1075 
    1007      936      850      742      619      481      322      133 
     -78     -301     -518     -710     -846     -918     -928     -877 
    -778     -656     -521     -387     -271     -166      -60       41 
     149      280      449      658      916     1229     1579     1944 
    2303     2624     2891     3111     3283     3399     3473     3520 
    3543     3543     3535     3515     3474     3422     3353     3260 
    3148     3009     2839     2658     2474     2282     2100     1942 
    1813     1721     1668     1652     1663     1683     1706     1729 
    1745     1748     1740     1717     1688     1655     1621     1594 
    1572     1548     1521     1485     1441     1401     1367     1350 
    1354     1381     1421     1470     1528     1587     1636     1680 
    1729     1784     1845     1907     1972     2031     2072     2101 
    2133     2170     2223     2274     2312     2326     2297     2220 
    2110     1980     1850     1741     1672     1649     1656     1682 
    1725     1772     1806     1833     1858     1879     1902     1922 
    1930     1930     1929     1929     1930     1933     1941     1958 
    1972     1981     1995     2012     2029     2045     2061     2089 
    2141     2219     2327     2463     2608     2756     2909     3046 
    3163     3252     3306     3321     3292     3230     3145     3041 
    2930     2824     2722     2625     2533     2448     2381     2323 
    2270     2219     2154     2069     1966     1840     1690     1521 
    1340     1162     1000      862      760      697      661      634 
     607      583      569      560      553      554      564      579 
     611      669      749      850      986     1152     1344     1566 
    1809     2066     2332     2579     2787     2953     3078     3159 
    3204     3227     3240     3245     3237     3217     3173     3106 
    3015     2905     2782     2641     2481     2313     2153     1995 
    1852     1737     1645     1586     1563     1579     1636     1721 
    1819     1921     2000     2025     1992     1906     1761     1571 
    1363     1162      985      843      741      681      660      676 
     724      804      900     1013     1146     1282     1405     1510 
    1591     1637     1652     1659     1678     1728     1827     1987 
    2203     2473     2771     3071     3356     3615     3846     4051 
    4232     4384     4511     4607     4652     4633     4552     4403 
    4190     3932     3645     3337     3021     2702     2381     2077 
    1815     1590     1382     1205     1061      932      805      675 
     546      418      291      175       79        2      -55      -87 
     -82      -40       32      137      265      403      544      675 
     795      928     1082     1248     1432     1640     1858     2079 
    2295     2497     2677     2817     2911     2959     2948     2891 
    2822     2759     2708     2668     2647     2644     2648     2659 
    2673     2670     2646     2600     2536     2466     2397     2331 
    2266     2215     2151     2053     1933     1779     1587     1371 
    1143      918      722      564      444      372      359      392 
     471      588      723      858      990     1113     1219     1298 
    1363     1429     1493     1567     1675     1802     1941     2103 
    2277     2455     2637     2808     2974     3123     3229     3296 
    3325     3303     3249     3169     3065     2947     2810     2663 
    2511     2349     2173     1995     1815     1632     1444     1255 
    1062      866      668      486      333      214      135       99 
     106      152      238      365      529      729      966     1227 
    1497     1761     1991     2164     2282     2355     2389     2398 
    2393     2373     2343     2299     2230     2139     2023     1879 
    1703     1501     1293     1105      949      831      761      742 
     777      876     1043     1285     1582     1918     2293     2697 
    3111     3526     3924     4286     4596     4847     5031     5138 
    5170     5143     5059     4923     4743     4522     4249     3912 
    3515     3068     2587     2095     1605     1135      703      315 
     -13     -283     -502     -661     -769     -837     -866     -869 
    -838     -766     -670     -550     -407     -256     -103       55 
     224      410      608      807     1013     1224     1439     1664 
    1915     2188     2484     2810     3149     3488     3821     4129 
    4398     4630     4820     4966     5066     5115     5113     5059 
    4953     4803     4606     4355     4058     3720     3348     2956 
    2562     2191     1852     1540     1270     1053      882      760 
     692      664      668      700      754      827      911     1003 
    1102     1208     1317     1435     1553     1671     1783     1884 
    1980     2060     2123     2182     2226     2247     2242     2201 
    2131     2042     1927     1788     1645     1506     1364     1237 
    1127     1015      923      869      849      880      969     1094 
    1247     1417     1579     1721     1841     1931     1980     2003 
    2019     2027     2030     2035     2043     2056     2070     2079 
    2084     2074     2029     1938     1818     1682     1543     1412 
    1305     1237     1204     1196     1212     1233     1237     1223 
    1188     1139     1097     1070     1077     1131     1210     1309 
    1424     1551     1679     1783     1857     1917     1960     1985 
    2004     2008     1996     1981     1961     1933     1900     1857 
    1799     1729     1648     1566     1489     1416     1348     1285 
    1217     1146     1088     1047     1017     1008     1020     1043 
    1085     1150     1233     1333     1451     1591     1757     1944 
    2158     2394     2639     2883     3111     3316     3501     3657 
    3778     3874     3933     3944     3919     3851     3735     3582 
    3393     3176     2948     2716     2478     2245     2006     1765 
    1533     1298     1070      865      679      508      363      248 
     170      124      109      120      139      162      191      220 
     243      270      301      340      396      469      562      685 
     831      993     1170     1360     1555     1736     1898     2038 
    2151     2236     2301     2353     2382     2386     2380     2382 
    2403     2455     2546     2666     2809     2965     3121     3258 
    3370     3453     3500     3512     3497     3447     3368     3269 
    3154     3032     2910     2801     2708     2631     2562     2493 
    2413     2319     2201     2052     1881     1714     1547     1386 
    1255     1151     1067     1001      947      903      864      830 
     810      801      811      842      885      935     1005     1093 
    1194     1310     1443     1591     1753     1908     2043     2153 
    2216     2228     2193     2111     1999     1880     1772     1684 
    1628     1614     1638     1699     1796     1925     2077     2246 
    2413     2570     2710     2830     2934     3030     3125     3223 
    3333     3453     3577     3699     3811     3915     4010     4075 
    4102     4085     4006     3873     3694     3476     3222     2943 
    2641     2323     1985     1634     1277      909      546      205 
    -108     -376     -587     -734     -804     -803     -749     -643 
    -495     -314     -110      108      341      595      862     1136 
    1426     1738     2070     2416     2764     3110     3435     3721 
    3967     4178     4357     4499     4602     4664     4672     4621 
    4507     4328     4089     3798     3460     3090     2702     2312 
    1939     1586     1250      940      649      388      183       39 
     -28      -16       68      229      452      720     1013     1305 
    1579     1829     2049     2227     2365     2469     2547     2602 
    2637     2666     2687     2698     2708     2716     2733     2766 
    2797     2822     2843     2848     2837     2812     2774     2722 
    2666     2597     2504     2388     2251     2085     1891     1684 
    1470     1251     1043      857      702      584      511      480 
     486      531      622      754      913     1097     1304     1541 
    1796     2058     2323     2573     2803     3022     3222     3404 
    3559     3677     3759     3800     3792     3727     3600     3412 
    3167     2868     2520     2123     1698     1264      843      457 
     113     -187     -437     -637     -791     -892     -949     -958 
    -909     -804     -631     -387      -89      255      634     1021 
    1398     1756     2084     2371     2617     2822     2986     3105 
    3173     3194     3172     3106     2995     2857     2704     2544 
    2400     2280     2177     2101     2079     2100     2153     2235 
    2349     2479     2625     2778     2933     3082     3206     3299 
    3354     3365     3323     3225     3067     2848     2573     2261 
    1931     1606     1304     1032      792      585      417      283 
     179      102       55       36       43       67       97      129 
     163      202      248      310      399      521      670      841 
    1027     1225     1433     1647     1852     2049     2246     2443 
    2650     2875     3126     3403     3705     4024     4347     4665 
    4970     5251     5491     5688     5836     5929     5957     5918 
    5822     5670     5455     5190     4891     4548     4159     3728 
    3261     2766     2246     1715     1188      670      182     -263 
    -661    -1016    -1317    -1555    -1738    -1875    -1965    -2018 
   -2046    -2054    -2045    -2016    -1971    -1898    -1788    -1648 
   -1476    -1271    -1039     -788     -526     -260        2      263 
     521      776     1030     1283     1544     1814     2089     2371 
    2664     2970     3287     3612     3942     4252     4521     4742 
    4908     5004     5027     4982     4877     4718     4518     4295 
    4063     3827     3596     3379     3165     2947     2729     2516 
    2299     2080     1854     1611     1362     1111      874      670 
     513      398      333      330      388      499      654      843 
    1054     1263     1452     1610     1729     1809     1867     1915 
    1960     2006     2052     2092     2130     2157     2161     2145 
    2097     2018     1925     1819     1701     1588     1493     1414 
    1356     1324     1309     1306     1305     1293     1267     1235 
    1192     1146     1102     1058     1016      988      978      992 
    1038     1116     1220     1347     1498     1653     1802     1942 
    2061     2154     2232     2297     2340     2369     2389     2398 
    2388     2361     2316     2253     2172     2072     1952     1810 
    1656     1498     1340     1183     1034      904      799      720 
     676      669      707      796      935     1109     1310     1522 
    1738     1952     2160     2357     2555     2758     2960     3163 
    3362     3550     3719     3859     3956     4005     4008     3966 
    3889     3777     3645     3496     3327     3153     2980     2794 
    2600     2416     2253     2110     1985     1887     1821     1779 
    1753     1742     1748     1765     1780     1786     1786     1776 
    1764     1756     1748     1738     1723     1706     1680     1641 
    1595     1544     1491     1441     1399     1360     1321     1277 
    1219     1152     1085     1013      958      930      919      935 
     978     1035     1098     1165     1232     1308     1394     1494 
    1594     1691     1790     1879     1962     2047     2130     2211 
    2297     2385     2470     2542     2601     2660     2718     2772 
    2826     2876     2924     2964     2984     2983     2961     2911 
    2836     2739     2620     2481     2327     2161     1992     1821 
    1640     1448     1248     1038      826      622      427      264 
     143       58       21       49      137      276      465      699 
     970     1273     1588     1908     2228     2533     2816     3076 
    3318     3534     3708     3850     3971     4066     4121     4145 
    4141     4114     4068     4005     3920     3808     3665     3491 
    3298     3088     2874     2662     2448     2243     2043     1848 
    1660     1479     1306     1140      973      815      677      550 
     434      330      236      153       83       36       18       39 
      97      197      344      535      761     1015     1291     1586 
    1885     2173     2440     2678     2876     3037     3165     3250 
    3291     3285     3241     3163     3052     2910     2743     2559 
    2358     2139     1908     1675     1440     1198      961      735 
     527      342      189       76       12      -13       -9       32 
     105      197      307      444      594      757      931     1116 
    1309     1514     1741     1977     2209     2439     2659     2845 
    2997     3122     3218     3284     3333     3364     3375     3379 
    3384     3388     3400     3418     3419     3404     3381     3341 
    3275     3187     3086     2975     2862     2754     2654     2562 
    2474     2382     2284     2182     2068     1941     1813     1676 
    1528     1370     1208     1053      911      785      681      600 
     544      515      508      529      573      635      707      785 
     861      930      996     1063     1124     1179     1247     1327 
    1416     1517     1633     1757     1885     2020     2157     2297 
    2438     2586     2743     2894     3040     3181     3307     3418 
    3518     3603     3676     3734     3777     3794     3780     3736 
    3666     3570     3450     3304     3134     2947     2740     2520 
    2293     2056     1815     1580     1354     1139      940      766 
     627      529      459      418      417      445      494      558 
     630      703      768      819      862      892      900      899 
     896      889      884      896      927      989     1093     1229 
    1393     1586     1798     2025     2262     2505     2745     2968 
    3161     3322     3442     3523     3561     3555     3516     3443 
    3331     3190     3024     2829     2614     2390     2164     1934 
    1715     1521     1347     1193     1070      977      901      847 
     812      781      754      724      699      693      706      722 
     743      769      797      822      834      839      839      831 
     819      807      793      785      783      777      785      811 
     845      901      990     1111     1263     1439     1636     1861 
    2101     2343     2581     2791     2974     3127     3244     3323 
    3369     3384     3384     3364     3315     3249     3175     3088 
    2994     2901     2817     2744     2681     2629     2592     2563 
    2542     2519     2496     2473     2443     2409     2376     2344 
    2316     2293     2268     2242     2228     2223     2220     2226 
    2238     2245     2249     2245     2227     2199     2157     2100 
    2031     1960     1884     1804     1726     1648     1576     1516 
    1455     1399     1360     1337     1324     1328     1354     1389 
