Origin Time       2025/01/13 21:19:00
Lat.              31.8
Long.             131.6
Depth. (km)       30
Mag.              6.9
Station Code      YMG013
Station Lat.      34.0313
Station Long.     131.5342
Station Height(m) 3
Record Time       2025/01/13 21:20:21
Sampling Freq(Hz) 100Hz
Duration Time(s)  106
Dir.              E-W
Scale Factor      7845(gal)/8223790
Max. Acc. (gal)   6.448
Last Correction   2025/01/13 21:20:20
Memo.             
[...]
    1394     1653     2010     2442     2882     3260     3527     3658 
    3649     3492     3221     2895     2563     2261     2049     1961 
    1991     2119     2332     2590     2839     3060     3275     3488 
    3662     3730     3651     3451     3172     2848     2536     2300 
    2178     2197     2317     2457     2589     2725     2839     2895 
    2907     2932     3001     3083     3145     3172     3127     2970 
    2721     2452     2201     1961     1732     1557     1474     1522 
    1726     2038     2370     2683     2975     3246     3511     3784 
    4059     4321     4560     4779     4972     5084     5069     4908 
    4618     4244     3834     3423     3052     2741     2473     2238 
    2037     1848     1657     1485     1358     1323     1425     1682 
    2089     2598     3110     3566     3963     4290     4521     4652 
    4730     4827     4973     5109     5163     5098     4927     4700 
    4457     4175     3834     3445     3056     2752     2567     2448 
    2332     2193     2041     1908     1834     1809     1782     1744 
    1721     1721     1759     1834     1931     2049     2177     2301 
    2430     2559     2681     2808     2945     3088     3248     3447 
    3705     3998     4261     4434     4507     4529     4552     4576 
    4549     4429     4220     3943     3609     3240     2880     2569 
    2286     1984     1630     1250      907      660      544      552 
     646      781      955     1185     1471     1814     2196     2575 
    2921     3226     3485     3697     3842     3892     3848     3726 
    3542     3314     3038     2702     2331     1980     1694     1509 
    1439     1463     1555     1690     1825     1939     2035     2099 
    2133     2141     2110     2054     2003     1958     1933     1939 
    1971     2025     2107     2211     2323     2425     2508     2574 
    2624     2644     2628     2593     2559     2536     2532     2539 
    2533     2512     2494     2497     2484     2419     2305     2150 
    1969     1804     1692     1660     1746     1946     2220     2527 
    2813     3037     3188     3267     3291     3280     3218     3125 
    3079     3122     3211     3294     3325     3277     3177     3071 
    2994     2955     2928     2889     2832     2775     2737     2698 
    2641     2589     2574     2608     2698     2855     3022     3118 
    3123     3071     2999     2951     2947     2972     3003     3032 
    3069     3130     3199     3248     3248     3186     3079     2959 
    2847     2741     2623     2477     2300     2138     2061     2073 
    2147     2276     2475     2741     3041     3357     3696     4029 
    4321     4542     4677     4735     4754     4769     4780     4754 
    4664     4494     4232     3882     3450     2970     2489     2037 
    1634     1324     1113      967      845      733      668      685 
     795     1009     1316     1686     2111     2562     3011     3468 
    3963     4509     5071     5583     5981     6243     6396     6481 
    6519     6489     6357     6108     5755     5324     4870     4445 
    4040     3615     3176     2759     2378     2038     1707     1347 
     954      583      315      186      170      229      356      565 
     865     1240     1674     2138     2592     3010     3403     3778 
    4148     4521     4860     5117     5287     5356     5304     5125 
    4833     4440     3963     3422     2841     2281     1799     1389 
    1004      623      248     -103     -371     -453     -303       37 
     508     1043     1579     2054     2416     2650     2801     2929 
    3072     3252     3491     3784     4102     4417     4691     4882 
    4970     4938     4760     4438     4017     3541     3038     2533 
    2056     1625     1236      897      646      481      383      355 
     415      603      946     1402     1883     2344     2772     3167 
    3543     3923     4294     4623     4892     5105     5266     5362 
    5385     5328     5178     4951     4677     4375     4050     3692 
    3298     2909     2558     2247     1980     1744     1521     1343 
    1247     1216     1228     1283     1379     1521     1728     1996 
    2286     2560     2812     3049     3280     3501     3750     4043 
    4329     4569     4742     4812     4762     4612     4390     4128 
    3850     3543     3177     2725     2201     1687     1269      966 
     778      719      758      862     1040     1291     1567     1802 
    1966     2084     2205     2381     2623     2913     3225     3545 
    3875     4187     4425     4554     4567     4448     4201     3865 
    3485     3080     2647     2188     1723     1278      870      513 
     207      -67     -310     -484     -572     -557     -425     -184 
     152      575     1042     1502     1954     2430     2926     3426 
    3913     4392     4845     5235     5526     5691     5711     5609 
    5418     5170     4872     4510     4058     3489     2814     2087 
    1360      673       56     -468     -874    -1140    -1286    -1324 
   -1233    -1001     -627     -124      476     1135     1804     2409 
    2886     3223     3435     3572     3699     3831     3947     4000 
    3946     3802     3627     3484     3414     3384     3325     3191 
    2978     2729     2525     2428     2434     2479     2519     2536 
    2497     2363     2126     1799     1439     1113      880      773 
     822     1066     1510     2101     2782     3499     4172     4738 
    5186     5513     5705     5753     5664     5475     5262     5088 
    4980     4909     4839     4738     4557     4248     3794     3194 
    2450     1615      792       98     -371     -558     -461     -148 
     284      793     1382     2047     2739     3384     3916     4288 
    4502     4581     4567     4513     4446     4338     4170     3942 
    3663     3377     3137     2959     2845     2816     2895     3102 
    3396     3715     4014     4245     4359     4360     4275     4095 
    3805     3415     2948     2451     1996     1638     1406     1304 
    1314     1410     1575     1788     2035     2290     2529     2759 
    2974     3157     3326     3514     3751     4035     4321     4536 
    4611     4542     4371     4120     3775     3318     2762     2165 
    1611     1197      989      977     1119     1394     1769     2192 
    2654     3159     3663     4124     4518     4819     4996     5038 
    4931     4685     4360     4039     3778     3597     3477     3373 
    3254     3121     2991     2857     2685     2458     2205     1977 
    1817     1741     1733     1759     1771     1733     1676     1686 
    1842     2150     2532     2901     3219     3507     3792     4086 
    4368     4603     4774     4881     4900     4807     4599     4301 
    3954     3634     3438     3422     3568     3809     4086     4355 
    4565     4669     4625     4418     4078     3670     3283     2965 
    2743     2632     2639     2739     2886     3037     3168     3250 
    3273     3230     3119     2960     2793     2658     2587     2606 
    2732     2963     3242     3488     3639     3677     3619     3500 
    3345     3167     2988     2839     2739     2687     2685     2741 
    2847     2968     3082     3168     3227     3245     3207     3146 
    3122     3157     3235     3316     3348     3285     3133     2921 
    2679     2423     2143     1810     1425     1030      664      367 
     168       78       81      141      238      363      507      664 
     814      950     1104     1320     1614     1976     2380     2793 
    3200     3613     4013     4351     4571     4627     4506     4259 
    3986     3765     3631     3589     3601     3613     3580     3460 
    3250     2975     2641     2254     1825     1394     1031      789 
     643      542      450      356      284      272      321      423 
     577      773     1008     1291     1625     1977     2324     2663 
    2990     3287     3501     3584     3541     3435     3337     3280 
    3262     3273     3299     3319     3335     3365     3387     3326 
    3153     2882     2517     2085     1644     1258      981      838 
     778      750      739      761      845     1011     1251     1555 
    1915     2311     2727     3144     3535     3873     4139     4341 
    4492     4603     4677     4695     4621     4432     4132     3767 
    3408     3092     2837     2621     2388     2085     1707     1300 
     931      634      422      305      295      399      619      951 
    1391     1910     2439     2901     3262     3541     3780     3983 
    4141     4284     4438     4595     4766     4980     5219     5435 
    5614     5773     5887     5930     5896     5768     5517     5116 
    4552     3836     3015     2166     1360      635       22     -436 
    -714     -819     -792     -680     -526     -334      -54      340 
     807     1297     1775     2223     2621     2952     3256     3611 
    4047     4537     5050     5544     5984     6362     6660     6832 
    6813     6566     6111     5528     4904     4286     3676     3040 
    2373     1717     1124      637      287      106      116      307 
     637     1044     1480     1903     2276     2590     2864     3115 
    3357     3604     3852     4089     4284     4419     4518     4598 
    4656     4679     4660     4594     4477     4320     4120     3863 
    3550     3207     2860     2508     2158     1821     1480     1129 
     791      494      270      133       87      153      338      594 
     872     1177     1537     1987     2528     3126     3727     4282 
    4734     5031     5161     5138     4996     4774     4494     4159 
    3788     3392     2967     2509     2038     1564     1086      607 
     160     -222     -540     -789     -953    -1012     -978     -876 
    -719     -514     -252      110      622     1290     2064     2876 
    3677     4422     5086     5678     6180     6551     6770     6843 
    6790     6660     6500     6319     6089     5792     5424     4972 
    4409     3736     3005     2277     1607     1028      552      178 
     -72     -178     -139       31      315      703     1196     1763 
    2315     2789     3188     3557     3933     4325     4712     5065 
    5373     5616     5773     5872     5953     6010     5996     5883 
    5674     5389     5044     4673     4326     4012     3696     3377 
    3064     2704     2282     1868     1494     1174      951      834 
     796      826      928     1107     1317     1482     1561     1564 
    1497     1377     1251     1171     1162     1227     1381     1621 
    1915     2218     2509     2805     3125     3496     3913     4351 
    4768     5119     5350     5422     5320     5061     4700     4305 
    3920     3546     3150     2721     2285     1883     1545     1304 
    1189     1202     1313     1475     1638     1768     1836     1802 
    1656     1433     1177      919      696      534      429      380 
     402      521      760     1119     1557     2006     2382     2651 
    2821     2940     3067     3233     3406     3564     3711     3835 
    3923     3978     3982     3900     3699     3372     2959     2540 
    2188     1939     1818     1850     2022     2262     2490     2659 
    2771     2855     2940     3052     3215     3424     3676     3990 
    4382     4796     5146     5367     5431     5371     5246     5085 
    4904     4731     4595     4509     4472     4492     4553     4612 
    4644     4637     4572     4426     4195     3871     3450     2974 
    2520     2151     1880     1668     1479     1329     1271     1310 
    1399     1486     1539     1557     1564     1578     1587     1579 
    1549     1501     1451     1439     1503     1665     1902     2195 
    2562     3011     3519     4062     4604     5100     5501     5764 
    5859     5769     5508     5116     4652     4147     3618     3095 
    2612     2168     1756     1374     1019      704      476      380 
     426      588      832     1117     1408     1680     1922     2124 
    2304     2511     2768     3064     3381     3707     4043     4388 
    4725     5035     5297     5479     5566     5559     5483     5368 
    5217     4997     4661     4189     3618     3018     2462     1999 
    1637     1345     1089      857      639      426      228       72 
     -35     -114     -139      -48      174      526      974     1455 
    1900     2293     2639     2944     3202     3429     3670     3946 
    4212     4430     4604     4746     4853     4916     4919     4841 
    4648     4329     3917     3442     2922     2400     1911     1476 
    1124      858      668      546      475      430      422      459 
     548      716      977     1323     1779     2362     3028     3700 
    4334     4899     5358     5705     5952     6106     6161     6110 
    5954     5706     5374     4997     4615     4247     3892     3535 
    3163     2766     2343     1914     1506     1132      801      544 
     392      359      437      619      884     1189     1499     1796 
    2083     2389     2748     3141     3527     3875     4149     4337 
    4444     4449     4324     4071     3711     3265     2756     2200 
    1624     1054      502      -25     -491     -849    -1090    -1229 
   -1296    -1335    -1375    -1405    -1393    -1298    -1093     -781 
    -364      179      869     1699     2658     3708     4753     5724 
    6646     7541     8351     8980     9383     9572     9533     9225 
    8642     7854     6947     5976     4968     3909     2798     1669 
     584     -413    -1293    -2010    -2527    -2844    -2988    -2990 
   -2864    -2628    -2262    -1733    -1069     -348      372     1085 
    1813     2574     3350     4121     4849     5495     6069     6588 
    7040     7430     7755     8002     8151     8170     8047     7801 
    7449     6982     6389     5691     4935     4129     3260     2355 
    1464      634      -62     -554     -832     -928     -889     -743 
    -481     -102      371      899     1466     2073     2716     3372 
    4024     4652     5231     5752     6184     6490     6655     6678 
    6558     6280     5846     5305     4702     4037     3296     2492 
    1674      913      290     -148     -432     -583     -579     -448 
    -264      -66      162      422      711     1038     1426     1895 
    2457     3087     3717     4275     4729     5100     5416     5643 
    5752     5748     5618     5341     4945     4479     3989     3505 
    3059     2652     2278     1931     1621     1358     1121      882 
     661      479      332      233      211      307      550      943 
    1462     2070     2706     3312     3859     4325     4693     5001 
    5290     5555     5771     5931     6034     6058     5983     5819 
    5602     5335     5005     4608     4140     3609     3029     2431 
    1853     1294      750      248     -195     -577     -857     -976 
    -935     -784     -567     -292       64      525     1081     1706 
    2366     3029     3654     4198     4629     4931     5090     5121 
    5065     4962     4826     4644     4418     4171     3905     3591 
    3217     2814     2404     1979     1552     1161      811      490 
     186      -94     -352     -583     -770     -896     -922     -814 
    -576     -224      225      777     1426     2126     2833     3531 
    4195     4812     5370     5833     6157     6332     6400     6405 
    6359     6247     6033     5692     5240     4700     4110     3510 
    2911     2297     1651      982      338     -233     -710    -1078 
   -1340    -1499    -1541    -1464    -1258     -892     -376      252 
     962     1717     2502     3322     4163     4977     5709     6340 
    6879     7318     7663     7925     8110     8213     8224     8132 
    7897     7472     6871     6153     5360     4500     3564     2581 
    1624      769       63     -480     -880    -1151    -1283    -1256 
   -1084     -804     -449      -32      436      923     1386     1822 
    2251     2686     3129     3534     3863     4108     4256     4352 
    4423     4456     4477     4477     4437     4379     4310     4230 
    4140     4020     3844     3593     3272     2941     2655     2400 
    2145     1950     1872     1868     1917     2015     2131     2253 
    2377     2520     2673     2779     2848     2895     2928     3024 
    3177     3322     3446     3553     3669     3786     3870     3902 
    3867     3809     3771     3742     3731     3715     3665     3566 
    3411     3230     3046     2871     2704     2509     2323     2191 
    2111     2093     2108     2139     2227     2350     2520     2759 
    2998     3223     3435     3613     3788     3924     4008     4028 
    3946     3793     3585     3353     3134     2905     2674     2450 
    2212     1984     1786     1663     1640     1706     1852     2026 
    2189     2347     2470     2566     2629     2675     2785     2886 
    2940     3015     3037     2994     2933     2840     2737     2605 
    2481     2408     2362     2373     2403     2415     2452     2475 
    2506     2559     2592     2656     2712     2683     2582     2411 
    2238     2099     1981     1918     1885     1888     1877     1838 
    1842     1798     1718     1692     1664     1696     1798     1890 
    2004     2085     2139     2250     2373     2500     2597     2655 
    2662     2550     2427     2331     2234     2224     2242     2269 
    2338     2380     2421     2404     2274     2095     1907     1767 
    1642     1526     1534     1645     1875     2243     2616     2963 
    3242     3431     3632     3817     3960     4027     3925     3765 
    3689     3774     3924     3892     3712     3510     3325     3221 
    3175     3173     3132     3014     2998     3114     3323     3623 
    3893     4070     4167     4263     4433     4622     4779     4830 
    4720     4514     4337     4364     4564     4675     4611     4453 
    4307     4241     4212     4151     3981     3677     3360     3123 
    2997     2944     2883     2781     2641     2520     2542     2698 
    2871     2982     3049     3142     3273     3461     3618     3600 
    3485     3377     3349     3437     3458     3330     3160     2990 
    2866     2805     2720     2527     2203     1863     1618     1448 
    1304     1096      820      581      398      311      338      441 
     602      741      885     1088     1328     1632     1930     2161 
    2404     2737     3179     3653     4082     4398     4584     4730 
    4799     4769     4700     4507     4144     3639     3006     2361 
    1776     1251      765      321       25      -90      -16      265 
     580      862     1186     1556     2043     2629     3176     3631 
    4000     4330     4604     4841     5096     5277     5329     5302 
    5290     5355     5344     5152     4803     4341     3921     3554 
    3160     2685     2056     1428      939      554      253      -52 
    -355     -594     -743     -738     -612     -426     -160      174 
     580     1058     1617     2270     2911     3539     4187     4733 
    5189     5580     5873     6102     6246     6300     6285     6166 
    5918     5567     5151     4660     4068     3424     2758     2080 
