Origin Time       2025/01/13 21:19:00
Lat.              31.8
Long.             131.6
Depth. (km)       30
Mag.              6.9
Station Code      YMG019
Station Lat.      33.8454
Station Long.     132.1204
Station Height(m) 63
Record Time       2025/01/13 21:20:39
Sampling Freq(Hz) 100Hz
Duration Time(s)  60
Dir.              N-S
Scale Factor      7845(gal)/8223790
Max. Acc. (gal)   1.841
Last Correction   2025/01/13 21:20:40
Memo.             
[...]
    6494     6497     6473     6435     6397     6359     6313     6270 
    6232     6196     6165     6131     6092     6070     6069     6068 
    6070     6087     6108     6123     6142     6173     6210     6253 
    6297     6319     6327     6347     6382     6417     6447     6459 
    6444     6421     6411     6411     6416     6405     6378     6353 
    6339     6322     6282     6249     6238     6234     6238     6247 
    6245     6219     6177     6142     6123     6106     6085     6072 
    6070     6068     6052     6039     6060     6111     6154     6183 
    6219     6253     6266     6276     6295     6309     6316     6308 
    6281     6243     6226     6235     6258     6288     6319     6340 
    6336     6305     6269     6242     6228     6247     6286     6307 
    6303     6285     6253     6214     6174     6123     6069     6041 
    6026     6015     6015     6025     6049     6079     6095     6093 
    6084     6076     6065     6050     6034     6012     5985     5971 
    5987     6022     6057     6088     6119     6134     6123     6112 
    6120     6139     6164     6197     6243     6303     6359     6382 
    6367     6345     6331     6319     6295     6265     6243     6230 
    6205     6174     6156     6160     6178     6196     6211     6228 
    6264     6308     6338     6369     6412     6450     6484     6527 
    6561     6569     6554     6516     6453     6380     6307     6245 
    6214     6207     6195     6172     6166     6173     6149     6106 
    6096     6112     6119     6118     6116     6115     6123     6142 
    6161     6172     6176     6177     6180     6177     6181     6200 
    6205     6187     6176     6181     6176     6154     6139     6122 
    6099     6085     6079     6076     6083     6102     6124     6141 
    6156     6181     6224     6285     6346     6394     6427     6417 
    6354     6255     6164     6104     6068     6030     5979     5933 
    5891     5840     5802     5792     5779     5768     5798     5861 
    5942     6034     6110     6145     6161     6173     6168     6150 
    6151     6164     6169     6170     6172     6162     6150     6147 
    6145     6139     6147     6165     6189     6208     6222     6234 
    6239     6237     6235     6243     6272     6332     6412     6489 
    6573     6659     6721     6743     6735     6710     6664     6601 
    6532     6454     6376     6326     6304     6272     6234     6216 
    6212     6214     6219     6237     6273     6308     6334     6342 
    6326     6296     6265     6220     6165     6123     6097     6100 
    6130     6166     6212     6265     6313     6377     6471     6571 
    6650     6683     6678     6656     6632     6609     6585     6561 
    6536     6509     6473     6413     6355     6331     6331     6320 
    6291     6255     6230     6215     6218     6246     6300     6366 
    6421     6446     6439     6401     6342     6278     6230     6208 
    6207     6207     6214     6237     6264     6278     6273     6254 
    6238     6215     6176     6126     6079     6042     6022     6015 
    6016     6011     5996     5985     5973     5956     5954     5965 
    5979     5991     5998     5998     6003     6018     6031     6042 
    6065     6099     6134     6170     6214     6259     6307     6357 
    6405     6455     6505     6536     6547     6551     6536     6497 
    6465     6450     6417     6347     6272     6211     6172     6146 
    6127     6118     6122     6133     6145     6154     6150     6134 
    6137     6176     6231     6282     6320     6335     6324     6301 
    6273     6234     6192     6158     6123     6087     6070     6092 
    6138     6188     6242     6288     6296     6278     6266     6269 
    6284     6319     6388     6488     6594     6673     6705     6697 
    6660     6609     6544     6473     6409     6363     6336     6331 
    6346     6374     6413     6454     6469     6457     6435     6420 
    6421     6426     6413     6385     6338     6280     6222     6162 
    6106     6070     6064     6069     6064     6064     6085     6100 
    6099     6099     6096     6095     6083     6034     5953     5856 
    5753     5674     5643     5665     5722     5771     5791     5802 
    5822     5840     5838     5833     5854     5931     6061     6210 
    6350     6467     6556     6619     6658     6660     6636     6600 
    6547     6486     6430     6377     6339     6328     6334     6338 
    6338     6320     6278     6218     6143     6075     6030     6003 
    5992     6000     6002     5999     6019     6041     6037     6015 
    5991     5950     5900     5863     5826     5794     5796     5827 
    5863     5899     5930     5941     5929     5918     5925     5956 
    6012     6083     6147     6184     6180     6154     6123     6096 
    6081     6080     6099     6141     6174     6165     6104     6014 
    5911     5823     5769     5749     5756     5773     5792     5813 
    5829     5842     5877     5942     6030     6116     6188     6251 
    6316     6392     6486     6574     6619     6624     6617     6601 
    6578     6559     6542     6519     6484     6430     6369     6328 
    6312     6291     6257     6234     6230     6231     6239     6273 
    6327     6382     6428     6447     6438     6419     6404     6397 
    6409     6432     6455     6473     6470     6435     6384     6330 
    6272     6216     6160     6104     6075     6085     6118     6154 
    6181     6197     6211     6218     6210     6185     6143     6107 
    6089     6097     6149     6235     6327     6412     6478     6504 
    6501     6484     6443     6411     6416     6435     6431     6411 
    6392     6366     6334     6303     6272     6242     6230     6220 
    6203     6192     6184     6157     6139     6160     6184     6185 
    6177     6169     6150     6120     6099     6107     6137     6170 
    6195     6200     6185     6161     6149     6149     6160     6183 
    6197     6201     6207     6224     6264     6319     6381     6447 
    6497     6538     6583     6600     6589     6588     6578     6536 
    6484     6453     6450     6457     6458     6458     6447     6413 
    6346     6232     6106     6016     5975     5957     5945     5965 
    6033     6122     6189     6200     6168     6116     6030     5913 
    5815     5779     5805     5868     5935     5995     6038     6060 
    6064     6064     6076     6112     6154     6184     6201     6210 
    6212     6212     6232     6268     6282     6278     6282     6297 
    6336     6427     6546     6631     6659     6655     6646     6627 
    6608     6600     6594     6589     6588     6567     6520     6458 
    6382     6293     6222     6204     6231     6266     6286     6273 
    6205     6111     6034     5979     5923     5853     5805     5798 
    5805     5799     5782     5753     5722     5691     5652     5629 
    5651     5698     5744     5778     5815     5860     5914     5979 
    6053     6142     6232     6285     6281     6255     6234     6216 
    6223     6258     6292     6297     6280     6262     6262     6280 
    6323     6385     6455     6521     6544     6519     6471     6417 
    6372     6326     6278     6232     6184     6153     6147     6146 
    6170     6253     6359     6430     6451     6451     6450     6467 
    6519     6589     6640     6655     6636     6582     6521     6482 
    6455     6442     6450     6458     6448     6412     6350     6292 
    6258     6261     6301     6366     6453     6546     6616     6652 
    6685     6725     6752     6771     6797     6828     6866     6897 
    6914     6918     6897     6866     6843     6817     6790     6762 
    6713     6652     6583     6500     6409     6331     6292     6308 
    6343     6350     6331     6305     6259     6196     6146     6123 
    6104     6058     5973     5872     5767     5665     5586     5518 
    5468     5462     5487     5518     5555     5593     5625     5649 
    5676     5721     5786     5846     5894     5950     6022     6097 
    6184     6293     6404     6478     6515     6532     6536     6528 
    6538     6582     6633     6674     6705     6721     6714     6697 
    6679     6655     6624     6582     6512     6420     6330     6245 
    6166     6104     6081     6114     6181     6242     6280     6304 
    6324     6347     6380     6432     6490     6539     6571     6583 
    6585     6593     6601     6588     6552     6493     6403     6331 
    6327     6372     6420     6469     6496     6462     6365     6245 
    6123     5992     5848     5690     5524     5366     5240     5140 
    5044     4957     4881     4812     4750     4706     4677     4656 
    4665     4707     4749     4769     4770     4773     4800     4858 
    4924     4982     5040     5093     5130     5151     5159     5152 
    5140     5134     5140     5173     5240     5346     5466     5574 
    5668     5752     5821     5873     5907     5925     5925     5917 
    5911     5881     5813     5721     5634     5582     5564     5586 
    5647     5715     5768     5815     5852     5884     5953     6060 
    6161     6246     6345     6450     6547     6647     6744     6825 
    6885     6939     6988     7011     7001     6967     6920     6890 
    6876     6840     6754     6650     6570     6512     6463     6451 
    6482     6531     6593     6671     6751     6818     6855     6856 
    6849     6856     6858     6858     6870     6890     6920     6964 
    7001     7026     7038     7015     6955     6880     6806     6740 
    6693     6666     6658     6658     6655     6648     6637     6623 
    6589     6536     6493     6481     6486     6492     6493     6484 
    6469     6467     6482     6501     6500     6461     6401     6319 
    6191     6046     5940     5890     5880     5900     5949     6016 
    6080     6115     6123     6116     6104     6096     6097     6099 
    6089     6064     6021     5968     5927     5926     5958     5988 
    6004     6011     6008     6011     6034     6056     6061     6056 
    6049     6070     6126     6178     6223     6288     6373     6455 
    6529     6606     6713     6844     6957     7026     7068     7107 
    7146     7172     7192     7203     7190     7157     7133     7125 
    7136     7169     7190     7176     7150     7117     7067     7017 
    6972     6920     6858     6785     6696     6615     6574     6569 
    6577     6588     6592     6582     6555     6521     6492     6461 
    6416     6380     6367     6366     6366     6357     6309     6254 
    6250     6296     6345     6385     6428     6459     6453     6409 
    6351     6312     6295     6295     6304     6278     6197     6097 
    6010     5948     5937     5989     6085     6188     6266     6312 
    6339     6382     6463     6570     6666     6717     6725     6720 
    6718     6737     6768     6793     6802     6794     6759     6693 
    6612     6548     6524     6546     6596     6643     6671     6675 
    6639     6574     6508     6426     6311     6183     6056     5935 
    5841     5778     5729     5674     5603     5524     5437     5351 
    5277     5219     5173     5128     5084     5049     5012     4969 
    4930     4899     4887     4915     4992     5107     5239     5379 
    5510     5605     5661     5687     5682     5676     5703     5752 
    5811     5899     6004     6108     6211     6296     6334     6340 
    6336     6338     6366     6424     6494     6577     6674     6772 
    6870     6974     7068     7126     7156     7164     7156     7146 
    7125     7063     6961     6853     6756     6679     6617     6569 
    6556     6575     6581     6567     6532     6462     6366     6276 
    6205     6142     6079     6004     5902     5778     5644     5510 
    5395     5304     5198     5055     4889     4741     4642     4608 
    4615     4627     4634     4644     4661     4685     4712     4739 
    4761     4799     4873     4990     5142     5296     5417     5501 
    5553     5595     5664     5786     5931     6056     6137     6176 
    6181     6168     6158     6164     6191     6243     6296     6331 
    6365     6393     6411     6444     6504     6561     6598     6642 
    6724     6853     6990     7087     7149     7190     7188     7149 
    7106     7082     7074     7074     7082     7101     7107     7068 
    6978     6866     6764     6656     6527     6400     6291     6193 
    6107     6039     5985     5925     5844     5733     5606     5499 
    5431     5397     5405     5443     5490     5548     5629     5725 
    5817     5887     5941     6003     6084     6188     6320     6450 
    6546     6588     6571     6512     6440     6365     6291     6238 
    6241     6300     6394     6489     6581     6682     6766     6805 
    6825     6848     6866     6875     6898     6949     7015     7056 
    7047     6998     6928     6837     6720     6569     6386     6196 
    6034     5919     5829     5757     5719     5702     5691     5680 
    5686     5713     5760     5834     5940     6056     6166     6254 
    6301     6318     6319     6322     6315     6272     6196     6099 
    5983     5861     5751     5655     5591     5580     5603     5649 
    5721     5802     5879     5960     6083     6265     6482     6701 
    6901     7080     7248     7406     7562     7707     7824     7916 
    7986     8055     8118     8151     8139     8083     7981     7855 
    7726     7589     7462     7360     7265     7173     7082     6978 
    6848     6685     6497     6322     6183     6070     5973     5894 
    5825     5738     5630     5522     5412     5301     5211     5146 
    5112     5100     5107     5135     5173     5194     5204     5244 
    5340     5466     5578     5670     5744     5792     5815     5829 
    5848     5891     5973     6084     6208     6335     6446     6539 
    6624     6689     6717     6725     6720     6706     6705     6736 
    6795     6868     6952     7024     7048     7024     6968     6883 
    6767     6633     6505     6405     6350     6328     6313     6299 
    6281     6247     6183     6095     6011     5940     5883     5859 
    5867     5892     5927     5948     5944     5937     5925     5884 
    5826     5775     5737     5729     5738     5748     5749     5764 
    5802     5845     5872     5873     5865     5869     5895     5948 
    6021     6108     6197     6284     6367     6444     6524     6628 
    6756     6875     6956     6999     7025     7051     7079     7103 
    7128     7141     7121     7059     6956     6814     6644     6458 
    6272     6095     5927     5779     5643     5493     5317     5112 
    4905     4733     4611     4540     4494     4455     4441     4463 
    4515     4603     4725     4869     5026     5184     5335     5468 
    5580     5672     5746     5813     5880     5942     5999     6061 
    6120     6173     6232     6295     6353     6417     6494     6574 
    6664     6767     6862     6918     6930     6914     6871     6806 
    6735     6666     6589     6497     6404     6313     6239     6208 
    6215     6241     6274     6285     6251     6196     6153     6134 
    6130     6151     6211     6305     6424     6558     6696     6812 
    6909     7007     7107     7218     7345     7483     7619     7738 
    7817     7848     7847     7804     7705     7568     7407     7222 
    7015     6786     6540     6297     6084     5904     5753     5621 
    5489     5351     5200     5031     4880     4787     4745     4737 
    4743     4766     4812     4878     4955     5024     5057     5057 
    5063     5094     5131     5169     5209     5260     5347     5474 
    5633     5810     5960     6062     6133     6188     6246     6323 
    6411     6504     6600     6670     6678     6652     6636     6612 
    6567     6515     6458     6400     6346     6300     6261     6226 
    6193     6170     6160     6161     6173     6195     6238     6312 
    6401     6498     6605     6709     6791     6844     6872     6885 
    6893     6906     6925     6933     6937     6945     6936     6907 
    6890     6880     6876     6897     6944     6997     7026     7032 
    7029     7007     6959     6886     6789     6691     6613     6527 
    6435     6377     6347     6326     6323     6340     6361     6380 
    6408     6458     6524     6566     6567     6524     6411     6219 
    5999     5800     5652     5566     5548     5582     5645     5717 
    5765     5786     5803     5834     5873     5914     5956     6004 
    6060     6143     6258     6358     6416     6431     6400     6339 
    6278     6222     6169     6126     6080     6042     6030     6026 
    6023     6041     6093     6170     6238     6277     6297     6327 
    6393     6484     6570     6651     6729     6786     6814     6814 
    6794     6774     6760     6737     6704     6667     6619     6565 
    6523     6497     6488     6482     6461     6408     6330     6235 
    6131     6021     5914     5822     5748     5692     5651     5587 
    5482     5368     5285     5239     5235     5269     5332     5422 
    5539     5684     5840     5988     6120     6226     6286     6309 
    6312     6305     6292     6273     6272     6300     6322     6319 
    6304     6266     6192     6103     6021     5944     5872     5799 
    5709     5620     5559     5513     5458     5387     5301     5190 
    5067     4963     4885     4828     4806     4811     4819     4820 
    4810     4791     4801     4870     4982     5130     5314     5503 
    5682     5865     6053     6218     6349     6444     6515     6570 
    6619     6659     6694     6725     6756     6789     6824     6867 
    6916     6955     6971     6961     6917     6839     6759     6690 
    6621     6571     6566     6588     6601     6588     6540     6459 
    6345     6223     6131     6064     6011     5983     5983     5989 
    5983     5980     5989     5996     5989     5985     6000     6038 
    6100     6187     6295     6431     6588     6739     6874     7002 
    7109     7172     7200     7218     7244     7280     7327     7387 
    7447     7500     7528     7514     7461     7404     7369     7342 
    7298     7227     7136     7030     6933     6840     6717     6573 
    6442     6318     6178     6034     5906     5791     5701     5647 
    5626     5633     5652     5667     5679     5688     5701     5718 
    5722     5718     5717     5726     5748     5783     5826     5861 
    5873     5863     5833     5796     5775     5772     5773     5748 
    5690     5616     5541     5479     5447     5437     5452     5502 
    5564     5611     5653     5699     5742     5795     5876     5972 
    6062     6142     6211     6261     6281     6281     6301     6362 
    6447     6548     6658     6756     6826     6871     6893     6893 
    6895     6902     6912     6941     6983     7013     7021     7006 
    6988     6968     6929     6863     6783     6694     6602     6511 
    6415     6324     6245     6174     6119     6085     6070     6056 
    6031     6002     5967     5925     5873     5821     5790     5787 
    5799     5834     5907     6008     6116     6224     6336     6442 
