Origin Time       2025/01/13 21:19:00
Lat.              31.8
Long.             131.6
Depth. (km)       30
Mag.              6.9
Station Code      YMG002
Station Lat.      34.4077
Station Long.     131.3986
Station Height(m) 3
Record Time       2025/01/13 21:20:40
Sampling Freq(Hz) 100Hz
Duration Time(s)  108
Dir.              N-S
Scale Factor      7845(gal)/8223790
Max. Acc. (gal)   3.407
Last Correction   2025/01/13 21:20:41
Memo.             
[...]
    2374     2529     2663     2756     2799     2802     2789     2767 
    2739     2709     2687     2663     2621     2566     2486     2377 
    2273     2191     2114     2041     1977     1927     1911     1944 
    1998     2046     2079     2095     2083     2042     1976     1892 
    1799     1706     1625     1559     1514     1495     1491     1497 
    1509     1525     1537     1543     1548     1560     1579     1610 
    1647     1674     1698     1718     1719     1699     1664     1625 
    1580     1555     1567     1593     1620     1649     1656     1624 
    1572     1506     1424     1354     1298     1235     1186     1182 
    1201     1225     1281     1368     1474     1587     1707     1806 
    1876     1926     1935     1899     1842     1769     1682     1620 
    1628     1679     1755     1872     2003     2088     2116     2110 
    2061     1983     1907     1852     1813     1796     1806     1815 
    1819     1817     1784     1709     1629     1571     1529     1513 
    1525     1549     1595     1682     1772     1821     1848     1860 
    1826     1750     1671     1568     1435     1321     1235     1167 
    1139     1155     1197     1275     1399     1520     1611     1706 
    1804     1883     1942     2008     2070     2124     2192     2261 
    2304     2334     2363     2362     2317     2255     2188     2111 
    2041     2000     1971     1953     1956     1956     1941     1911 
    1868     1804     1753     1741     1757     1813     1929     2085 
    2257     2444     2631     2774     2864     2901     2870     2781 
    2650     2479     2292     2131     1998     1871     1750     1651 
    1566     1470     1366     1244     1097      951      826      716 
     623      571      545      530      554      619      699      795 
     912     1015     1078     1127     1162     1171     1171     1167 
    1138     1100     1094     1097     1082     1078     1093     1109 
    1129     1173     1250     1368     1552     1798     2068     2343 
    2617     2851     3010     3115     3160     3140     3088     3040 
    3006     2971     2941     2920     2883     2839     2778     2694 
    2598     2497     2392     2284     2192     2112     2037     1979 
    1929     1885     1849     1829     1831     1846     1869     1885 
    1879     1852     1817     1763     1682     1598     1520     1447 
    1377     1296     1206     1112     1020      935      858      816 
     807      826      889      994     1121     1248     1375     1480 
    1556     1629     1695     1746     1795     1852     1904     1939 
    1966     1977     1969     1949     1900     1830     1746     1657 
    1559     1452     1360     1275     1197     1151     1158     1213 
    1283     1364     1448     1510     1539     1547     1566     1602 
    1672     1796     1945     2110     2280     2427     2533     2594 
    2608     2562     2479     2400     2322     2253     2211     2189 
    2164     2124     2100     2079     2052     2016     1949     1858 
    1772     1710     1664     1636     1651     1702     1782     1896 
    2018     2119     2201     2270     2296     2286     2282     2257 
    2195     2123     2046     1961     1869     1796     1736     1674 
    1624     1571     1518     1486     1458     1420     1385     1374 
    1362     1345     1363     1398     1436     1476     1529     1598 
    1664     1726     1772     1794     1836     1903     1999     2115 
    2219     2293     2322     2312     2266     2172     2057     1948 
    1853     1784     1741     1730     1741     1790     1854     1891 
    1926     1969     2002     2019     2023     2012     1979     1937 
    1899     1838     1775     1714     1642     1575     1505     1435 
    1359     1290     1260     1239     1235     1273     1316     1367 
    1448     1556     1653     1723     1787     1818     1819     1827 
    1841     1858     1894     1948     1995     2025     2074     2110 
    2095     2068     2033     1976     1918     1883     1865     1834 
    1826     1846     1854     1879     1921     1934     1918     1911 
    1911     1894     1891     1918     1934     1949     1971     1976 
    1956     1899     1819     1709     1574     1464     1367     1286 
    1246     1223     1221     1242     1270     1291     1283     1273 
    1259     1231     1205     1177     1159     1165     1185     1227 
    1282     1367     1471     1561     1659     1737     1788     1854 
    1937     2027     2128     2236     2355     2462     2566     2667 
    2739     2798     2839     2849     2836     2793     2754     2724 
    2714     2748     2794     2844     2886     2894     2876     2835 
    2768     2671     2532     2390     2241     2080     1952     1852 
    1760     1668     1584     1505     1406     1321     1262     1220 
    1204     1200     1190     1159     1100     1024      913      778 
     650      521      419      371      372      425      498      584 
     687      787      897      993     1067     1143     1220     1310 
    1404     1501     1617     1746     1900     2072     2242     2413 
    2570     2717     2845     2943     3032     3099     3148     3181 
    3181     3144     3053     2914     2743     2540     2359     2228 
    2149     2165     2269     2427     2624     2821     2982     3080 
    3119     3098     2990     2818     2605     2362     2130     1919 
    1749     1613     1502     1435     1383     1339     1302     1237 
    1151     1048      930      808      691      594      515      468 
     486      549      643      749      834      904      958      989 
     985      940      892      830      743      666      596      513 
     417      328      272      247      271      340      423      544 
     706      895     1111     1337     1579     1823     2056     2278 
    2477     2660     2824     2949     3049     3111     3145     3176 
    3206     3256     3325     3416     3539     3665     3782     3882 
    3929     3904     3796     3622     3392     3132     2883     2652 
    2471     2381     2344     2346     2378     2435     2504     2544 
    2552     2509     2413     2299     2155     1989     1826     1672 
    1541     1420     1316     1250     1198     1171     1163     1154 
    1136     1098     1054     1005      950      920      912      924 
     977     1074     1220     1386     1557     1725     1852     1957 
    2030     2052     2038     1979     1876     1749     1602     1467 
    1354     1278     1248     1248     1291     1359     1443     1543 
    1624     1691     1744     1752     1722     1661     1593     1518 
    1455     1429     1416     1412     1424     1420     1416     1410 
    1383     1345     1293     1247     1209     1165     1143     1142 
    1158     1196     1254     1344     1433     1502     1568     1617 
    1660     1709     1765     1844     1939     2073     2239     2405 
    2567     2686     2751     2763     2713     2640     2560     2486 
    2434     2386     2351     2336     2330     2340     2354     2377 
    2398     2394     2380     2343     2285     2230     2174     2139 
    2122     2122     2149     2166     2182     2205     2207     2178 
    2106     1995     1846     1669     1506     1352     1204     1077 
     954      839      729      618      510      388      282      206 
     159      172      232      326      472      653      859     1070 
    1279     1501     1715     1915     2096     2245     2376     2481 
    2560     2612     2635     2650     2646     2636     2641     2636 
    2640     2673     2728     2794     2851     2913     2974     3021 
    3079     3122     3138     3134     3098     3034     2956     2887 
    2822     2747     2678     2597     2482     2362     2234     2107 
    1987     1856     1706     1516     1291     1057      814      598 
     414      270      183      141      141      163      199      279 
     384      513      657      791      928     1069     1182     1250 
    1273     1262     1210     1151     1109     1063     1040     1061 
    1111     1194     1306     1440     1571     1680     1791     1888 
    1977     2088     2205     2324     2434     2521     2577     2581 
    2563     2542     2500     2451     2377     2269     2142     2006 
    1880     1767     1691     1664     1640     1614     1571     1472 
    1331     1170     1012      865      754      718      734      797 
     903     1001     1082     1150     1189     1178     1120     1063 
    1016      984     1013     1080     1152     1258     1368     1449 
    1490     1506     1499     1459     1429     1425     1420     1444 
    1522     1649     1807     1969     2131     2270     2398     2532 
    2654     2793     2970     3164     3383     3613     3851     4081 
    4293     4476     4583     4607     4565     4461     4321     4159 
    3990     3835     3689     3572     3478     3385     3285     3150 
    2976     2778     2552     2322     2095     1887     1702     1526 
    1389     1279     1170     1063      942      796      610      382 
     140     -125     -388     -611     -796     -916     -973     -992 
   -1001    -1011    -1016    -1053    -1113    -1167    -1228    -1275 
   -1283    -1263    -1204    -1107     -973     -811     -650     -465 
    -257      -56      137      329      529      733      959     1225 
    1502     1792     2081     2316     2511     2677     2814     2922 
    3013     3102     3175     3245     3335     3423     3500     3569 
    3631     3697     3751     3811     3873     3919     3981     4048 
    4104     4163     4203     4210     4185     4140     4079     3987 
    3892     3797     3672     3524     3366     3195     2992     2767 
    2552     2330     2118     1942     1776     1637     1520     1408 
    1301     1182     1071      963      851      778      733      699 
     687      670      629      561      491      432      376      364 
     392      418      453      490      518      549      585      622 
     638      653      687      730      810      924     1050     1204 
    1401     1630     1858     2093     2338     2562     2791     3030 
    3225     3370     3456     3468     3407     3295     3181     3060 
    2938     2859     2794     2732     2706     2705     2706     2712 
    2736     2758     2755     2751     2732     2690     2655     2627 
    2605     2583     2570     2551     2493     2421     2336     2205 
    2061     1919     1765     1605     1464     1355     1247     1166 
    1125     1062      972      855      687      486      290      135 
      14      -72     -109     -122     -122      -89      -41       17 
      89      170      253      329      414      498      561      634 
     702      749      793      838      884      932     1003     1101 
    1208     1352     1532     1709     1891     2072     2253     2439 
    2629     2821     2971     3084     3181     3254     3323     3406 
    3511     3643     3789     3948     4089     4175     4217     4198 
    4132     4056     3977     3901     3844     3812     3785     3755 
    3734     3677     3568     3431     3242     3011     2779     2551 
    2323     2092     1883     1684     1479     1302     1148      993 
     845      703      577      463      368      311      263      230 
     233      233      222      209      182      118       31      -51 
    -144     -229     -259     -245     -190      -91       41      201 
     371      554      724      861      993     1116     1224     1333 
    1448     1591     1763     1966     2196     2405     2601     2789 
    2949     3100     3245     3375     3478     3557     3624     3662 
    3666     3645     3574     3472     3352     3225     3119     3026 
    2953     2901     2860     2839     2821     2810     2816     2826 
    2851     2860     2830     2768     2663     2529     2370     2200 
    2047     1904     1777     1659     1524     1383     1229     1065 
     900      722      562      429      314      229      171      141 
     128      128      136      139      164      217      279      371 
     473      567      646      702      750      777      780      789 
     807      835      885      954     1031     1097     1169     1251 
    1325     1410     1503     1587     1667     1736     1799     1845 
    1884     1944     2007     2092     2214     2357     2524     2694 
    2867     3040     3198     3356     3493     3611     3727     3813 
    3867     3905     3917     3893     3832     3759     3659     3531 
    3429     3330     3229     3163     3117     3071     3018     2959 
    2882     2767     2647     2502     2301     2073     1819     1545 
    1274     1013      783      562      368      216       74      -48 
    -145     -224     -288     -346     -386     -418     -441     -433 
    -426     -413     -364     -291     -180      -37      144      364 
     599      857     1125     1390     1668     1945     2214     2473 
    2710     2930     3115     3271     3402     3495     3576     3651 
    3713     3781     3848     3915     3962     3989     4008     4001 
    3989     3977     3932     3881     3835     3788     3744     3707 
    3666     3596     3488     3346     3152     2924     2668     2382 
    2074     1749     1425     1100      766      452      149     -145 
    -413     -668     -908    -1121    -1304    -1455    -1584    -1671 
   -1726    -1776    -1782    -1745    -1690    -1615    -1520    -1401 
   -1270    -1115     -928     -749     -561     -353     -152       43 
     243      448      635      803      988     1182     1375     1598 
    1841     2101     2382     2674     2961     3219     3453     3667 
    3854     4029     4193     4344     4486     4602     4700     4760 
    4784     4795     4776     4723     4649     4557     4448     4309 
    4156     3991     3798     3593     3379     3156     2934     2710 
    2500     2309     2150     2019     1887     1756     1625     1486 
    1350     1206     1057      900      730      562      395      236 
      99      -18      -99     -141     -149     -117      -74      -22 
      25       55       85      121      167      234      322      427 
     523      610      689      734      756      765      772      792 
     814      839      854      849      845      843      861      920 
    1013     1155     1333     1536     1761     1987     2207     2407 
    2570     2716     2830     2924     3006     3071     3125     3164 
    3192     3202     3181     3171     3148     3096     3059     3026 
    2970     2891     2813     2725     2589     2458     2362     2241 
    2123     2053     2003     1945     1887     1861     1838     1795 
    1765     1738     1701     1659     1615     1586     1557     1537 
    1532     1520     1505     1472     1429     1386     1335     1300 
    1271     1231     1192     1144     1104     1067     1023     1001 
    1001     1017     1063     1138     1240     1355     1478     1615 
    1741     1864     1976     2056     2122     2170     2197     2211 
    2222     2258     2299     2351     2438     2523     2593     2655 
    2708     2744     2767     2799     2821     2817     2825     2830 
    2836     2860     2886     2910     2925     2936     2952     2951 
    2941     2916     2852     2764     2648     2517     2374     2219 
    2080     1958     1864     1798     1746     1717     1687     1649 
    1615     1564     1507     1462     1422     1398     1381     1377 
    1374     1359     1351     1341     1333     1337     1340     1356 
    1391     1441     1509     1574     1638     1690     1703     1690 
    1653     1603     1536     1453     1383     1316     1275     1274 
    1279     1298     1328     1344     1362     1370     1358     1332 
    1290     1236     1170     1104     1044      986      945      908 
     877      854      823      805      803      815      859      912 
     984     1084     1177     1263     1348     1426     1507     1597 
    1696     1786     1865     1949     2016     2084     2161     2235 
    2316     2407     2506     2602     2690     2787     2880     2963 
    3044     3105     3142     3160     3159     3129     3053     2967 
    2879     2771     2668     2577     2482     2398     2328     2265 
    2184     2091     1984     1840     1683     1512     1312     1113 
     916      723      542      367      210       59      -85     -199 
    -299     -391     -468     -526     -558     -572     -557     -514 
    -437     -307     -147       43      265      508      770     1024 
    1264     1507     1734     1968     2219     2471     2731     2984 
    3230     3465     3666     3839     3975     4079     4159     4205 
    4239     4268     4298     4340     4376     4392     4378     4336 
    4271     4164     4055     3950     3825     3704     3581     3439 
    3287     3127     2972     2813     2647     2477     2277     2058 
    1827     1578     1318     1058      810      571      341      144 
     -39     -203     -329     -446     -554     -648     -734     -808 
    -877     -918     -939     -959     -955     -940     -930     -900 
    -842     -760     -668     -562     -437     -311     -166        4 
     183      387      603      822     1038     1248     1460     1665 
    1883     2127     2373     2631     2895     3141     3373     3573 
    3747     3901     4032     4151     4237     4305     4367     4409 
    4444     4468     4477     4468     4441     4415     4372     4306 
    4234     4135     4009     3865     3684     3478     3260     3042 
    2829     2605     2389     2161     1912     1667     1421     1178 
     954      765      602      442      310      183       44      -75 
    -189     -292     -378     -444     -475     -499     -510     -494 
    -487     -475     -436     -388     -332     -270     -197     -126 
     -62       20       91      140      202      276      360      472 
     623      801      997     1231     1476     1707     1944     2168 
    2377     2582     2775     2964     3138     3299     3453     3578 
    3688     3784     3855     3916     3956     3983     4000     3996 
    3979     3943     3897     3847     3781     3716     3650     3582 
    3516     3446     3383     3312     3226     3132     3005     2862 
    2714     2552     2393     2242     2101     1966     1833     1710 
    1579     1447     1332     1216     1108     1009      911      818 
     719      623      540      460      400      344      278      218 
     160      114       74       48       52       70      101      149 
     203      265      336      427      533      634      751      876 
    1005     1147     1290     1433     1568     1694     1814     1906 
    1983     2053     2112     2184     2254     2316     2384     2448 
    2523     2600     2667     2731     2789     2857     2936     3009 
    3072     3113     3132     3126     3091     3041     2970     2889 
    2803     2706     2620     2538     2454     2381     2308     2245 
    2191     2133     2083     2039     1998     1961     1923     1899 
    1879     1850     1829     1807     1783     1756     1728     1699 
    1659     1625     1599     1561     1528     1475     1405     1333 
