Origin Time       2025/01/13 21:19:00
Lat.              31.8
Long.             131.6
Depth. (km)       30
Mag.              6.9
Station Code      YMG013
Station Lat.      34.0313
Station Long.     131.5342
Station Height(m) 3
Record Time       2025/01/13 21:20:21
Sampling Freq(Hz) 100Hz
Duration Time(s)  106
Dir.              U-D
Scale Factor      7845(gal)/8223790
Max. Acc. (gal)   1.889
Last Correction   2025/01/13 21:20:20
Memo.             
[...]
   12788    12785    12748    12712    12690    12658    12637    12667 
   12722    12761    12792    12842    12904    12943    12943    12924 
   12883    12810    12710    12584    12438    12317    12237    12185 
   12162    12189    12258    12339    12413    12469    12490    12468 
   12421    12368    12324    12294    12287    12309    12322    12322 
   12332    12356    12380    12394    12399    12405    12403    12402 
   12444    12523    12591    12630    12677    12750    12814    12804 
   12706    12560    12417    12295    12193    12100    12013    11958 
   11951    11971    12025    12144    12316    12502    12679    12819 
   12908    12943    12927    12864    12789    12753    12760    12776 
   12787    12812    12862    12908    12922    12908    12884    12861 
   12862    12879    12868    12822    12766    12721    12664    12572 
   12468    12387    12314    12224    12137    12069    12024    12025 
   12075    12167    12302    12469    12653    12816    12919    12964 
   12980    12976    12924    12818    12661    12483    12321    12181 
   12048    11956    11947    12025    12166    12348    12534    12675 
   12754    12784    12750    12665    12571    12492    12455    12464 
   12494    12515    12537    12583    12648    12702    12731    12737 
   12733    12723    12692    12633    12564    12510    12487    12511 
   12573    12637    12703    12796    12877    12887    12816    12694 
   12549    12425    12356    12351    12403    12513    12657    12785 
   12874    12943    13007    13046    13054    13045    13009    12927 
   12800    12669    12567    12509    12510    12579    12680    12780 
   12860    12900    12887    12835    12762    12671    12565    12455 
   12359    12312    12305    12329    12406    12534    12657    12745 
   12800    12818    12788    12726    12653    12565    12452    12329 
   12235    12186    12166    12171    12220    12310    12420    12530 
   12652    12775    12870    12935    12978    12973    12904    12808 
   12722    12658    12626    12619    12622    12622    12627    12645 
   12652    12615    12542    12469    12429    12425    12447    12482 
   12540    12611    12673    12723    12757    12768    12749    12700 
   12623    12523    12418    12336    12274    12212    12156    12136 
   12160    12204    12237    12251    12256    12282    12322    12340 
   12317    12272    12229    12195    12158    12117    12110    12164 
   12279    12448    12642    12808    12926    13014    13072    13080 
   13027    12938    12843    12756    12673    12592    12507    12422 
   12353    12318    12325    12366    12420    12472    12522    12559 
   12565    12542    12505    12468    12460    12488    12515    12511 
   12495    12475    12428    12356    12294    12255    12228    12214 
   12209    12189    12158    12156    12199    12275    12390    12549 
   12710    12814    12868    12916    12949    12914    12820    12712 
   12591    12468    12374    12302    12243    12220    12260    12361 
   12476    12567    12660    12772    12857    12884    12879    12880 
   12880    12846    12771    12692    12644    12613    12579    12557 
   12536    12496    12453    12415    12386    12357    12307    12258 
   12237    12236    12243    12279    12355    12461    12603    12776 
   12966    13149    13302    13424    13536    13641    13690    13644 
   13536    13385    13155    12864    12587    12361    12178    12031 
   11925    11878    11882    11927    12012    12132    12270    12405 
   12536    12657    12738    12773    12788    12792    12780    12735 
   12668    12619    12596    12563    12511    12471    12448    12442 
   12484    12583    12685    12768    12838    12883    12891    12899 
   12942    12988    12987    12945    12903    12845    12707    12496 
   12303    12174    12085    12027    12023    12054    12097    12174 
   12294    12420    12532    12675    12872    13076    13208    13242 
   13204    13111    12964    12787    12611    12445    12301    12206 
   12168    12191    12280    12409    12537    12668    12814    12961 
   13078    13142    13147    13100    12997    12852    12680    12502 
   12341    12232    12170    12151    12198    12312    12459    12611 
   12737    12795    12769    12684    12582    12480    12356    12209 
   12074    11979    11932    11924    11932    11962    12008    12044 
   12097    12189    12282    12361    12449    12542    12600    12603 
   12567    12522    12482    12434    12378    12330    12320    12341 
   12359    12353    12337    12339    12384    12467    12565    12687 
   12822    12955    13116    13302    13452    13506    13463    13365 
   13207    12970    12715    12522    12405    12361    12391    12451 
   12502    12548    12564    12506    12387    12268    12194    12175 
   12201    12267    12366    12471    12556    12627    12704    12772 
   12835    12918    13003    13046    13036    13015    13015    13003 
   12942    12874    12852    12868    12889    12915    12954    12978 
   12957    12915    12877    12822    12750    12690    12641    12586 
   12530    12509    12501    12467    12413    12363    12340    12347 
   12355    12378    12434    12498    12540    12544    12513    12468 
   12432    12405    12376    12332    12264    12193    12139    12085 
   12008    11931    11871    11840    11861    11942    12056    12172 
   12280    12371    12440    12480    12482    12461    12434    12399 
   12370    12349    12324    12298    12290    12301    12324    12352 
   12393    12434    12449    12430    12390    12325    12258    12240 
   12278    12339    12409    12498    12615    12731    12819    12893 
   12958    12993    13007    12999    12960    12889    12779    12625 
   12475    12375    12307    12255    12255    12339    12479    12645 
   12827    12981    13069    13103    13136    13180    13192    13165 
   13136    13130    13124    13109    13086    13057    13022    12980 
   12934    12881    12811    12739    12703    12700    12700    12687 
   12665    12640    12599    12538    12482    12457    12465    12495 
   12549    12617    12642    12590    12484    12379    12289    12226 
   12228    12285    12330    12334    12307    12264    12214    12144 
   12066    12019    12023    12071    12147    12225    12283    12301 
   12303    12337    12387    12411    12418    12424    12415    12378 
   12341    12340    12352    12356    12370    12405    12452    12498 
   12521    12529    12534    12533    12511    12471    12432    12410 
   12409    12418    12429    12447    12499    12611    12758    12872 
   12914    12893    12831    12760    12698    12654    12648    12660 
   12664    12665    12660    12640    12619    12602    12573    12530 
   12484    12463    12487    12526    12556    12602    12665    12712 
   12745    12762    12742    12679    12590    12478    12345    12216 
   12105    11996    11865    11718    11620    11607    11647    11728 
   11850    11979    12082    12152    12205    12236    12249    12270 
   12306    12351    12418    12518    12629    12708    12750    12772 
   12765    12717    12660    12625    12607    12575    12511    12434 
   12357    12291    12268    12279    12280    12293    12343    12422 
   12521    12618    12692    12733    12729    12692    12630    12537 
   12436    12352    12294    12278    12324    12414    12502    12550 
   12568    12555    12509    12460    12437    12436    12459    12510 
   12557    12571    12545    12488    12417    12375    12376    12402 
   12459    12534    12594    12627    12621    12561    12476    12391 
   12313    12263    12272    12348    12469    12587    12695    12822 
   12941    13018    13041    13007    12942    12869    12789    12712 
   12631    12536    12428    12318    12212    12114    12040    11998 
   11983    11985    11997    12042    12145    12299    12478    12658 
   12815    12910    12937    12945    12980    12995    12920    12796 
   12702    12652    12634    12652    12707    12784    12846    12896 
   12958    12995    12978    12957    12962    12976    12987    12996 
   12970    12884    12762    12650    12567    12505    12451    12415 
   12433    12510    12619    12729    12823    12912    12989    13047 
   13105    13171    13215    13209    13158    13066    12946    12815 
   12681    12546    12436    12371    12348    12349    12349    12330 
   12306    12298    12294    12248    12132    11939    11691    11438 
   11207    11002    10836    10743    10768    10932    11198    11503 
   11820    12120    12360    12510    12582    12595    12550    12453 
   12348    12279    12244    12249    12320    12453    12629    12795 
   12885    12904    12892    12870    12835    12795    12773    12772 
   12762    12760    12771    12771    12745    12715    12708    12752 
   12849    12970    13069    13103    13050    12919    12746    12579 
   12449    12375    12357    12380    12414    12430    12434    12467 
   12556    12692    12837    12951    13035    13085    13080    13022 
   12947    12892    12869    12877    12915    12991    13090    13163 
   13180    13167    13144    13104    13058    13019    12962    12872 
   12761    12657    12571    12505    12488    12549    12673    12834 
   12985    13078    13104    13069    12960    12788    12591    12380 
   12179    12027    11950    11928    11942    12008    12143    12336 
   12561    12793    13018    13215    13346    13406    13425    13413 
   13356    13257    13138    13015    12888    12754    12619    12494 
   12384    12302    12252    12233    12225    12210    12209    12233 
   12268    12302    12363    12474    12614    12738    12803    12793 
   12735    12653    12546    12452    12410    12397    12374    12355 
   12361    12372    12364    12344    12329    12310    12256    12174 
   12085    11981    11855    11728    11631    11596    11623    11688 
   11773    11870    11983    12108    12231    12340    12420    12492 
   12567    12611    12614    12579    12499    12387    12272    12193 
   12178    12235    12360    12537    12737    12907    12997    13019 
   13003    12964    12949    12988    13049    13103    13178    13306 
   13479    13663    13817    13909    13956    13998    14033    14022 
   13941    13805    13667    13549    13456    13381    13302    13208 
   13115    13043    12989    12926    12834    12730    12645    12583 
   12522    12442    12367    12332    12356    12429    12536    12698 
   12937    13225    13518    13764    13929    14007    14000    13915 
   13756    13521    13231    12920    12614    12317    12028    11757 
   11526    11338    11191    11097    11083    11146    11260    11404 
   11573    11763    11965    12159    12325    12449    12534    12606 
   12681    12739    12771    12784    12802    12812    12793    12735 
   12644    12522    12375    12216    12059    11905    11773    11700 
   11701    11762    11871    12015    12181    12353    12506    12633 
   12735    12795    12807    12811    12834    12868    12896    12916 
   12916    12881    12819    12742    12652    12564    12474    12376 
   12293    12256    12266    12293    12348    12442    12550    12660 
   12764    12838    12858    12815    12726    12631    12538    12425 
   12313    12258    12270    12301    12307    12301    12287    12243 
   12145    11998    11830    11682    11601    11601    11655    11727 
   11820    11961    12148    12347    12530    12695    12846    12991 
   13132    13254    13311    13277    13178    13062    12942    12807 
   12657    12530    12453    12424    12411    12406    12395    12359 
   12302    12258    12233    12205    12163    12150    12191    12253 
   12283    12285    12285    12274    12236    12178    12123    12090 
   12090    12136    12240    12395    12567    12715    12829    12907 
   12930    12883    12779    12640    12494    12374    12307    12293 
   12289    12271    12249    12225    12185    12110    11997    11862 
   11736    11637    11542    11433    11352    11349    11415    11508 
   11608    11704    11784    11851    11940    12056    12162    12248 
   12333    12428    12521    12614    12737    12892    13057    13234 
   13421    13594    13718    13775    13753    13657    13525    13392 
   13258    13138    13059    13032    13041    13057    13082    13158 
   13288    13428    13549    13637    13671    13628    13536    13424 
   13277    13096    12908    12752    12641    12559    12494    12456 
   12437    12429    12411    12371    12345    12353    12376    12402 
   12409    12370    12293    12218    12163    12132    12131    12160 
   12237    12371    12534    12702    12850    12960    13019    13015 
   12958    12854    12699    12522    12347    12170    12009    11908 
   11908    12036    12275    12556    12823    13034    13147    13170 
   13150    13095    12987    12847    12718    12604    12468    12295 
   12120    11962    11834    11745    11699    11693    11718    11762 
   11813    11846    11858    11865    11862    11863    11893    11915 
   11894    11831    11736    11638    11560    11520    11546    11669 
   11900    12174    12401    12549    12629    12652    12637    12609 
   12586    12569    12567    12600    12652    12688    12722    12773 
   12843    12933    13027    13117    13215    13340    13516    13738 
   13973    14184    14357    14482    14531    14481    14335    14129 
   13900    13679    13470    13282    13120    12993    12892    12826 
   12818    12850    12881    12914    12958    13014    13080    13142 
   13166    13146    13096    13024    12914    12780    12667    12613 
   12617    12638    12641    12634    12618    12569    12483    12379 
   12260    12128    12008    11909    11815    11726    11673    11672 
   11688    11670    11604    11519    11449    11406    11381    11381 
   11445    11589    11796    12009    12178    12305    12406    12445 
   12402    12320    12267    12278    12330    12401    12483    12561 
   12618    12644    12649    12642    12622    12599    12592    12609 
   12623    12607    12546    12461    12375    12298    12248    12251 
   12305    12394    12517    12663    12792    12874    12915    12949 
   13005    13084    13170    13257    13320    13317    13244    13115 
   12927    12699    12471    12285    12170    12132    12147    12189 
   12237    12279    12303    12322    12374    12472    12590    12706 
   12807    12877    12920    12949    12978    13018    13049    13047 
   13004    12943    12893    12833    12748    12672    12618    12583 
   12567    12571    12586    12594    12588    12565    12528    12484 
   12432    12366    12303    12253    12212    12195    12232    12329 
   12469    12622    12768    12912    13070    13219    13316    13329 
   13250    13093    12879    12629    12363    12112    11905    11773 
   11731    11761    11826    11916    12039    12189    12344    12475 
   12583    12687    12784    12870    12939    13000    13062    13105 
   13104    13062    12991    12896    12777    12645    12534    12482 
   12490    12549    12648    12754    12856    12957    13046    13101 
   13086    12982    12830    12680    12542    12407    12289    12228 
   12232    12263    12302    12349    12399    12428    12428    12420 
   12422    12417    12403    12402    12413    12406    12370    12328 
   12285    12214    12136    12075    12021    11946    11862    11811 
   11816    11840    11855    11884    11932    11988    12058    12140 
   12205    12229    12237    12260    12289    12290    12262    12224 
   12194    12194    12231    12307    12430    12576    12730    12904 
   13068    13166    13192    13159    13078    12970    12861    12781 
   12750    12744    12738    12730    12725    12714    12679    12619 
   12548    12465    12375    12285    12210    12175    12190    12239 
   12295    12363    12453    12565    12696    12852    13039    13243 
   13435    13599    13729    13803    13799    13699    13512    13250 
   12935    12629    12384    12217    12120    12083    12096    12147 
   12228    12317    12407    12511    12637    12783    12942    13104 
   13254    13375    13455    13497    13512    13502    13470    13420 
   13348    13248    13119    12982    12870    12773    12676    12595 
   12555    12545    12569    12629    12704    12776    12827    12842 
   12799    12691    12537    12355    12160    11981    11842    11753 
   11726    11753    11817    11908    11997    12067    12125    12170 
   12190    12182    12135    12058    11965    11846    11704    11570 
   11472    11421    11437    11526    11677    11875    12101    12324 
   12515    12649    12708    12704    12681    12687    12721    12761 
   12792    12800    12775    12727    12664    12575    12453    12306 
   12158    12050    12031    12100    12228    12390    12559    12738 
   12931    13096    13217    13316    13366    13319    13184    13030 
   12911    12812    12683    12525    12391    12312    12293    12329 
   12394    12484    12617    12775    12920    13031    13103    13122 
   13072    12982    12904    12838    12765    12698    12652    12629 
   12641    12676    12710    12735    12762    12796    12845    12910 
   12995    13092    13178    13234    13243    13196    13103    12978 
   12849    12739    12646    12556    12482    12447    12465    12541 
   12672    12838    13001    13123    13178    13178    13173    13174 
   13158    13138    13147    13192    13261    13340    13406    13439 
   13413    13313    13151    12945    12708    12472    12258    12070 
   11913    11803    11758    11750    11713    11616    11503    11403 
   11310    11227    11169    11152    11199    11304    11446    11619 
   11807    12005    12185    12276    12274    12226    12159    12094 
   12044    12000    11973    11983    12012    12032    12050    12090 
   12166    12255    12343    12434    12525    12603    12646    12641 
   12615    12582    12529    12463    12402    12345    12283    12218 
   12167    12143    12144    12175    12241    12303    12316    12313 
   12361    12464    12588    12707    12803    12874    12910    12892 
   12825    12717    12591    12464    12330    12210    12136    12112 
   12118    12131    12145    12175    12222    12283    12355    12432 
   12505    12563    12609    12648    12680    12692    12677    12660 
   12672    12731    12825    12927    13028    13116    13196    13271 
   13324    13328    13285    13219    13140    13049    12937    12810 
   12673    12534    12413    12336    12317    12337    12393    12499 
   12653    12822    12984    13135    13267    13375    13468    13559 
   13640    13674    13637    13556    13473    13379    13267    13154 
   13053    12962    12884    12820    12775    12760    12772    12789 
   12788    12765    12722    12656    12565    12459    12349    12256 
   12189    12129    12060    11979    11898    11823    11739    11641 
   11549    11499    11507    11569    11672    11772    11831    11851 
   11843    11817    11784    11747    11732    11754    11801    11892 
   12017    12145    12287    12440    12587    12735    12883    13001 
