Origin Time       2025/01/13 21:19:00
Lat.              31.8
Long.             131.6
Depth. (km)       30
Mag.              6.9
Station Code      YMG009
Station Lat.      34.2315
Station Long.     131.8175
Station Height(m) 377
Record Time       2025/01/13 21:20:55
Sampling Freq(Hz) 100Hz
Duration Time(s)  60
Dir.              E-W
Scale Factor      7845(gal)/8223790
Max. Acc. (gal)   1.295
Last Correction   2025/01/13 21:20:55
Memo.             
[...]
   -1090    -1092    -1093    -1100    -1101    -1089    -1069    -1034 
    -999     -992    -1021    -1067    -1112    -1132    -1131    -1128 
   -1135    -1152    -1170    -1188    -1208    -1212    -1194    -1190 
   -1212    -1240    -1269    -1291    -1300    -1291    -1269    -1232 
   -1198    -1167    -1121    -1081    -1067    -1073    -1080    -1085 
   -1098    -1123    -1140    -1139    -1138    -1155    -1192    -1215 
   -1198    -1171    -1158    -1132    -1084    -1036    -1005     -986 
    -976     -961     -935     -903     -865     -834     -818     -796 
    -761     -738     -738     -737     -726     -720     -712     -703 
    -712     -735     -760     -787     -814     -847     -878     -889 
    -892     -896     -882     -839     -808     -811     -819     -827 
    -850     -872     -878     -878     -895     -931     -973    -1019 
   -1069    -1102    -1104    -1080    -1034     -976     -926     -899 
    -896     -907     -939     -996    -1039    -1053    -1055    -1042 
   -1016    -1004    -1016    -1031    -1024    -1015    -1005     -970 
    -932     -939     -984    -1019    -1043    -1077    -1113    -1134 
   -1138    -1136    -1128    -1131    -1148    -1165    -1170    -1162 
   -1152    -1147    -1136    -1138    -1161    -1171    -1163    -1162 
   -1173    -1181    -1194    -1210    -1213    -1196    -1167    -1139 
   -1113    -1088    -1063    -1055    -1059    -1055    -1042    -1024 
   -1013    -1035    -1071    -1074    -1043    -1004     -965     -932 
    -924     -954     -996    -1008     -993     -982     -970     -961 
    -985    -1048    -1113    -1154    -1163    -1143    -1086    -1004 
    -923     -872     -864     -896     -946    -1005    -1065    -1102 
   -1120    -1128    -1123    -1102    -1078    -1043     -994     -963 
    -974    -1026    -1101    -1179    -1247    -1296    -1294    -1229 
   -1132    -1040     -961     -895     -854     -845     -858     -899 
    -958    -1004    -1032    -1053    -1043     -997     -939     -889 
    -842     -792     -746     -706     -672     -665     -679     -696 
    -734     -791     -839     -893     -969    -1031    -1040    -1026 
   -1023    -1030    -1038    -1061    -1089    -1100    -1084    -1050 
   -1005     -963     -928     -877     -804     -733     -670     -630 
    -629     -665     -730     -815     -903     -977    -1038    -1078 
   -1086    -1062    -1011     -947     -892     -861     -868     -904 
    -947     -993    -1053    -1132    -1223    -1313    -1387    -1431 
   -1429    -1387    -1314    -1227    -1135    -1048     -988     -965 
    -966     -980    -1015    -1073    -1135    -1182    -1213    -1221 
   -1209    -1171    -1098    -1016     -955     -915     -897     -912 
    -946     -967     -973     -990    -1028    -1070    -1120    -1175 
   -1213    -1208    -1159    -1086    -1021    -1000    -1023    -1067 
   -1121    -1192    -1264    -1308    -1323    -1335    -1337    -1298 
   -1229    -1167    -1108    -1044    -1017    -1043    -1096    -1150 
   -1193    -1213    -1209    -1185    -1143    -1089    -1047    -1009 
    -951     -893     -869     -874     -886     -895     -901     -911 
    -891     -822     -749     -716     -726     -769     -832     -893 
    -922     -908     -892     -895     -893     -889     -896     -889 
    -850     -810     -805     -830     -842     -828     -803     -772 
    -738     -712     -695     -679     -673     -683     -702     -722 
    -751     -805     -885     -986    -1080    -1158    -1220    -1251 
   -1242    -1202    -1146    -1090    -1059    -1048    -1038    -1031 
   -1039    -1050    -1057    -1053    -1026     -989     -965     -942 
    -915     -913     -950     -985     -990     -993    -1000     -973 
    -916     -862     -818     -783     -777     -814     -899     -999 
   -1069    -1097    -1093    -1067    -1043    -1054    -1112    -1200 
   -1266    -1260    -1179    -1062     -946     -874     -885     -950 
   -1015    -1055    -1062    -1028     -967     -920     -916     -958 
   -1021    -1075    -1102    -1098    -1067    -1012     -963     -957 
   -1000    -1067    -1120    -1152    -1171    -1166    -1154    -1151 
   -1154    -1170    -1204    -1227    -1220    -1183    -1132    -1078 
   -1036    -1011    -1004    -1013    -1035    -1054    -1074    -1094 
   -1096    -1077    -1057    -1040    -1007     -954     -909     -886 
    -851     -808     -791     -818     -884     -974    -1053    -1096 
   -1089    -1016     -893     -772     -683     -637     -639     -691 
    -774     -857     -907     -901     -869     -861     -900     -978 
   -1086    -1196    -1262    -1246    -1151    -1026     -920     -862 
    -851     -880     -939     -982     -972     -935     -913     -920 
    -965    -1044    -1127    -1181    -1198    -1185    -1138    -1050 
    -949     -872     -811     -750     -712     -730     -776     -807 
    -834     -873     -911     -939     -950     -943     -938     -945 
    -961     -984    -1019    -1061    -1089    -1092    -1081    -1078 
   -1088    -1098    -1116    -1147    -1171    -1182    -1206    -1248 
   -1277    -1294    -1312    -1305    -1270    -1239    -1228    -1228 
   -1236    -1250    -1248    -1243    -1256    -1263    -1231    -1170 
   -1100    -1020     -936     -874     -870     -918     -990    -1082 
   -1179    -1252    -1293    -1314    -1300    -1240    -1161    -1085 
   -1020     -973     -946     -922     -891     -854     -853     -911 
   -1008    -1120    -1231    -1304    -1304    -1239    -1152    -1081 
   -1051    -1043    -1021     -982     -954     -924     -878     -843 
    -830     -815     -804     -828     -886     -958    -1026    -1073 
   -1073    -1021     -940     -846     -761     -730     -772     -859 
    -955    -1028    -1070    -1082    -1062    -1004     -920     -862 
    -874     -962    -1101    -1220    -1264    -1250    -1204    -1132 
   -1058    -1011     -985     -959     -932     -913     -908     -926 
    -959    -1003    -1063    -1138    -1188    -1169    -1066     -915 
    -774     -668     -589     -557     -569     -591     -603     -622 
    -656     -691     -710     -708     -704     -708     -712     -702 
    -692     -707     -731     -761     -799     -835     -858     -861 
    -832     -788     -741     -708     -697     -683     -639     -595 
    -562     -538     -538     -583     -656     -751     -866     -959 
    -999    -1001     -985     -957     -935     -928     -927     -938 
    -955     -976    -1011    -1062    -1105    -1144    -1170    -1140 
   -1054     -976     -935     -911     -895     -920     -989    -1043 
   -1048    -1040    -1050    -1073    -1098    -1113    -1107    -1067 
   -1003     -938     -893     -892     -949    -1027    -1092    -1156 
   -1236    -1318    -1381    -1421    -1455    -1475    -1472    -1463 
   -1453    -1444    -1445    -1470    -1525    -1598    -1652    -1657 
   -1632    -1601    -1572    -1549    -1526    -1486    -1433    -1405 
   -1421    -1470    -1534    -1620    -1701    -1748    -1749    -1710 
   -1634    -1555    -1502    -1498    -1539    -1593    -1611    -1582 
   -1520    -1440    -1359    -1291    -1252    -1244    -1240    -1210 
   -1156    -1089    -1016     -962     -935     -923     -924     -928 
    -904     -849     -784     -722     -685     -702     -760     -835 
    -905     -961    -1003    -1024    -1020     -992     -942     -892 
    -843     -780     -720     -685     -662     -642     -634     -626 
    -606     -576     -562     -576     -602     -621     -615     -577 
    -515     -437     -346     -263     -193     -133      -95      -83 
    -101     -149     -221     -306     -398     -492     -583     -630 
    -610     -542     -454     -359     -278     -252     -290     -357 
    -419     -441     -419     -391     -379     -409     -490     -598 
    -702     -776     -808     -853     -959    -1085    -1189    -1283 
   -1348    -1358    -1345    -1370    -1448    -1544    -1620    -1664 
   -1667    -1617    -1543    -1478    -1435    -1424    -1443    -1485 
   -1556    -1656    -1777    -1899    -1985    -2020    -2014    -1984 
   -1942    -1896    -1857    -1838    -1850    -1873    -1892    -1903 
   -1910    -1929    -1948    -1926    -1860    -1769    -1678    -1611 
   -1572    -1534    -1467    -1366    -1274    -1227    -1221    -1248 
   -1324    -1431    -1495    -1480    -1409    -1314    -1212    -1125 
   -1078    -1075    -1093    -1090    -1063    -1032    -1000     -994 
   -1044    -1134    -1210    -1250    -1247    -1193    -1105    -1026 
    -977     -963     -990    -1038    -1058    -1028     -963     -886 
    -811     -741     -676     -618     -546     -436     -298     -189 
    -133     -139     -201     -291     -369     -406     -386     -344 
    -352     -422     -513     -592     -642     -652     -612     -541 
    -477     -436     -415     -434     -499     -607     -731     -857 
    -989    -1125    -1240    -1306    -1329    -1324    -1300    -1251 
   -1189    -1156    -1165    -1165    -1134    -1082    -1019     -959 
    -939     -955     -954     -913     -865     -824     -778     -742 
    -730     -724     -703     -660     -595     -538     -526     -562 
    -626     -708     -804     -885     -931     -947     -973    -1017 
   -1067    -1123    -1181    -1225    -1251    -1252    -1239    -1242 
   -1274    -1293    -1275    -1256    -1259    -1260    -1248    -1244 
   -1243    -1231    -1210    -1194    -1178    -1162    -1143    -1116 
   -1067     -999     -934     -905     -904     -915     -940     -980 
    -997     -976     -934     -900     -893     -909     -932     -962 
    -996    -1023    -1059    -1144    -1269    -1366    -1394    -1370 
   -1318    -1247    -1162    -1085    -1027     -974     -904     -810 
    -727     -711     -765     -832     -899     -982    -1074    -1159 
   -1243    -1297    -1282    -1181    -1023     -869     -772     -757 
    -812     -912    -1013    -1071    -1053     -973     -889     -854 
    -862     -874     -866     -834     -764     -662     -579     -541 
    -538     -558     -602     -658     -710     -747     -770     -797 
    -861     -949    -1036    -1117    -1169    -1165    -1105    -1005 
    -908     -876     -923    -1020    -1134    -1233    -1296    -1301 
   -1270    -1258    -1310    -1420    -1541    -1634    -1665    -1610 
   -1491    -1343    -1182    -1046     -969     -935     -915     -882 
    -823     -766     -773     -854     -967    -1089    -1209    -1293 
   -1298    -1220    -1093     -976     -916     -928    -1011    -1146 
   -1298    -1428    -1494    -1480    -1401    -1302    -1235    -1202 
   -1202    -1246    -1314    -1368    -1382    -1336    -1229    -1104 
   -1007     -950     -918     -901     -909     -938     -969     -974 
    -965     -986    -1050    -1119    -1179    -1236    -1281    -1316 
   -1341    -1345    -1348    -1408    -1532    -1659    -1746    -1804 
   -1829    -1807    -1752    -1682    -1606    -1530    -1459    -1399 
   -1374    -1399    -1478    -1568    -1630    -1637    -1584    -1479 
   -1344    -1228    -1185    -1217    -1289    -1360    -1418    -1478 
   -1560    -1659    -1761    -1827    -1809    -1717    -1595    -1472 
   -1358    -1264    -1212    -1201    -1193    -1152    -1069     -963 
    -877     -831     -804     -787     -770     -710     -560     -363 
    -178      -22       95      168      194      184      159      118 
      48      -25      -72     -101     -112      -81       -9       82 
     171      226      243      244      221      157      101       81 
      56        1      -75     -163     -234     -260     -234     -167 
     -95      -67      -94     -151     -209     -257     -306     -344 
    -367     -400     -479     -591     -700     -772     -785     -729 
    -623     -522     -472     -503     -611     -754     -881     -951 
    -959     -935     -913     -913     -934     -966    -1001    -1004 
    -939     -842     -745     -650     -596     -631     -743     -880 
    -997    -1088    -1169    -1264    -1378    -1495    -1611    -1718 
   -1779    -1772    -1709    -1628    -1561    -1518    -1505    -1524 
   -1547    -1539    -1495    -1448    -1426    -1437    -1463    -1480 
   -1470    -1421    -1351    -1296    -1278    -1274    -1286    -1340 
   -1416    -1455    -1435    -1397    -1385    -1370    -1304    -1224 
   -1165    -1093     -992     -893     -808     -731     -672     -637 
    -612     -594     -584     -581     -596     -634     -685     -738 
    -788     -820     -830     -832     -832     -832     -849     -895 
    -957    -1000    -1007     -992     -976     -969     -972     -957 
    -907     -841     -788     -753     -715     -675     -653     -638 
    -600     -561     -569     -627     -712     -796     -862     -911 
    -940     -954     -976    -1020    -1055    -1063    -1054    -1051 
   -1088    -1152    -1210    -1262    -1320    -1371    -1408    -1435 
   -1452    -1467    -1497    -1526    -1541    -1545    -1541    -1529 
   -1536    -1576    -1607    -1611    -1599    -1556    -1480    -1389 
   -1291    -1202    -1139    -1138    -1201    -1287    -1356    -1395 
   -1408    -1381    -1305    -1202    -1112    -1051    -1004     -966 
    -947     -966    -1031    -1138    -1274    -1422    -1568    -1690 
   -1777    -1841    -1894    -1934    -1946    -1915    -1857    -1799 
   -1771    -1809    -1919    -2069    -2209    -2309    -2363    -2378 
   -2339    -2234    -2079    -1910    -1765    -1656    -1572    -1522 
   -1503    -1493    -1471    -1424    -1340    -1243    -1158    -1067 
    -954     -855     -810     -810     -831     -857     -888     -934 
    -994    -1069    -1154    -1223    -1260    -1287    -1321    -1371 
   -1449    -1555    -1660    -1740    -1784    -1802    -1811    -1829 
   -1864    -1894    -1887    -1825    -1718    -1602    -1499    -1408 
   -1332    -1296    -1301    -1335    -1404    -1482    -1532    -1557 
   -1580    -1602    -1620    -1621    -1579    -1501    -1409    -1309 
   -1215    -1142    -1084    -1031     -970     -904     -837     -776 
    -724     -676     -639     -614     -594     -595     -623     -679 
    -756     -814     -830     -814     -747     -625     -492     -398 
    -337     -287     -237     -172      -87       -8       31       31 
       9      -32      -94     -168     -253     -356     -469     -572 
    -643     -689     -722     -746     -762     -797     -866     -924 
    -934     -891     -810     -719     -648     -612     -625     -676 
    -742     -789     -797     -758     -691     -634     -606     -588 
    -562     -544     -526     -495     -450     -413     -405     -450 
    -542     -648     -753     -841     -873     -859     -851     -859 
    -854     -824     -764     -665     -538     -405     -313     -315 
    -403     -531     -673     -803     -901     -966    -1008    -1065 
   -1159    -1271    -1378    -1467    -1536    -1574    -1586    -1587 
   -1576    -1556    -1532    -1498    -1447    -1378    -1304    -1229 
   -1142    -1032     -932     -862     -799     -718     -619     -519 
    -461     -454     -469     -484     -498     -525     -572     -631 
    -708     -816     -939    -1039    -1094    -1094    -1039     -957 
    -882     -839     -835     -845     -850     -854     -859     -865 
    -870     -874     -882     -889     -881     -866     -858     -849 
    -828     -800     -784     -774     -753     -715     -661     -588 
    -508     -449     -436     -469     -517     -560     -594     -611 
    -629     -673     -737     -799     -845     -873     -899     -942 
   -1016    -1131    -1277    -1416    -1528    -1607    -1664    -1737 
   -1854    -1996    -2119    -2197    -2218    -2189    -2143    -2114 
   -2112    -2141    -2174    -2184    -2170    -2134    -2091    -2061 
   -2047    -2041    -2027    -1969    -1864    -1749    -1647    -1541 
   -1417    -1290    -1185    -1104    -1026     -951     -899     -861 
    -815     -765     -738     -760     -819     -878     -932     -977 
    -992     -994    -1023    -1071    -1116    -1142    -1150    -1148 
   -1140    -1129    -1136    -1169    -1205    -1212    -1194    -1166 
   -1121    -1065    -1008     -951     -899     -855     -841     -865 
    -901     -913     -908     -897     -878     -842     -791     -726 
    -639     -545     -487     -469     -454     -430     -410     -395 
    -364     -313     -256     -203     -139      -67      -13       22 
      48       56       51       55       59       37       -6      -79 
    -187     -313     -433     -522     -572     -608     -662     -731 
    -792     -839     -891     -951    -1000    -1036    -1074    -1101 
   -1119    -1147    -1192    -1251    -1314    -1370    -1420    -1452 
   -1466    -1486    -1520    -1561    -1610    -1664    -1707    -1718 
   -1692    -1648    -1617    -1621    -1649    -1671    -1687    -1707 
   -1707    -1668    -1602    -1532    -1467    -1412    -1374    -1341 
   -1298    -1244    -1169    -1078     -999     -935     -896     -901 
    -930     -931     -882     -801     -707     -611     -526     -456 
    -421     -429     -450     -480     -541     -618     -664     -680 
    -689     -695     -704     -731     -766     -799     -832     -869 
    -901     -922     -920     -908     -926     -993    -1086    -1183 
   -1286    -1375    -1424    -1426    -1399    -1377    -1375    -1381 
   -1378    -1374    -1378    -1374    -1367    -1371    -1368    -1332 
   -1250    -1111     -942     -795     -689     -619     -571     -550 
    -550     -544     -531     -534     -558     -584     -589     -581 
    -567     -544     -530     -535     -558     -599     -645     -693 
    -743     -785     -805     -801     -781     -761     -746     -741 
    -761     -797     -824     -853     -895     -943    -1007    -1104 
   -1212    -1293    -1343    -1363    -1356    -1341    -1325    -1298 
   -1260    -1231    -1242    -1285    -1341    -1412    -1489    -1548 
   -1590    -1625    -1661    -1680    -1678    -1678    -1683    -1668 
   -1634    -1591    -1539    -1474    -1402    -1318    -1223    -1128 
   -1054    -1013     -999    -1011    -1050    -1088    -1096    -1066 
   -1003     -922     -845     -778     -720     -675     -645     -641 
    -654     -656     -652     -687     -772     -892    -1035    -1185 
   -1312    -1394    -1424    -1408    -1371    -1337    -1328    -1363 
   -1449    -1561    -1657    -1715    -1718    -1657    -1547    -1422 
   -1312    -1229    -1175    -1140    -1121    -1115    -1109    -1092 
   -1062    -1050    -1070    -1112    -1155    -1179    -1173    -1140 
   -1097    -1053    -1024    -1036    -1078    -1108    -1112    -1104 
   -1088    -1070    -1063    -1073    -1100    -1127    -1131    -1125 
   -1113    -1078    -1027    -1004    -1024    -1066    -1136    -1236 
   -1325    -1381    -1408    -1391    -1333    -1260    -1189    -1139 
   -1128    -1131    -1119    -1102    -1100    -1084    -1036     -993 
    -990    -1019    -1061    -1112    -1158    -1193    -1221    -1240 
   -1246    -1242    -1240    -1237    -1219    -1173    -1096    -1011 
    -947     -895     -839     -777     -695     -585     -463     -355 
