Origin Time       2025/01/13 21:19:00
Lat.              31.8
Long.             131.6
Depth. (km)       30
Mag.              6.9
Station Code      YMG006
Station Lat.      34.1487
Station Long.     130.9299
Station Height(m) 6
Record Time       2025/01/13 21:20:53
Sampling Freq(Hz) 100Hz
Duration Time(s)  60
Dir.              N-S
Scale Factor      7845(gal)/8223790
Max. Acc. (gal)   1.831
Last Correction   2025/01/13 21:20:54
Memo.             
[...]
   -5611    -5718    -5756    -5786    -5910    -5979    -5921    -5925 
   -5969    -5871    -5773    -5805    -5792    -5717    -5713    -5728 
   -5699    -5728    -5803    -5800    -5802    -5867    -5836    -5732 
   -5756    -5837    -5818    -5794    -5850    -5910    -5940    -5980 
   -5995    -5949    -5925    -5903    -5791    -5729    -5745    -5640 
   -5529    -5563    -5536    -5410    -5393    -5464    -5487    -5541 
   -5697    -5811    -5834    -5888    -5998    -6062    -6056    -6056 
   -6039    -6010    -6045    -6029    -5931    -5931    -5941    -5836 
   -5782    -5795    -5678    -5536    -5556    -5574    -5478    -5413 
   -5397    -5377    -5421    -5513    -5524    -5513    -5621    -5733 
   -5740    -5764    -5821    -5818    -5832    -5903    -5914    -5850 
   -5845    -5864    -5799    -5756    -5767    -5679    -5544    -5498 
   -5454    -5335    -5259    -5278    -5292    -5324    -5445    -5524 
   -5539    -5705    -5917    -5927    -5898    -5981    -5994    -5923 
   -5913    -5919    -5917    -5946    -5965    -5953    -5953    -5960 
   -5926    -5873    -5875    -5896    -5864    -5836    -5865    -5857 
   -5810    -5868    -5957    -5942    -5941    -6015    -6043    -6031 
   -6095    -6188    -6200    -6188    -6187    -6149    -6127    -6111 
   -6034    -5985    -6014    -5983    -5887    -5872    -5892    -5833 
   -5784    -5776    -5711    -5629    -5568    -5476    -5402    -5398 
   -5383    -5316    -5278    -5304    -5327    -5339    -5417    -5516 
   -5521    -5536    -5674    -5757    -5730    -5768    -5817    -5815 
   -5861    -5865    -5799    -5810    -5818    -5722    -5656    -5659 
   -5587    -5443    -5378    -5410    -5405    -5359    -5408    -5533 
   -5625    -5721    -5838    -5895    -5931    -6011    -6060    -6021 
   -5960    -5902    -5784    -5678    -5629    -5533    -5444    -5502 
   -5601    -5636    -5709    -5803    -5795    -5780    -5809    -5761 
   -5656    -5603    -5584    -5551    -5549    -5616    -5655    -5680 
   -5815    -5908    -5821    -5749    -5752    -5672    -5559    -5514 
   -5447    -5358    -5355    -5341    -5282    -5339    -5421    -5346 
   -5287    -5332    -5282    -5192    -5252    -5358    -5397    -5479 
   -5625    -5725    -5826    -5985    -6081    -6099    -6138    -6135 
   -6014    -5904    -5883    -5818    -5734    -5759    -5779    -5768 
   -5898    -6079    -6124    -6172    -6311    -6353    -6272    -6230 
   -6197    -6081    -5973    -5904    -5788    -5702    -5701    -5648 
   -5571    -5591    -5605    -5563    -5598    -5663    -5648    -5664 
   -5757    -5778    -5744    -5814    -5919    -5914    -5884    -5914 
   -5903    -5819    -5776    -5769    -5701    -5632    -5630    -5599 
   -5555    -5598    -5589    -5474    -5498    -5599    -5544    -5497 
   -5553    -5529    -5481    -5544    -5594    -5535    -5476    -5468 
   -5432    -5354    -5301    -5277    -5247    -5252    -5282    -5263 
   -5273    -5351    -5356    -5320    -5375    -5398    -5319    -5321 
   -5424    -5441    -5444    -5599    -5733    -5742    -5813    -5940 
   -5968    -5962    -6008    -6023    -6019    -6085    -6124    -6099 
   -6150    -6257    -6299    -6320    -6367    -6340    -6219    -6154 
   -6154    -6084    -6000    -6002    -5969    -5892    -5933    -5998 
   -5941    -5898    -5922    -5859    -5737    -5697    -5674    -5641 
   -5692    -5728    -5698    -5775    -5890    -5887    -5930    -6058 
   -6060    -5977    -5998    -6026    -5938    -5867    -5864    -5810 
   -5769    -5864    -5957    -5977    -6089    -6259    -6330    -6374 
   -6451    -6469    -6415    -6332    -6204    -6043    -5929    -5873 
   -5772    -5621    -5544    -5506    -5406    -5351    -5381    -5354 
   -5313    -5383    -5439    -5431    -5537    -5709    -5784    -5865 
   -5980    -5976    -5921    -5918    -5841    -5660    -5521    -5412 
   -5248    -5124    -5093    -5036    -4968    -4993    -5026    -5012 
   -5076    -5177    -5186    -5232    -5398    -5481    -5475    -5629 
   -5869    -5946    -5984    -6123    -6162    -6085    -6075    -6011 
   -5830    -5715    -5633    -5486    -5385    -5356    -5286    -5212 
   -5228    -5247    -5196    -5186    -5239    -5238    -5235    -5323 
   -5413    -5485    -5611    -5732    -5805    -5914    -6014    -6021 
   -6050    -6169    -6235    -6200    -6215    -6316    -6372    -6355 
   -6351    -6342    -6280    -6227    -6189    -6093    -6002    -5981 
   -5950    -5926    -6010    -6092    -6092    -6139    -6218    -6195 
   -6154    -6164    -6104    -5979    -5875    -5757    -5593    -5475 
   -5422    -5327    -5250    -5277    -5289    -5269    -5306    -5370 
   -5377    -5360    -5397    -5433    -5429    -5483    -5553    -5582 
   -5678    -5807    -5865    -5956    -6111    -6177    -6156    -6185 
   -6218    -6142    -6058    -6037    -5985    -5941    -5941    -5890 
   -5852    -5921    -5964    -5917    -5891    -5873    -5753    -5603 
   -5543    -5508    -5420    -5374    -5436    -5524    -5640    -5794 
   -5879    -5917    -5989    -6000    -5923    -5892    -5873    -5729 
   -5562    -5509    -5459    -5327    -5279    -5356    -5360    -5347 
   -5455    -5539    -5547    -5599    -5651    -5668    -5736    -5795 
   -5768    -5761    -5814    -5798    -5722    -5709    -5725    -5701 
   -5706    -5796    -5879    -5926    -6052    -6214    -6268    -6295 
   -6377    -6365    -6286    -6313    -6312    -6193    -6122    -6064 
   -5921    -5810    -5759    -5670    -5589    -5587    -5607    -5606 
   -5624    -5651    -5686    -5776    -5867    -5904    -5952    -6048 
   -6110    -6070    -6073    -6161    -6120    -6025    -6073    -6106 
   -6011    -5958    -5964    -5915    -5875    -5907    -5906    -5892 
   -5973    -6016    -5969    -6011    -6093    -6081    -6056    -6027 
   -5927    -5823    -5757    -5675    -5576    -5520    -5493    -5444 
   -5405    -5432    -5467    -5464    -5513    -5589    -5621    -5692 
   -5786    -5786    -5792    -5927    -6022    -5979    -5998    -6108 
   -6131    -6065    -5983    -5834    -5674    -5590    -5464    -5258 
   -5159    -5169    -5113    -5089    -5247    -5404    -5421    -5499 
   -5691    -5792    -5833    -5953    -6046    -6053    -6104    -6166 
   -6127    -6080    -6114    -6106    -6012    -5952    -5868    -5714 
   -5674    -5718    -5648    -5591    -5694    -5794    -5802    -5846 
   -5918    -5888    -5795    -5724    -5602    -5440    -5344    -5277 
   -5189    -5193    -5306    -5382    -5417    -5513    -5598    -5622 
   -5684    -5746    -5711    -5713    -5821    -5865    -5826    -5850 
   -5883    -5796    -5715    -5667    -5497    -5297    -5211    -5124 
   -5015    -5024    -5081    -5069    -5121    -5273    -5324    -5282 
   -5302    -5317    -5269    -5248    -5242    -5205    -5209    -5247 
   -5274    -5340    -5449    -5514    -5535    -5610    -5698    -5706 
   -5760    -5917    -6027    -6091    -6211    -6331    -6369    -6415 
   -6493    -6462    -6361    -6322    -6250    -6146    -6126    -6089 
   -5979    -5938    -5954    -5895    -5815    -5829    -5844    -5778 
   -5742    -5761    -5742    -5701    -5717    -5756    -5737    -5707 
   -5725    -5756    -5819    -5904    -5930    -5958    -6041    -6072 
   -6080    -6173    -6258    -6238    -6226    -6300    -6331    -6288 
   -6318    -6390    -6401    -6411    -6411    -6351    -6285    -6216 
   -6116    -6016    -5956    -5911    -5842    -5829    -5895    -5904 
   -5880    -5906    -5887    -5798    -5710    -5618    -5529    -5462 
   -5412    -5377    -5360    -5420    -5555    -5657    -5748    -5871 
   -5908    -5865    -5838    -5738    -5530    -5386    -5313    -5155 
   -5027    -5044    -5034    -4990    -5063    -5150    -5173    -5235 
   -5346    -5397    -5408    -5494    -5583    -5572    -5570    -5617 
   -5613    -5591    -5591    -5530    -5447    -5436    -5401    -5282 
   -5255    -5351    -5383    -5381    -5498    -5659    -5748    -5826 
   -5908    -5942    -5977    -5999    -5898    -5782    -5769    -5717 
   -5620    -5675    -5823    -5895    -5994    -6199    -6330    -6358 
   -6458    -6566    -6556    -6532    -6561    -6556    -6527    -6536 
   -6523    -6469    -6478    -6484    -6381    -6291    -6241    -6111 
   -5922    -5780    -5664    -5485    -5308    -5227    -5154    -5051 
   -4984    -4892    -4780    -4768    -4800    -4761    -4774    -4914 
   -4992    -5008    -5117    -5212    -5198    -5200    -5235    -5215 
   -5196    -5235    -5254    -5267    -5397    -5529    -5543    -5607 
   -5760    -5809    -5800    -5845    -5833    -5759    -5760    -5800 
   -5819    -5890    -6007    -6097    -6187    -6326    -6435    -6435 
   -6412    -6417    -6354    -6264    -6238    -6192    -6122    -6129 
   -6145    -6092    -6065    -6064    -5971    -5844    -5796    -5732 
   -5605    -5574    -5617    -5640    -5737    -5906    -5976    -5954 
   -6007    -6048    -5891    -5717    -5661    -5526    -5355    -5323 
   -5304    -5259    -5329    -5432    -5479    -5568    -5674    -5687 
   -5680    -5737    -5782    -5734    -5661    -5667    -5703    -5676 
   -5645    -5641    -5638    -5705    -5769    -5705    -5698    -5815 
   -5817    -5776    -5868    -5917    -5860    -5881    -5945    -5929 
   -5917    -5991    -6038    -6011    -6038    -6099    -6079    -6053 
   -6068    -6008    -5898    -5837    -5749    -5590    -5483    -5405 
   -5233    -5073    -5024    -4954    -4843    -4830    -4845    -4793 
   -4757    -4735    -4696    -4716    -4769    -4760    -4781    -4946 
   -5108    -5192    -5368    -5643    -5807    -5898    -6091    -6291 
   -6332    -6343    -6444    -6490    -6454    -6432    -6385    -6327 
   -6330    -6284    -6138    -6075    -6116    -6081    -6029    -6111 
   -6193    -6162    -6184    -6334    -6446    -6440    -6426    -6436 
   -6413    -6346    -6246    -6135    -6084    -6058    -5968    -5923 
   -6004    -6034    -5994    -6066    -6156    -6054    -5941    -5946 
   -5848    -5663    -5590    -5514    -5360    -5267    -5221    -5128 
   -5081    -5148    -5205    -5244    -5381    -5529    -5606    -5709 
   -5861    -5941    -5948    -6021    -6107    -6107    -6141    -6216 
   -6201    -6185    -6226    -6181    -6087    -6050    -5964    -5790 
   -5665    -5571    -5421    -5336    -5393    -5445    -5460    -5559 
   -5679    -5722    -5784    -5879    -5872    -5811    -5803    -5768 
   -5667    -5583    -5522    -5451    -5398    -5379    -5350    -5290 
   -5274    -5286    -5219    -5124    -5047    -4907    -4800    -4814 
   -4793    -4749    -4850    -4990    -5023    -5092    -5239    -5300 
   -5312    -5412    -5512    -5505    -5506    -5580    -5607    -5576 
   -5584    -5601    -5587    -5583    -5579    -5552    -5547    -5584 
   -5590    -5609    -5759    -5921    -5988    -6120    -6332    -6439 
   -6484    -6610    -6701    -6697    -6782    -6898    -6897    -6932 
   -7064    -7119    -7113    -7134    -7091    -6967    -6899    -6836 
   -6666    -6548    -6551    -6501    -6423    -6463    -6551    -6602 
   -6677    -6748    -6767    -6787    -6798    -6728    -6631    -6604 
   -6573    -6455    -6400    -6448    -6396    -6259    -6224    -6185 
   -6008    -5853    -5813    -5721    -5562    -5472    -5401    -5296 
   -5236    -5189    -5134    -5135    -5144    -5119    -5108    -5092 
   -4992    -4887    -4878    -4846    -4693    -4580    -4576    -4522 
   -4429    -4467    -4546    -4531    -4576    -4734    -4831    -4884 
   -5015    -5139    -5163    -5201    -5341    -5494    -5586    -5679 
   -5800    -5902    -5976    -5988    -5962    -5998    -6007    -5891 
   -5809    -5810    -5744    -5652    -5672    -5726    -5709    -5692 
   -5717    -5705    -5687    -5706    -5661    -5567    -5536    -5510 
   -5471    -5495    -5537    -5555    -5598    -5671    -5721    -5740 
   -5810    -5954    -6029    -6030    -6102    -6180    -6162    -6177 
   -6237    -6205    -6172    -6181    -6095    -6006    -6023    -5994 
   -5907    -5894    -5906    -5848    -5794    -5830    -5849    -5786 
   -5763    -5782    -5733    -5680    -5690    -5660    -5597    -5602 
   -5597    -5536    -5521    -5532    -5501    -5482    -5478    -5397 
   -5305    -5302    -5293    -5251    -5279    -5319    -5320    -5379 
   -5489    -5537    -5520    -5526    -5529    -5437    -5350    -5341 
   -5275    -5189    -5227    -5277    -5283    -5368    -5481    -5525 
   -5590    -5707    -5779    -5825    -5896    -5903    -5856    -5871 
   -5898    -5818    -5714    -5734    -5751    -5653    -5626    -5671 
   -5625    -5586    -5625    -5626    -5579    -5584    -5611    -5609 
   -5652    -5730    -5741    -5742    -5783    -5790    -5780    -5821 
   -5854    -5829    -5819    -5859    -5865    -5873    -5989    -6102 
   -6123    -6191    -6300    -6324    -6308    -6342    -6373    -6339 
   -6313    -6307    -6257    -6223    -6211    -6154    -6118    -6143 
   -6130    -6080    -6114    -6169    -6122    -6085    -6142    -6174 
   -6183    -6272    -6366    -6384    -6447    -6556    -6547    -6494 
   -6552    -6600    -6563    -6567    -6583    -6511    -6428    -6373 
   -6239    -6065    -5948    -5786    -5543    -5389    -5308    -5159 
   -5047    -5050    -5034    -4993    -5035    -5089    -5054    -5036 
   -5054    -4947    -4810    -4799    -4729    -4522    -4391    -4348 
   -4229    -4110    -4085    -4005    -3904    -3936    -3937    -3835 
   -3865    -4014    -4071    -4124    -4332    -4541    -4656    -4830 
   -5088    -5293    -5447    -5620    -5772    -5879    -6023    -6151 
   -6162    -6183    -6230    -6158    -6056    -6029    -5960    -5822 
   -5767    -5787    -5759    -5788    -5968    -6126    -6228    -6399 
   -6563    -6651    -6745    -6839    -6862    -6894    -6956    -6949 
   -6944    -7024    -7094    -7113    -7136    -7133    -7021    -6852 
   -6727    -6558    -6272    -6039    -5919    -5779    -5676    -5706 
   -5737    -5753    -5872    -5989    -6015    -6084    -6188    -6193 
   -6173    -6243    -6296    -6265    -6300    -6416    -6458    -6426 
   -6392    -6342    -6285    -6230    -6118    -5983    -5879    -5744 
   -5603    -5559    -5514    -5385    -5317    -5323    -5246    -5159 
   -5174    -5193    -5138    -5103    -5157    -5196    -5179    -5219 
   -5301    -5331    -5336    -5377    -5409    -5439    -5512    -5535 
   -5539    -5680    -5827    -5833    -5875    -6031    -6129    -6156 
   -6230    -6291    -6274    -6303    -6359    -6319    -6261    -6241 
   -6173    -6092    -6085    -6075    -5972    -5935    -6046    -6106 
   -6107    -6205    -6334    -6403    -6475    -6567    -6621    -6624 
   -6636    -6633    -6555    -6478    -6397    -6216    -6065    -6018 
   -5899    -5729    -5695    -5701    -5590    -5497    -5516    -5495 
   -5417    -5409    -5405    -5350    -5359    -5346    -5228    -5188 
   -5202    -5113    -5015    -4986    -4938    -4860    -4873    -4938 
   -4907    -4884    -4962    -5036    -5097    -5197    -5269    -5283 
   -5363    -5502    -5544    -5543    -5660    -5803    -5857    -5942 
   -6095    -6178    -6220    -6280    -6280    -6245    -6219    -6126 
   -6006    -5980    -5960    -5856    -5809    -5865    -5841    -5757 
   -5779    -5794    -5695    -5622    -5601    -5509    -5395    -5348 
   -5258    -5100    -4990    -4923    -4839    -4774    -4766    -4743 
   -4710    -4766    -4816    -4774    -4819    -4946    -4989    -5030 
   -5142    -5220    -5238    -5289    -5355    -5331    -5273    -5287 
   -5277    -5229    -5278    -5354    -5364    -5460    -5678    -5842 
   -5961    -6149    -6323    -6420    -6542    -6677    -6751    -6839 
   -6941    -6953    -6967    -7092    -7191    -7173    -7182    -7231 
   -7182    -7076    -7033    -6971    -6859    -6799    -6736    -6593 
   -6474    -6421    -6330    -6231    -6199    -6135    -6015    -5953 
   -5910    -5821    -5792    -5844    -5850    -5844    -5922    -6000 
   -6003    -6007    -6052    -6072    -6052    -6037    -6029    -6022 
   -6039    -6035    -5988    -5995    -6050    -6030    -5977    -5969 
   -5933    -5877    -5868    -5844    -5765    -5714    -5706    -5664 
   -5621    -5655    -5675    -5632    -5648    -5722    -5724    -5698 
   -5726    -5697    -5563    -5478    -5391    -5159    -4931    -4800 
   -4594    -4349    -4237    -4151    -4008    -3956    -3987    -3951 
   -3932    -4008    -4051    -4052    -4116    -4167    -4170    -4232 
   -4330    -4384    -4471    -4642    -4785    -4858    -5003    -5216 
   -5344    -5449    -5663    -5869    -6015    -6230    -6465    -6628 
   -6818    -7041    -7172    -7256    -7366    -7406    -7366    -7357 
   -7329    -7222    -7133    -7122    -7069    -6956    -6910    -6878 
   -6767    -6691    -6642    -6513    -6403    -6343    -6231    -6097 
   -6061    -6049    -5988    -6004    -6085    -6081    -6066    -6146 
   -6173    -6083    -6043    -6050    -5962    -5860    -5791    -5640 
   -5440    -5319    -5227    -5066    -4909    -4823    -4720    -4598 
   -4544    -4526    -4498    -4492    -4540    -4634    -4757    -4868 
   -4950    -5063    -5238    -5347    -5401    -5560    -5741    -5796 
   -5868    -6034    -6124    -6135    -6214    -6272    -6251    -6301 
   -6382    -6349    -6307    -6362    -6388    -6335    -6349    -6409 
   -6370    -6282    -6269    -6246    -6130    -6031    -6002    -5969 
   -5987    -6057    -6050    -6062    -6178    -6208    -6145    -6145 
   -6112    -5972    -5838    -5728    -5563    -5405    -5317    -5198 
   -5017    -4934    -4934    -4849    -4784    -4878    -4928    -4851 
   -4878    -5012    -5054    -5098    -5259    -5395    -5503    -5644 
   -5722    -5769    -5877    -5964    -5957    -5899    -5849    -5799 
   -5718    -5628    -5536    -5431    -5354    -5296    -5211    -5167 
   -5182    -5116    -5020    -5069    -5142    -5097    -5103    -5219 
   -5293    -5344    -5441    -5494    -5493    -5551    -5632    -5636 
   -5648    -5722    -5763    -5776    -5840    -5899    -5903    -5930 
   -5991    -6019    -6043    -6123    -6180    -6172    -6232    -6336 
   -6346    -6393    -6544    -6616    -6624    -6687    -6733    -6683 
   -6589    -6512    -6407    -6261    -6138    -6018    -5884    -5815 
   -5791    -5729    -5697    -5730    -5714    -5667    -5697    -5682 
   -5551    -5485    -5498    -5470    -5448    -5460    -5444    -5441 
   -5509    -5586    -5611    -5657    -5755    -5803    -5798    -5834 
   -5880    -5865    -5888    -5965    -5944    -5832    -5775    -5742 
   -5687    -5679    -5630    -5501    -5479    -5521    -5436    -5371 
   -5456    -5539    -5578    -5679    -5818    -5904    -5984    -6126 
   -6241    -6278    -6308    -6318    -6265    -6210    -6139    -5981 
   -5834    -5786    -5725    -5634    -5616    -5606    -5555    -5587 
   -5684    -5715    -5751    -5875    -5956    -5964    -6027    -6103 
   -6129    -6172    -6212    -6169    -6087    -6046    -6006    -5895 
   -5800    -5772    -5680    -5535    -5505    -5509    -5437    -5432 
   -5475    -5427    -5421    -5509    -5521    -5547    -5692    -5773 
   -5764    -5821    -5899    -5930    -5994    -6089    -6154    -6208 
