Origin Time       2025/01/13 21:19:00
Lat.              31.8
Long.             131.6
Depth. (km)       30
Mag.              6.9
Station Code      YMG001
Station Lat.      34.6172
Station Long.     131.6022
Station Height(m) 5
Record Time       2025/01/13 21:20:34
Sampling Freq(Hz) 100Hz
Duration Time(s)  105
Dir.              N-S
Scale Factor      7845(gal)/8223790
Max. Acc. (gal)   2.808
Last Correction   2025/01/13 21:20:33
Memo.             
[...]
     232      162      102       55        9      -56     -121     -155 
    -170     -139      -40       74      170      272      382      473 
     552      622      652      656      714      819      872      859 
     846      810      707      603      521      410      299      213 
      97      -64     -232     -399     -573     -727     -839     -943 
   -1047    -1115    -1158    -1215    -1237    -1200    -1143    -1078 
    -984     -882     -758     -581     -373     -168       48      284 
     506      692      851      976     1057     1120     1174     1186 
    1161     1121     1059      958      838      712      561      391 
     216       12     -232     -503     -784    -1063    -1336    -1593 
   -1837    -2088    -2313    -2485    -2631    -2751    -2813    -2830 
   -2839    -2822    -2770    -2702    -2612    -2477    -2335    -2208 
   -2069    -1926    -1802    -1678    -1534    -1399    -1269    -1124 
    -994     -889     -773     -637     -504     -369     -218      -71 
      60      218      395      548      689      838      957     1051 
    1155     1242     1290     1336     1389     1424     1445     1464 
    1456     1398     1309     1215     1105      984      872      743 
     568      360      136     -114     -352     -535     -684     -826 
    -942    -1016    -1078    -1132    -1156    -1182    -1217    -1223 
   -1221    -1251    -1269    -1250    -1231    -1217    -1175    -1112 
   -1036     -940     -816     -677     -522     -349     -194      -72 
      48      182      298      403      519      608      668      742 
     831      905      974     1059     1136     1188     1221     1225 
    1193     1128     1040      918      766      631      519      395 
     267      143       -4     -168     -333     -515     -706     -876 
   -1019    -1131    -1220    -1297    -1363    -1421    -1449    -1453 
   -1463    -1456    -1406    -1344    -1281    -1189    -1111    -1078 
   -1042     -985     -934     -876     -805     -749     -700     -638 
    -575     -511     -442     -379     -332     -317     -313     -282 
    -248     -226     -191     -156     -163     -179     -171     -168 
    -168     -151     -148     -171     -197     -232     -279     -315 
    -338     -364     -387     -390     -382     -391     -395     -379 
    -395     -456     -523     -608     -714     -788     -819     -847 
    -859     -841     -823     -814     -774     -697     -608     -515 
    -400     -270     -152      -58       25       86      116      140 
     147      122      108       89       32      -22      -52      -89 
    -139     -175     -213     -283     -371     -453     -550     -675 
    -781     -864     -955    -1031    -1071    -1104    -1113    -1071 
   -1012     -951     -866     -777     -691     -565     -407     -271 
    -156      -22      129      268      396      534      664      772 
     884     1003     1093     1156     1209     1244     1258     1252 
    1212     1127     1012      864      656      407      152     -108 
    -387     -653     -899    -1155    -1408    -1632    -1858    -2081 
   -2270    -2436    -2587    -2698    -2758    -2783    -2766    -2681 
   -2552    -2409    -2218    -1965    -1690    -1375    -1001     -622 
    -256      132      545      940     1324     1699     2022     2262 
    2435     2542     2565     2528     2469     2371     2214     2025 
    1815     1568     1294     1021      714      357       -2     -334 
    -629     -903    -1193    -1447    -1614    -1771    -1944    -2073 
   -2177    -2259    -2288    -2282    -2236    -2145    -2058    -1966 
   -1802    -1632    -1493    -1309    -1105     -939     -781     -589 
    -394     -216      -20      182      357      545      750      915 
    1057     1212     1329     1404     1478     1509     1483     1444 
    1386     1279     1150     1024      880      716      569      442 
     292      121      -29     -189     -391     -598     -803    -1044 
   -1285    -1482    -1687    -1898    -2039    -2138    -2273    -2419 
   -2523    -2600    -2668    -2683    -2639    -2586    -2520    -2400 
   -2249    -2087    -1867    -1598    -1336    -1043     -711     -419 
    -168      106      359      556      777     1011     1197     1377 
    1566     1683     1703     1683     1638     1555     1448     1329 
    1190     1023      849      660      445      237       43     -143 
    -309     -454     -585     -687     -750     -818     -912     -992 
   -1027    -1023     -984     -927     -865     -810     -751     -666 
    -572     -492     -386     -243     -112        8      130      236 
     318      406      491      531      530      525      502      452 
     398      344      260      153       43      -94     -241     -372 
    -494     -607     -688     -745     -781     -773     -720     -661 
    -616     -560     -484     -406     -306     -174      -39       97 
     264      432      567      697      839      967     1059     1119 
    1136     1084      969      834      684      507      325      136 
     -90     -322     -548     -803    -1074    -1344    -1636    -1935 
   -2181    -2373    -2536    -2647    -2716    -2776    -2809    -2775 
   -2682    -2540    -2335    -2088    -1830    -1557    -1260     -955 
    -648     -315       27      340      645      966     1258     1490 
    1695     1857     1941     1981     2007     1979     1900     1810 
    1698     1524     1289     1012      683      313      -45     -384 
    -729    -1046    -1298    -1532    -1783    -2018    -2196    -2322 
   -2417    -2502    -2594    -2677    -2741    -2810    -2870    -2889 
   -2868    -2814    -2727    -2605    -2471    -2342    -2195    -2039 
   -1906    -1782    -1642    -1506    -1378    -1229    -1069     -926 
    -780     -611     -465     -359     -248     -157     -129     -110 
     -71      -49      -44      -35      -37      -62      -82      -86 
     -97     -128     -153     -162     -172     -164     -126      -95 
     -72      -40      -28      -27        4       51       85      129 
     189      237      295      395      518      629      742      873 
     997     1112     1248     1383     1491     1611     1753     1864 
    1961     2079     2169     2193     2166     2095     1968     1795 
    1599     1370     1116      869      639      413      180      -55 
    -292     -526     -756    -1000    -1271    -1545    -1810    -2084 
   -2351    -2567    -2737    -2887    -2980    -3002    -2984    -2903 
   -2721    -2484    -2218    -1895    -1534    -1163     -769     -348 
      54      418      776     1119     1410     1675     1925     2126 
    2286     2444     2563     2606     2602     2548     2409     2216 
    2003     1744     1451     1165      855      500      141     -187 
    -503     -800    -1046    -1263    -1470    -1633    -1753    -1875 
   -1988    -2074    -2161    -2235    -2268    -2282    -2292    -2286 
   -2270    -2258    -2265    -2280    -2282    -2273    -2262    -2226 
   -2151    -2068    -1968    -1836    -1710    -1582    -1401    -1196 
   -1003     -799     -558     -311      -86      122      315      492 
     677      869     1034     1174     1304     1401     1466     1541 
    1659     1792     1876     1902     1907     1895     1804     1620 
    1398     1194      976      691      382      110     -175     -519 
    -870    -1177    -1456    -1733    -1975    -2155    -2315    -2471 
   -2598    -2690    -2739    -2728    -2694    -2648    -2559    -2458 
   -2380    -2280    -2130    -1950    -1750    -1525    -1289    -1063 
    -837     -594     -353     -114      137      388      623      851 
    1047     1186     1281     1360     1421     1456     1494     1536 
    1547     1522     1470     1385     1287     1209     1144     1055 
     950      828      657      450      249       48     -178     -413 
    -649     -899    -1138    -1352    -1563    -1768    -1930    -2054 
   -2161    -2228    -2243    -2254    -2284    -2299    -2299    -2326 
   -2339    -2301    -2266    -2219    -2111    -1984    -1871    -1718 
   -1503    -1269    -1021     -733     -415      -98      209      487 
     730      955     1170     1358     1516     1678     1825     1914 
    1969     2010     2016     1998     1968     1917     1831     1729 
    1624     1495     1329     1150      949      707      454      213 
     -40     -298     -544     -804    -1070    -1302    -1495    -1649 
   -1742    -1776    -1775    -1732    -1622    -1474    -1329    -1196 
   -1057     -922     -791     -627     -423     -211       -8      189 
     368      521      665      811      939     1058     1162     1205 
    1179     1098      940      708      445      187      -70     -340 
    -622     -912    -1178    -1372    -1503    -1590    -1611    -1568 
   -1514    -1447    -1316    -1170    -1046     -892     -716     -565 
    -387     -160       74      314      553      777      980     1150 
    1316     1478     1590     1651     1679     1655     1575     1468 
    1313     1097      873      656      417      159     -101     -384 
    -693     -988    -1243    -1471    -1668    -1817    -1961    -2119 
   -2249    -2358    -2459    -2496    -2454    -2377    -2276    -2142 
   -2018    -1922    -1818    -1701    -1597    -1503    -1390    -1281 
   -1216    -1161    -1081    -1001     -927     -854     -784     -676 
    -544     -456     -391     -295     -184      -79       52      238 
     453      639      807      985     1135     1252     1378     1493 
    1561     1607     1645     1641     1595     1540     1464     1343 
    1210     1074      907      738      572      373      135     -120 
    -379     -654     -934    -1192    -1440    -1688    -1923    -2150 
   -2386    -2612    -2791    -2936    -3057    -3129    -3167    -3196 
   -3179    -3103    -3021    -2925    -2772    -2585    -2393    -2169 
   -1910    -1647    -1362    -1027     -688     -364      -20      333 
     661      973     1283     1564     1800     2010     2180     2297 
    2384     2448     2479     2478     2461     2405     2295     2149 
    1968     1722     1440     1158      857      546      275        0 
    -307     -594     -858    -1136    -1402    -1624    -1818    -2003 
   -2168    -2308    -2427    -2524    -2590    -2624    -2641    -2627 
   -2575    -2521    -2450    -2316    -2151    -1988    -1782    -1539 
   -1300    -1069     -851     -673     -534     -409     -284     -156 
      -6      164      342      514      695      876     1012     1117 
    1209     1255     1270     1293     1301     1267     1229     1208 
    1174     1146     1161     1188     1197     1197     1181     1124 
    1035      936      822      697      572      436      276       94 
    -102     -314     -541     -766     -978    -1204    -1428    -1618 
   -1810    -2010    -2172    -2308    -2434    -2517    -2560    -2586 
   -2586    -2547    -2471    -2351    -2178    -1949    -1676    -1378 
   -1075     -791     -487     -136      178      364      519      753 
     945     1047     1190     1347     1440     1507     1559     1574 
    1555     1499     1410     1285     1138      996      850      696 
     533      349      153      -29     -209     -384     -541     -676 
    -795     -912    -1030    -1148    -1263    -1372    -1474    -1567 
   -1664    -1750    -1809    -1850    -1903    -1952    -1952    -1918 
   -1864    -1796    -1738    -1648    -1507    -1381    -1244    -1053 
    -862     -720     -577     -409     -259     -120       48      228 
     379      515      660      777      858      950     1047     1111 
    1140     1140     1093     1023      936      810      657      517 
     383      220       54      -76     -211     -396     -575     -703 
    -828     -951    -1053    -1165    -1275    -1354    -1443    -1541 
   -1591    -1594    -1567    -1494    -1379    -1258    -1140    -1020 
    -900     -791     -675     -538     -422     -334     -220     -110 
     -52       -4       49       67       81      136      205      272 
     353      430      476      488      503      548      591      592 
     544      476      425      390      346      290      255      243 
     232      228      237      232      222      249      291      314 
     352      421      499      571      646      719      776      826 
     884      928      957      993     1034     1059     1081     1094 
    1066     1004      924      796      614      430      237       13 
    -194     -371     -569     -785     -993    -1223    -1462    -1644 
   -1788    -1964    -2147    -2285    -2397    -2508    -2590    -2644 
   -2718    -2781    -2778    -2744    -2693    -2592    -2438    -2258 
   -2066    -1857    -1629    -1379    -1112     -837     -568     -301 
     -29      228      471      718      942     1117     1269     1401 
    1487     1530     1544     1525     1468     1393     1305     1186 
    1044      907      768      615      469      315      125      -72 
    -240     -399     -561     -696     -820     -959    -1105    -1248 
   -1386    -1498    -1574    -1628    -1690    -1756    -1794    -1811 
   -1821    -1814    -1800    -1810    -1825    -1818    -1810    -1786 
   -1726    -1656    -1574    -1466    -1343    -1216    -1080     -926 
    -761     -594     -406     -216      -56      109      313      494 
     653      862     1098     1313     1528     1767     1985     2162 
    2338     2497     2579     2606     2620     2592     2494     2365 
    2201     1977     1736     1495     1213      905      604      278 
     -66     -394     -739    -1085    -1372    -1642    -1950    -2204 
   -2357    -2504    -2668    -2771    -2803    -2817    -2810    -2752 
   -2651    -2527    -2365    -2177    -1973    -1738    -1458    -1159 
    -870     -554     -209      113      410      738     1086     1398 
    1680     1938     2119     2257     2394     2482     2504     2505 
    2459     2326     2168     2008     1792     1516     1217      897 
     530      156     -182     -514     -841    -1151    -1474    -1802 
   -2101    -2371    -2610    -2797    -2924    -3018    -3068    -3055 
   -3005    -2949    -2870    -2759    -2641    -2521    -2380    -2200 
   -1999    -1787    -1567    -1359    -1167     -970     -778     -598 
    -400     -186        4      172      341      486      591      695 
     788      831      843      854      846      810      772      746 
     708      638      565      499      429      372      305      206 
     108        8     -120     -261     -394     -535     -695     -837 
    -953    -1065    -1163    -1228    -1291    -1363    -1414    -1459 
   -1516    -1571    -1607    -1636    -1660    -1672    -1680    -1702 
   -1723    -1717    -1695    -1675    -1624    -1536    -1447    -1343 
   -1208    -1097    -1027     -939     -824     -715     -602     -469 
    -342     -224      -98       10      109      233      355      467 
     596      723      810      880      958     1020     1067     1125 
    1188     1225     1255     1287     1289     1255     1223     1194 
    1138     1073     1036      977      850      704      562      398 
     220       54     -105     -267     -444     -634     -823    -1004 
   -1177    -1340    -1489    -1614    -1732    -1848    -1949    -2031 
   -2104    -2153    -2153    -2120    -2074    -1998    -1891    -1779 
   -1655    -1497    -1325    -1156     -953     -712     -480     -252 
      -4      240      469      706      945     1175     1393     1584 
    1740     1864     1954     1980     1929     1854     1800     1692 
    1505     1324     1143      911      695      510      306      116 
     -44     -211     -383     -523     -634     -756     -876     -957 
   -1028    -1131    -1217    -1252    -1277    -1296    -1275    -1237 
   -1185    -1089    -1020    -1027     -999     -899     -854     -861 
    -808     -738     -699     -641     -562     -496     -418     -328 
    -260     -186      -91      -17       36       99      179      257 
     302      322      351      371      371      386      383      363 
     387      429      445      468      508      527      523      533 
     550      544      526      522      496      438      372      282 
     160       43      -70     -209     -364     -519     -695     -893 
   -1080    -1240    -1413    -1588    -1736    -1884    -2034    -2131 
   -2197    -2273    -2311    -2288    -2258    -2216    -2115    -1980 
   -1844    -1669    -1452    -1232    -1004     -750     -496     -256 
     -14      230      473      715      959     1202     1420     1611 
    1790     1927     2004     2074     2133     2150     2158     2131 
    2042     1938     1813     1613     1366     1117      854      567 
     288       37     -218     -487     -724     -942    -1171    -1389 
   -1567    -1728    -1865    -1960    -2031    -2084    -2095    -2083 
   -2089    -2072    -2002    -1930    -1869    -1767    -1636    -1528 
   -1406    -1252    -1108     -970     -815     -665     -534     -387 
    -214      -52       83      213      333      417      490      576 
     641      683      724      747      745      730      702      645 
     575      491      376      236       87      -58     -205     -338 
    -453     -573     -685     -761     -819     -884     -927     -939 
    -959     -976     -972     -959     -949     -927     -877     -839 
    -839     -816     -765     -738     -712     -645     -589     -571 
    -521     -442     -371     -297     -236     -198     -149     -108 
     -86      -58      -25        2       31       54       82      105 
     116      148      197      230      265      303      315      319 
     336      344      336      334      344      326      284      256 
     209      130       79       44       -9      -59     -108     -187 
    -283     -355     -400     -450     -503     -546     -595     -662 
    -729     -780     -845     -924     -976    -1015    -1074    -1107 
   -1101    -1101    -1092    -1054    -1024     -997     -945     -880 
    -812     -724     -627     -546     -457     -349     -255     -157 
     -29      108      241      387      529      633      714      807 
     892      943      985     1020     1032     1030     1021      981 
     900      812      723      622      530      469      394      297 
     209      113      -18     -171     -310     -450     -610     -757 
    -886    -1034    -1171    -1255    -1328    -1409    -1456    -1493 
   -1568    -1642    -1679    -1719    -1767    -1775    -1767    -1764 
   -1718    -1621    -1513    -1386    -1223    -1044     -861     -665 
    -465     -272      -75      126      317      490      649      788 
     915     1046     1174     1270     1331     1387     1432     1452 
    1462     1455     1406     1332     1247     1124      978      849 
     718      557      384      217       35     -175     -376     -556 
    -746     -938    -1092    -1236    -1385    -1498    -1588    -1696 
   -1799    -1877    -1944    -1993    -2010    -2011    -2012    -1996 
   -1960    -1921    -1871    -1788    -1691    -1598    -1489    -1359 
   -1236    -1109     -969     -843     -726     -589     -457     -344 
    -222      -87       37      144      253      367      457      548 
