Origin Time       2025/01/13 21:19:00
Lat.              31.8
Long.             131.6
Depth. (km)       30
Mag.              6.9
Station Code      YMG014
Station Lat.      34.0542
Station Long.     131.8077
Station Height(m) 15
Record Time       2025/01/13 21:20:39
Sampling Freq(Hz) 100Hz
Duration Time(s)  76
Dir.              U-D
Scale Factor      7845(gal)/8223790
Max. Acc. (gal)   1.880
Last Correction   2025/01/13 21:20:41
Memo.             
[...]
    4999     5066     5116     5138     5155     5189     5216     5206 
    5175     5138     5078     4990     4899     4826     4779     4768 
    4784     4781     4746     4707     4689     4685     4698     4734 
    4783     4833     4854     4838     4814     4822     4873     4936 
    4977     4988     4969     4945     4954     4981     4997     4995 
    4972     4957     4976     5003     4997     4981     4969     4928 
    4864     4788     4714     4671     4677     4729     4803     4881 
    4968     5042     5080     5082     5055     5003     4946     4907 
    4892     4905     4930     4947     4965     5013     5074     5109 
    5120     5121     5121     5134     5161     5169     5135     5061 
    4980     4945     4951     4931     4851     4743     4664     4645 
    4677     4711     4707     4671     4623     4577     4542     4523 
    4515     4514     4502     4473     4456     4461     4499     4572 
    4645     4684     4707     4750     4816     4873     4885     4869 
    4851     4837     4827     4839     4870     4904     4945     4988 
    4997     4966     4965     5007     5038     5057     5096     5162 
    5247     5337     5408     5435     5431     5435     5429     5391 
    5354     5335     5341     5363     5359     5336     5324     5324 
    5317     5296     5248     5198     5186     5211     5233     5219 
    5173     5134     5100     5065     5044     5035     5030     5035 
    5047     5059     5080     5104     5125     5166     5231     5286 
    5302     5269     5204     5151     5128     5116     5088     5039 
    5012     5026     5047     5051     5055     5074     5098     5105 
    5089     5073     5069     5085     5130     5175     5174     5131 
    5085     5031     4962     4901     4866     4853     4839     4816 
    4785     4753     4747     4756     4716     4630     4556     4521 
    4513     4536     4603     4689     4743     4766     4788     4797 
    4806     4841     4891     4939     5005     5082     5138     5171 
    5220     5273     5282     5266     5236     5163     5076     5020 
    4966     4877     4795     4746     4708     4665     4627     4599 
    4572     4554     4554     4548     4537     4568     4657     4773 
    4873     4922     4911     4860     4783     4706     4644     4580 
    4536     4540     4564     4576     4581     4577     4549     4513 
    4491     4483     4487     4530     4604     4673     4726     4788 
    4858     4903     4916     4908     4896     4899     4884     4816 
    4723     4662     4656     4671     4681     4675     4644     4596 
    4540     4484     4444     4446     4487     4531     4588     4650 
    4715     4808     4924     5023     5085     5136     5197     5250 
    5306     5378     5429     5452     5476     5501     5526     5566 
    5614     5652     5655     5599     5486     5351     5232     5144 
    5080     5034     4996     4959     4946     4959     4989     5032 
    5069     5085     5103     5125     5148     5165     5157     5125 
    5090     5055     5026     5015     5019     5031     5058     5085 
    5063     5000     4954     4938     4954     5000     5030     5038 
    5070     5125     5177     5232     5277     5281     5258     5212 
    5138     5073     5053     5054     5053     5051     5040     5027 
    5038     5051     5032     5003     4978     4965     4982     5046 
    5115     5139     5138     5132     5113     5090     5062     5007 
    4941     4907     4924     4969     5026     5088     5135     5181 
    5247     5309     5358     5405     5443     5444     5390     5301 
    5213     5140     5081     5009     4912     4799     4689     4603 
    4537     4482     4446     4468     4545     4627     4699     4772 
    4839     4888     4916     4934     4938     4941     4955     4951 
    4897     4839     4820     4827     4837     4819     4764     4700 
    4669     4692     4743     4788     4812     4818     4810     4796 
    4784     4777     4772     4768     4756     4727     4698     4677 
    4672     4698     4747     4795     4814     4822     4843     4865 
    4884     4907     4914     4891     4855     4797     4706     4612 
    4545     4475     4407     4372     4347     4314     4299     4301 
    4286     4248     4214     4210     4252     4318     4365     4396 
    4440     4498     4565     4626     4653     4654     4654     4649 
    4641     4648     4683     4730     4774     4819     4847     4854 
    4876     4923     4988     5077     5182     5275     5362     5463 
    5566     5626     5638     5620     5574     5524     5498     5481 
    5458     5444     5432     5413     5409     5425     5431     5436 
    5466     5482     5456     5420     5375     5297     5228     5204 
    5189     5177     5188     5212     5219     5201     5189     5177 
    5165     5181     5198     5185     5155     5116     5081     5053 
    5035     5058     5104     5134     5140     5124     5097     5071 
    5055     5040     5008     4953     4892     4831     4781     4754 
    4752     4762     4785     4835     4904     4968     4999     4992 
    4974     4977     5005     5046     5090     5108     5073     5011 
    4958     4932     4955     5000     5017     4996     4961     4939 
    4942     4968     5003     5020     4999     4959     4916     4868 
    4831     4810     4796     4800     4833     4880     4947     5017 
    5053     5054     5039     5022     5015     5011     4999     4977 
    4953     4924     4895     4891     4908     4923     4954     5019 
    5107     5217     5335     5410     5427     5429     5459     5481 
    5466     5431     5379     5321     5267     5186     5061     4923 
    4808     4733     4714     4756     4835     4924     5003     5049 
    5065     5070     5071     5066     5049     5023     4981     4927 
    4889     4870     4861     4861     4866     4855     4826     4799 
    4762     4704     4645     4607     4590     4594     4619     4641 
    4653     4698     4797     4918     4999     5015     4985     4955 
    4957     4982     5004     4985     4908     4824     4803     4828 
    4854     4882     4893     4864     4828     4807     4774     4718 
    4657     4603     4540     4468     4413     4371     4320     4268 
    4241     4233     4237     4253     4272     4297     4338     4387 
    4419     4421     4432     4491     4564     4590     4564     4519 
    4468     4429     4436     4495     4564     4629     4712     4797 
    4850     4896     4963     5042     5130     5232     5320     5363 
    5368     5354     5310     5243     5181     5115     5020     4930 
    4874     4842     4801     4734     4656     4596     4571     4569 
    4572     4571     4592     4646     4710     4773     4841     4918 
    5013     5123     5225     5313     5393     5467     5532     5576 
    5610     5638     5670     5732     5829     5919     5980     6003 
    5985     5945     5922     5918     5914     5906     5891     5845 
    5761     5676     5602     5529     5472     5435     5410     5421 
    5472     5522     5553     5559     5529     5472     5416     5364 
    5313     5269     5229     5179     5124     5085     5055     5001 
    4918     4837     4761     4691     4635     4590     4546     4523 
    4541     4576     4599     4621     4669     4749     4854     4974 
    5073     5132     5154     5136     5092     5061     5069     5094 
    5123     5151     5151     5113     5063     5008     4943     4880 
    4812     4749     4708     4684     4654     4619     4588     4565 
    4553     4538     4488     4414     4351     4291     4222     4170 
    4149     4155     4195     4270     4338     4369     4367     4326 
    4256     4202     4191     4212     4241     4272     4306     4352 
    4419     4486     4523     4550     4569     4557     4533     4536 
    4554     4572     4594     4599     4571     4534     4517     4509 
    4488     4467     4484     4557     4644     4699     4729     4765 
    4808     4849     4881     4896     4884     4851     4811     4774 
    4725     4676     4665     4684     4699     4723     4795     4908 
    5036     5170     5309     5428     5508     5535     5508     5444 
    5363     5270     5170     5090     5043     5036     5065     5092 
    5116     5182     5292     5408     5521     5626     5705     5752 
    5782     5790     5748     5661     5579     5520     5464     5413 
    5378     5352     5332     5304     5265     5236     5224     5215 
    5198     5182     5179     5202     5242     5240     5189     5144 
    5135     5142     5136     5119     5107     5094     5074     5050 
    4997     4908     4797     4665     4518     4374     4260     4197 
    4172     4167     4172     4172     4175     4197     4228     4253 
    4251     4218     4180     4140     4097     4055     4010     3974 
    3955     3936     3919     3932     3979     4043     4121     4210 
    4297     4394     4496     4558     4571     4571     4567     4552 
    4558     4579     4561     4517     4490     4467     4448     4471 
    4523     4567     4618     4720     4864     4997     5115     5209 
    5236     5219     5198     5151     5066     4988     4947     4922 
    4888     4870     4869     4865     4880     4928     4985     5032 
    5097     5192     5279     5331     5355     5346     5296     5229 
    5159     5066     4966     4884     4828     4792     4776     4768 
    4765     4788     4835     4884     4938     5007     5082     5155 
    5220     5267     5287     5289     5283     5269     5247     5229 
    5211     5197     5206     5235     5270     5308     5347     5375 
    5385     5366     5323     5260     5188     5123     5063     4986 
    4896     4808     4720     4623     4537     4486     4487     4558 
    4693     4839     4966     5082     5194     5294     5370     5422 
    5470     5528     5605     5690     5768     5836     5863     5845 
    5836     5846     5844     5836     5844     5849     5823     5776 
    5722     5652     5566     5471     5374     5283     5221     5194 
    5182     5163     5131     5081     5005     4905     4818     4780 
    4769     4745     4707     4669     4630     4604     4622     4660 
    4675     4671     4662     4623     4568     4536     4518     4499 
    4498     4515     4534     4549     4560     4556     4550     4572 
    4615     4657     4692     4725     4743     4745     4753     4773 
    4773     4749     4725     4703     4675     4644     4621     4621 
    4652     4706     4762     4819     4880     4932     4962     4970 
    4957     4927     4908     4899     4880     4861     4865     4891 
    4927     4972     4997     4982     4949     4908     4869     4857 
    4866     4868     4857     4860     4884     4904     4930     4986 
    5057     5130     5217     5300     5364     5431     5486     5528 
    5568     5601     5602     5595     5622     5676     5742     5834 
    5938     6016     6056     6049     5999     5922     5841     5757 
    5670     5587     5501     5378     5243     5147     5100     5100 
    5143     5190     5224     5260     5320     5404     5485     5532 
    5556     5579     5595     5590     5570     5563     5578     5607 
    5652     5688     5688     5674     5671     5661     5641     5614 
    5567     5498     5420     5331     5227     5107     4966     4827 
    4725     4648     4571     4499     4457     4450     4463     4475 
    4476     4464     4456     4475     4511     4549     4596     4622 
    4594     4556     4534     4488     4413     4353     4328     4310 
    4307     4330     4329     4290     4253     4237     4225     4222 
    4240     4261     4286     4318     4345     4361     4380     4403 
    4405     4380     4341     4302     4274     4245     4207     4156 
    4106     4063     4009     3950     3915     3917     3955     4008 
    4058     4106     4158     4198     4225     4245     4236     4182 
    4121     4081     4052     4039     4062     4109     4183     4314 
    4504     4706     4891     5055     5197     5320     5424     5493 
    5514     5514     5516     5529     5547     5553     5552     5555 
    5572     5609     5653     5719     5806     5888     5965     6033 
    6070     6075     6056     6027     5976     5894     5800     5740 
    5741     5799     5877     5941     5991     6058     6149     6239 
    6304     6318     6295     6289     6312     6327     6311     6270 
    6224     6181     6147     6130     6097     6019     5918     5832 
    5759     5678     5562     5398     5208     5022     4845     4657 
    4480     4353     4253     4155     4048     3925     3793     3674 
    3561     3435     3316     3242     3217     3204     3188     3160 
    3117     3084     3082     3109     3168     3267     3368     3451 
    3557     3704     3851     3977     4068     4116     4156     4217 
    4271     4314     4356     4386     4395     4405     4432     4463 
    4487     4495     4484     4461     4438     4388     4302     4209 
    4139     4106     4109     4113     4085     4044     4029     4055 
    4125     4217     4321     4441     4575     4725     4874     4993 
    5070     5120     5177     5239     5277     5287     5274     5255 
    5275     5320     5359     5408     5474     5553     5667     5805 
    5926     6045     6178     6288     6382     6497     6633     6762 
    6847     6886     6901     6907     6909     6878     6793     6675 
    6558     6451     6347     6242     6126     6000     5883     5765 
    5637     5506     5368     5220     5066     4918     4787     4688 
    4619     4550     4459     4371     4313     4260     4197     4133 
    4091     4099     4152     4217     4268     4313     4382     4464 
    4525     4553     4538     4491     4455     4436     4426     4405 
    4359     4322     4314     4324     4365     4441     4504     4531 
    4530     4510     4491     4487     4511     4553     4567     4546 
    4525     4506     4483     4469     4469     4473     4475     4480 
    4488     4496     4503     4525     4548     4553     4554     4552 
    4527     4522     4565     4630     4704     4787     4872     4961 
    5059     5158     5243     5327     5427     5532     5629     5688 
    5687     5641     5579     5524     5479     5441     5398     5337 
    5259     5181     5111     5051     5012     4990     4988     5009 
    5049     5100     5169     5251     5313     5337     5339     5313 
    5278     5256     5240     5213     5167     5113     5065     5019 
    4978     4949     4941     4955     4988     5036     5105     5175 
    5233     5287     5339     5386     5441     5499     5522     5514 
    5516     5532     5553     5578     5590     5574     5512     5422 
    5339     5251     5157     5081     5008     4920     4849     4787 
    4707     4621     4548     4479     4413     4368     4351     4352 
    4375     4433     4507     4567     4614     4654     4699     4753 
    4807     4861     4915     4959     4990     5024     5058     5076 
    5085     5078     5038     4963     4873     4800     4749     4702 
    4679     4695     4718     4731     4766     4841     4924     5001 
    5081     5157     5212     5256     5294     5313     5319     5329 
    5329     5317     5324     5351     5404     5482     5552     5597 
    5630     5653     5678     5719     5768     5809     5834     5826 
    5787     5729     5652     5567     5505     5466     5417     5343 
    5252     5185     5148     5097     5024     4955     4899     4847 
    4806     4760     4681     4581     4484     4382     4259     4125 
    3985     3844     3731     3663     3623     3600     3595     3611 
    3654     3716     3792     3883     3993     4101     4186     4260 
    4357     4483     4607     4711     4804     4904     5020     5142 
    5244     5316     5360     5414     5498     5583     5633     5649 
    5664     5705     5783     5873     5911     5896     5884     5900 
    5929     5964     6004     6033     6019     5960     5871     5763 
    5638     5514     5400     5289     5167     5030     4887     4723 
    4531     4334     4135     3920     3709     3530     3395     3310 
    3262     3244     3240     3223     3196     3181     3179     3179 
    3171     3160     3184     3261     3370     3492     3620     3742 
    3861     3981     4077     4133     4183     4251     4332     4409 
    4467     4510     4561     4645     4753     4864     4973     5081 
    5188     5294     5405     5512     5595     5647     5679     5710 
    5740     5764     5775     5778     5775     5751     5707     5653 
    5595     5566     5568     5568     5563     5559     5551     5539 
    5520     5487     5441     5395     5363     5335     5306     5302 
    5320     5335     5352     5382     5412     5448     5494     5522 
    5544     5584     5637     5690     5744     5794     5825     5838 
    5830     5807     5796     5802     5807     5806     5819     5853 
    5888     5908     5917     5894     5829     5757     5691     5610 
    5518     5432     5351     5266     5177     5076     4972     4897 
    4860     4857     4888     4934     5003     5112     5238     5348 
    5437     5513     5578     5613     5603     5551     5449     5313 
    5165     5001     4808     4599     4425     4309     4224     4159 
    4114     4068     4018     3977     3933     3885     3844     3819 
    3800     3781     3765     3762     3786     3834     3894     3974 
    4085     4216     4344     4473     4614     4746     4862     4978 
    5107     5220     5290     5343     5394     5431     5454     5467 
    5448     5406     5360     5297     5208     5104     4978     4847 
    4738     4648     4564     4494     4450     4429     4418     4414 
    4422     4441     4475     4527     4608     4704     4800     4904 
    5000     5073     5138     5200     5244     5247     5232     5238 
    5252     5270     5300     5320     5339     5389     5454     5494 
    5499     5472     5413     5321     5217     5100     4950     4791 
    4649     4519     4399     4305     4232     4174     4139     4147 
    4180     4218     4275     4353     4450     4560     4658     4733 
    4765     4754     4716     4661     4602     4556     4538     4536 
    4533     4527     4525     4517     4500     4490     4488     4495 
    4500     4488     4455     4409     4356     4294     4247     4244 
    4276     4322     4371     4430     4511     4610     4727     4862 
    4982     5063     5108     5151     5220     5293     5354     5427 
    5505     5559     5598     5633     5661     5697     5741     5782 
    5811     5827     5842     5864     5872     5864     5829     5760 
    5678     5580     5458     5337     5227     5123     5046     5000 
    4972     4957     4951     4945     4932     4931     4936     4928 
    4915     4901     4899     4916     4947     4984     5026     5053 
    5081     5139     5206     5266     5328     5386     5440     5505 
    5572     5638     5702     5746     5767     5761     5734     5710 
    5687     5643     5582     5529     5501     5499     5509     5518 
    5530     5544     5559     5583     5609     5607     5582     5547 
