Origin Time       2025/01/13 21:19:00
Lat.              31.8
Long.             131.6
Depth. (km)       30
Mag.              6.9
Station Code      YMG011
Station Lat.      34.0643
Station Long.     131.0213
Station Height(m) 25
Record Time       2025/01/13 21:20:23
Sampling Freq(Hz) 100Hz
Duration Time(s)  109
Dir.              N-S
Scale Factor      7845(gal)/8223790
Max. Acc. (gal)   2.482
Last Correction   2025/01/13 21:20:23
Memo.             
[...]
    7138     6997     6874     6777     6709     6679     6685     6727 
    6802     6901     7015     7137     7256     7377     7504     7624 
    7732     7835     7933     8017     8093     8182     8280     8368 
    8448     8533     8626     8731     8853     8984     9119     9256 
    9396     9535     9664     9776     9887     9995    10083    10150 
   10203    10238    10257    10257    10243    10219    10172    10100 
   10006     9888     9767     9647     9521     9389     9255     9123 
    8996     8880     8769     8660     8561     8486     8437     8410 
    8401     8414     8461     8542     8640     8745     8849     8938 
    9003     9047     9073     9078     9074     9062     9034     8996 
    8966     8941     8908     8891     8884     8877     8881     8885 
    8893     8916     8950     9000     9062     9131     9192     9213 
    9194     9140     9051     8950     8853     8769     8707     8654 
    8619     8604     8590     8584     8588     8586     8575     8552 
    8529     8517     8518     8527     8541     8563     8587     8592 
    8596     8611     8627     8645     8677     8731     8807     8895 
    8989     9086     9189     9297     9397     9491     9583     9661 
    9713     9728     9718     9693     9647     9589     9522     9447 
    9378     9327     9298     9302     9333     9364     9383     9383 
    9363     9324     9271     9211     9148     9086     9026     8981 
    8957     8946     8950     8976     9026     9103     9201     9315 
    9424     9522     9598     9634     9643     9633     9603     9553 
    9475     9356     9207     9043     8887     8746     8622     8525 
    8456     8413     8403     8418     8449     8488     8532     8576 
    8627     8685     8739     8785     8838     8881     8895     8884 
    8853     8784     8679     8550     8410     8262     8112     7969 
    7832     7701     7576     7460     7357     7273     7214     7171 
    7136     7126     7149     7206     7303     7430     7577     7746 
    7921     8094     8267     8433     8586     8734     8885     9038 
    9197     9370     9560     9764     9972    10183    10401    10612 
   10787    10937    11064    11160    11234    11294    11342    11389 
   11422    11431    11423    11395    11329    11214    11051    10847 
   10592    10289     9961     9614     9263     8927     8614     8334 
    8081     7848     7653     7487     7341     7230     7175     7173 
    7225     7329     7476     7662     7879     8114     8363     8615 
    8845     9035     9189     9297     9364     9401     9396     9356 
    9298     9229     9144     9050     8947     8838     8714     8575 
    8429     8283     8137     7998     7886     7804     7739     7672 
    7585     7491     7410     7341     7281     7237     7225     7240 
    7277     7337     7410     7500     7603     7715     7850     8009 
    8191     8402     8629     8862     9096     9320     9552     9798 
   10044    10282    10505    10696    10839    10932    10982    10990 
   10955    10889    10793    10669    10528    10382    10238    10093 
    9950     9814     9679     9555     9451     9366     9300     9243 
    9205     9181     9158     9161     9186     9220     9269     9323 
    9369     9401     9414     9409     9367     9297     9208     9093 
    8955     8800     8638     8478     8320     8189     8090     8006 
    7933     7869     7811     7770     7746     7758     7819     7909 
    8023     8167     8316     8452     8575     8677     8764     8835 
    8877     8899     8916     8926     8927     8930     8941     8951 
    8959     8970     8989     8997     8992     8992     8986     8966 
    8962     8970     8972     8981     8995     9001     8992     8954 
    8893     8818     8716     8596     8476     8372     8274     8182 
    8112     8062     8035     8028     8040     8087     8160     8260 
    8397     8567     8764     8992     9255     9544     9840    10125 
   10392    10633    10831    10967    11044    11060    11007    10891 
   10719    10515    10300    10068     9825     9583     9348     9117 
    8883     8642     8405     8187     7990     7823     7717     7684 
    7701     7759     7848     7962     8104     8284     8502     8754 
    9031     9321     9616     9894    10137    10327    10461    10555 
   10613    10627    10609    10559    10473    10359    10203    10003 
    9780     9536     9277     9020     8775     8546     8329     8121 
    7938     7794     7684     7614     7612     7659     7731     7834 
    7969     8135     8313     8476     8644     8814     8958     9088 
    9207     9293     9358     9402     9425     9441     9455     9456 
    9451     9431     9381     9308     9221     9124     9018     8900 
    8770     8635     8487     8324     8168     8021     7886     7784 
    7719     7686     7689     7720     7777     7869     7994     8149 
    8326     8515     8725     8962     9201     9424     9634     9838 
   10029    10200    10353    10486    10608    10709    10775    10808 
   10800    10736    10606    10405    10157     9873     9563     9246 
    8946     8676     8438     8252     8127     8048     8004     7987 
    7987     8005     8028     8050     8068     8079     8089     8114 
    8149     8182     8226     8291     8359     8415     8472     8548 
    8638     8715     8776     8833     8876     8888     8865     8827 
    8792     8756     8734     8743     8772     8811     8861     8918 
    8974     9034     9096     9163     9238     9305     9364     9423 
    9475     9517     9551     9575     9591     9589     9560     9522 
    9472     9390     9282     9162     9024     8876     8721     8554 
    8395     8243     8087     7948     7830     7727     7650     7591 
    7541     7515     7515     7538     7588     7649     7708     7766 
    7819     7866     7904     7924     7924     7897     7847     7797 
    7761     7735     7723     7743     7794     7858     7929     8016 
    8110     8199     8284     8376     8480     8586     8692     8803 
    8907     9004     9099     9196     9296     9381     9451     9510 
    9551     9568     9576     9587     9597     9595     9583     9570 
    9548     9520     9494     9481     9489     9517     9576     9668 
    9774     9883     9996    10110    10224    10326    10415    10496 
   10555    10579    10558    10493    10404    10293    10158    10012 
    9860     9690     9509     9327     9135     8920     8688     8463 
    8247     8044     7869     7732     7641     7572     7507     7450 
    7403     7358     7306     7254     7229     7230     7246     7281 
    7339     7430     7560     7732     7956     8224     8519     8826 
    9131     9439     9728     9979    10200    10393    10547    10669 
   10755    10791    10786    10754    10685    10575    10436    10288 
   10133     9971     9807     9652     9509     9375     9251     9138 
    9034     8959     8931     8928     8935     8955     8984     9008 
    9024     9023     9005     8976     8932     8866     8785     8696 
    8598     8495     8387     8272     8159     8063     7989     7942 
    7936     7960     8006     8074     8170     8290     8424     8567 
    8726     8892     9057     9215     9371     9522     9651     9752 
    9833     9891     9930     9960     9987    10010    10019    10008 
    9977     9933     9888     9856     9837     9826     9825     9828 
    9834     9845     9855     9861     9863     9852     9817     9753 
    9663     9537     9381     9198     8985     8753     8511     8253 
    7986     7734     7508     7311     7133     6974     6853     6767 
    6708     6691     6723     6791     6891     7021     7183     7362 
    7543     7723     7908     8083     8245     8406     8571     8739 
    8896     9038     9170     9282     9370     9432     9472     9490 
    9472     9410     9313     9194     9065     8934     8807     8694 
    8595     8511     8451     8429     8444     8475     8536     8634 
    8750     8884     9046     9235     9439     9637     9822     9987 
   10126    10239    10327    10389    10415    10396    10335    10233 
   10088     9903     9688     9471     9255     9035     8815     8614 
    8437     8283     8159     8071     8021     8006     8012     8035 
    8086     8159     8249     8367     8509     8658     8816     8978 
    9142     9305     9460     9599     9737     9873    10000    10111 
   10216    10318    10401    10469    10519    10546    10550    10534 
   10504    10449    10357    10231    10080     9913     9725     9512 
    9286     9055     8806     8550     8302     8063     7842     7642 
    7465     7315     7184     7075     6999     6945     6901     6875 
    6875     6894     6930     6988     7074     7182     7302     7442 
    7605     7785     7989     8208     8424     8630     8816     8968 
    9088     9181     9244     9277     9282     9256     9198     9103 
    8966     8800     8607     8392     8175     7965     7763     7591 
    7465     7391     7377     7425     7535     7707     7932     8195 
    8487     8789     9086     9363     9616     9844    10053    10242 
   10408    10534    10624    10682    10709    10704    10679    10648 
   10609    10566    10517    10462    10404    10345    10281    10219 
   10160    10091    10011     9929     9836     9717     9580     9440 
    9302     9165     9022     8877     8737     8591     8436     8294 
    8182     8106     8063     8062     8112     8197     8306     8444 
    8602     8768     8943     9128     9315     9490     9647     9778 
    9875     9933     9964     9968     9944     9906     9853     9780 
    9693     9585     9456     9312     9150     8986     8827     8679 
    8554     8463     8403     8360     8330     8324     8332     8343 
    8363     8391     8409     8405     8388     8361     8316     8267 
    8222     8187     8174     8179     8205     8259     8338     8444 
    8575     8730     8901     9080     9247     9387     9494     9564 
    9597     9598     9562     9499     9428     9340     9229     9115 
    9000     8892     8793     8704     8623     8556     8499     8449 
    8405     8364     8324     8291     8274     8271     8289     8332 
    8392     8463     8544     8631     8716     8795     8860     8915 
    8955     8976     8980     8977     8977     8977     8970     8970 
    8978     8992     9015     9059     9128     9220     9328     9441 
    9562     9699     9844     9987    10131    10257    10350    10407 
   10423    10413    10372    10295    10189    10050     9875     9680 
    9472     9262     9057     8857     8661     8479     8310     8152 
    8006     7889     7796     7727     7696     7715     7771     7846 
    7951     8091     8241     8392     8557     8718     8866     9004 
    9121     9205     9266     9304     9319     9321     9310     9286 
    9256     9229     9202     9175     9153     9144     9162     9193 
    9227     9269     9312     9355     9391     9409     9412     9406 
    9379     9332     9271     9202     9127     9046     8972     8901 
    8839     8791     8753     8726     8714     8714     8735     8775 
    8823     8876     8931     8991     9047     9093     9121     9132 
    9120     9092     9053     9007     8958     8907     8857     8806 
    8752     8689     8622     8548     8465     8375     8276     8182 
    8094     8014     7946     7886     7848     7843     7866     7913 
    7973     8037     8105     8166     8217     8271     8329     8387 
    8449     8518     8586     8649     8718     8788     8856     8920 
    8984     9046     9100     9138     9170     9207     9252     9302 
    9356     9410     9472     9543     9614     9690     9769     9841 
    9903     9954     9992    10021    10029    10014     9985     9933 
    9856     9767     9674     9580     9489     9400     9315     9234 
    9158     9092     9038     8996     8965     8942     8930     8928 
    8931     8924     8916     8905     8877     8834     8785     8729 
    8665     8586     8492     8394     8286     8174     8066     7969 
    7892     7840     7816     7819     7842     7886     7948     8014 
    8089     8171     8256     8341     8430     8536     8656     8780 
    8924     9097     9288     9487     9691     9894    10080    10242 
   10381    10501    10596    10659    10696    10705    10686    10642 
   10574    10497    10401    10278    10143    10002     9848     9686 
    9520     9359     9205     9051     8895     8737     8586     8434 
    8282     8135     7996     7865     7743     7627     7522     7419 
    7312     7207     7103     6993     6893     6809     6745     6716 
    6732     6778     6851     6964     7118     7299     7506     7731 
    7978     8241     8507     8779     9061     9346     9625     9898 
   10165    10419    10651    10864    11060    11230    11365    11457 
   11499    11485    11411    11271    11076    10847    10584    10293 
    9999     9709     9425     9162     8927     8710     8509     8328 
    8164     8017     7878     7740     7619     7518     7439     7384 
    7348     7335     7345     7360     7375     7398     7434     7485 
    7542     7609     7696     7792     7890     8002     8127     8257 
    8386     8518     8660     8807     8958     9112     9278     9460 
    9643     9821    10007    10197    10381    10557    10724    10878 
   11022    11159    11279    11385    11472    11524    11542    11518 
   11442    11315    11141    10930    10693    10431    10160     9894 
    9634     9377     9121     8874     8638     8415     8205     8001 
    7808     7630     7460     7295     7144     7018     6918     6844 
    6799     6787     6812     6879     6995     7153     7353     7588 
    7846     8116     8394     8668     8927     9171     9402     9607 
    9779     9923    10041    10122    10179    10214    10219    10197 
   10158    10103    10025     9926     9818     9699     9559     9398 
    9224     9030     8829     8634     8453     8286     8139     8016 
    7921     7858     7817     7793     7793     7813     7838     7863 
    7898     7940     7987     8039     8101     8175     8255     8341 
    8449     8573     8703     8847     9011     9189     9381     9586 
    9802    10023    10241    10447    10629    10779    10890    10960 
   10997    10999    10952    10854    10710    10532    10334    10111 
    9857     9593     9337     9077     8812     8561     8328     8106 
    7897     7712     7553     7416     7302     7211     7152     7117 
    7103     7105     7130     7194     7281     7384     7506     7639 
    7780     7924     8074     8233     8392     8545     8694     8837 
    8976     9107     9225     9331     9414     9477     9521     9545 
    9555     9552     9535     9513     9489     9460     9428     9391 
    9343     9279     9215     9148     9080     9003     8923     8846 
    8776     8711     8646     8580     8521     8459     8390     8325 
    8272     8235     8218     8232     8274     8344     8436     8541 
    8662     8796     8934     9074     9223     9375     9526     9675 
    9823     9971    10114    10250    10382    10508    10613    10694 
   10746    10770    10773    10752    10716    10666    10596    10509 
   10413    10308    10193    10064     9918     9759     9591     9413 
    9224     9031     8845     8671     8509     8372     8262     8176 
    8117     8083     8078     8101     8147     8208     8279     8365 
    8465     8572     8681     8793     8899     8992     9080     9157 
    9227     9292     9344     9393     9440     9468     9470     9454 
    9425     9378     9315     9243     9157     9066     8978     8895 
    8814     8730     8635     8545     8461     8378     8299     8221 
    8140     8075     8021     7967     7924     7898     7896     7916 
    7944     7979     8029     8095     8166     8232     8303     8390 
    8491     8596     8696     8804     8924     9046     9161     9274 
    9391     9504     9591     9652     9698     9720     9705     9657 
    9594     9512     9413     9296     9173     9047     8916     8781 
    8650     8532     8433     8361     8307     8270     8256     8263 
    8283     8320     8368     8430     8511     8603     8707     8826 
    8957     9096     9240     9382     9521     9657     9786     9896 
    9985    10056    10107    10131    10129    10103    10049     9961 
    9856     9736     9603     9474     9343     9204     9074     8953 
    8830     8721     8630     8556     8492     8438     8399     8380 
    8372     8365     8371     8383     8399     8419     8442     8468 
    8500     8536     8576     8635     8710     8793     8891     9004 
    9135     9270     9410     9560     9710     9852     9984    10100 
   10195    10270    10316    10322    10299    10246    10154    10027 
    9875     9703     9513     9305     9086     8866     8649     8437 
    8244     8074     7924     7793     7685     7599     7537     7503 
    7507     7549     7627     7734     7865     8009     8159     8318 
    8478     8631     8787     8932     9070     9204     9320     9413 
    9495     9567     9624     9670     9706     9732     9749     9761 
    9764     9757     9744     9728     9711     9687     9653     9613 
    9566     9502     9429     9356     9274     9189     9115     9054 
    8996     8931     8869     8818     8769     8712     8649     8587 
    8532     8471     8403     8337     8278     8216     8155     8097 
    8037     7982     7936     7897     7865     7850     7844     7846 
    7858     7878     7905     7939     7983     8037     8093     8143 
    8190     8243     8306     8378     8459     8552     8654     8757 
    8857     8965     9072     9177     9286     9393     9498     9602 
    9694     9774     9840     9886     9914     9930     9942     9949 
    9942     9919     9879     9826     9764     9684     9598     9516 
    9435     9347     9254     9166     9078     8974     8868     8769 
    8671     8577     8498     8430     8371     8328     8303     8291 
    8286     8290     8299     8316     8337     8371     8417     8463 
    8514     8579     8646     8711     8770     8829     8883     8930 
    8969     9004     9030     9046     9061     9081     9093     9094 
    9096     9100     9094     9072     9049     9035     9019     9000 
    8989     8985     8976     8962     8949     8930     8903     8865 
    8815     8760     8703     8640     8568     8498     8437     8384 
    8341     8306     8278     8255     8236     8218     8206     8208 
    8221     8241     8282     8343     8407     8480     8561     8642 
    8723     8800     8880     8970     9057     9127     9189     9250 
    9313     9371     9418     9471     9537     9606     9671     9736 
    9801     9848     9877     9892     9888     9867     9829     9771 
    9694     9595     9477     9346     9219     9096     8969     8850 
    8749     8669     8603     8550     8509     8479     8449     8421 
    8398     8379     8367     8361     8360     8368     8384     8409 
    8446     8499     8556     8615     8683     8754     8824     8892 
    8955     9027     9105     9173     9232     9294     9358     9421 
