Origin Time       2025/01/13 21:19:00
Lat.              31.8
Long.             131.6
Depth. (km)       30
Mag.              6.9
Station Code      YMG009
Station Lat.      34.2315
Station Long.     131.8175
Station Height(m) 377
Record Time       2025/01/13 21:20:55
Sampling Freq(Hz) 100Hz
Duration Time(s)  60
Dir.              N-S
Scale Factor      7845(gal)/8223790
Max. Acc. (gal)   1.609
Last Correction   2025/01/13 21:20:55
Memo.             
[...]
    8341     8251     8116     7989     7924     7902     7893     7911 
    7974     8063     8147     8218     8287     8361     8426     8442 
    8391     8282     8148     8033     7958     7928     7929     7919 
    7904     7909     7911     7889     7867     7873     7906     7935 
    7942     7942     7956     7981     8010     8064     8148     8248 
    8344     8419     8453     8449     8403     8313     8216     8139 
    8083     8051     8040     8056     8083     8095     8101     8106 
    8097     8086     8098     8121     8137     8159     8199     8255 
    8298     8317     8332     8343     8307     8226     8125     8006 
    7882     7796     7780     7796     7790     7763     7757     7774 
    7801     7848     7933     8043     8149     8233     8282     8295 
    8278     8213     8101     7985     7897     7847     7839     7859 
    7892     7925     7950     7954     7955     7975     8014     8070 
    8144     8224     8271     8266     8229     8193     8160     8113 
    8041     7960     7896     7851     7825     7820     7831     7857 
    7890     7927     7960     7990     8029     8091     8181     8284 
    8360     8372     8343     8305     8270     8222     8170     8132 
    8117     8120     8149     8224     8325     8397     8405     8353 
    8264     8154     8037     7956     7943     7977     8014     8050 
    8081     8097     8097     8089     8079     8085     8110     8127 
    8116     8094     8078     8070     8062     8066     8095     8148 
    8199     8226     8239     8241     8209     8147     8085     8043 
    8024     8023     8040     8091     8168     8247     8313     8359 
    8387     8403     8402     8374     8340     8322     8320     8309 
    8271     8230     8202     8171     8136     8117     8118     8114 
    8082     8029     7987     7974     7981     8009     8077     8179 
    8298     8391     8417     8367     8278     8203     8176     8191 
    8232     8275     8272     8212     8136     8091     8090     8117 
    8154     8185     8195     8185     8149     8087     8024     7985 
    7977     7998     8039     8077     8113     8148     8172     8189 
    8201     8205     8190     8144     8070     7982     7905     7854 
    7834     7835     7857     7896     7946     7989     8027     8073 
    8121     8162     8197     8225     8232     8194     8104     8006 
    7939     7911     7909     7916     7927     7958     8001     8036 
    8054     8077     8124     8181     8233     8286     8330     8376 
    8433     8472     8478     8471     8444     8364     8236     8101 
    7987     7908     7867     7861     7877     7908     7946     7998 
    8073     8155     8247     8332     8386     8413     8438     8464 
    8480     8473     8437     8383     8320     8255     8199     8168 
    8174     8198     8216     8218     8213     8198     8158     8095 
    8043     8014     7998     7994     8009     8040     8091     8159 
    8226     8284     8318     8301     8255     8217     8197     8179 
    8160     8147     8137     8128     8128     8136     8164     8220 
    8302     8407     8505     8537     8483     8367     8218     8078 
    7987     7943     7940     7992     8067     8110     8101     8074 
    8067     8078     8087     8105     8133     8139     8106     8059 
    8017     8002     8019     8075     8152     8206     8210     8182 
    8160     8179     8208     8213     8218     8205     8140     8052 
    7989     7965     7973     7986     8001     8031     8059     8070 
    8071     8082     8106     8143     8189     8236     8279     8305 
    8303     8283     8247     8193     8131     8067     8000     7933 
    7882     7836     7778     7720     7677     7643     7605     7570 
    7555     7568     7593     7635     7699     7776     7843     7870 
    7859     7839     7830     7825     7827     7842     7850     7830 
    7776     7711     7662     7642     7653     7705     7811     7958 
    8124     8293     8463     8619     8718     8730     8673     8588 
    8514     8467     8453     8480     8541     8615     8688     8738 
    8760     8765     8764     8757     8749     8734     8722     8715 
    8721     8739     8756     8749     8708     8638     8538     8421 
    8318     8252     8217     8202     8217     8244     8237     8197 
    8154     8118     8090     8085     8124     8209     8313     8387 
    8410     8392     8341     8259     8172     8109     8075     8055 
    8023     7969     7919     7897     7898     7915     7950     7978 
    7967     7924     7875     7838     7813     7807     7823     7840 
    7835     7811     7790     7797     7852     7932     8001     8041 
    8060     8071     8078     8077     8067     8044     7998     7936 
    7862     7794     7765     7780     7831     7906     7986     8032 
    8025     7977     7920     7882     7862     7858     7879     7913 
    7947     7975     8004     8043     8083     8120     8163     8218 
    8275     8321     8344     8364     8407     8469     8525     8550 
    8523     8436     8307     8174     8059     7978     7935     7925 
    7940     7958     7969     7986     8029     8095     8144     8167 
    8183     8160     8067     7965     7915     7911     7919     7923 
    7919     7908     7871     7798     7715     7649     7630     7641 
    7657     7704     7773     7800     7777     7722     7628     7519 
    7412     7323     7291     7322     7383     7454     7520     7566 
    7599     7632     7673     7724     7798     7904     8024     8128 
    8214     8302     8394     8471     8519     8546     8550     8523 
    8483     8461     8457     8464     8494     8540     8569     8575 
    8564     8533     8473     8403     8355     8345     8365     8405 
    8449     8482     8498     8502     8498     8494     8507     8554 
    8629     8692     8725     8723     8688     8606     8487     8364 
    8263     8185     8132     8112     8118     8118     8102     8070 
    8021     7959     7874     7763     7645     7524     7418     7357 
    7364     7430     7523     7616     7712     7831     7958     8077 
    8195     8317     8424     8495     8525     8509     8449     8364 
    8280     8205     8127     8062     8033     8029     8019     8001 
    8002     8033     8078     8117     8151     8166     8141     8090 
    8040     8016     8031     8067     8086     8078     8059     8035 
    8009     8014     8083     8210     8363     8494     8559     8548 
    8468     8341     8218     8141     8101     8074     8050     8021 
    7969     7890     7823     7805     7830     7858     7888     7939 
    7996     8024     8020     8002     7971     7912     7824     7744 
    7708     7719     7750     7801     7882     7975     8050     8087 
    8074     8008     7900     7776     7684     7665     7722     7827 
    7940     8043     8139     8226     8291     8322     8321     8303 
    8267     8201     8136     8127     8197     8310     8426     8536 
    8626     8661     8621     8526     8399     8239     8055     7889 
    7786     7761     7793     7867     7990     8139     8279     8410 
    8545     8675     8777     8839     8864     8862     8854     8850 
    8846     8826     8796     8765     8719     8656     8603     8587 
    8600     8633     8677     8718     8715     8653     8564     8494 
    8445     8398     8345     8303     8275     8235     8166     8094 
    8055     8051     8050     8039     8037     8048     8047     8032 
    8023     8035     8067     8104     8135     8162     8175     8160 
    8122     8086     8070     8062     8040     8002     7966     7928 
    7889     7879     7928     8014     8085     8098     8066     8008 
    7929     7855     7817     7832     7892     7974     8041     8079 
    8095     8105     8127     8158     8166     8143     8097     8017 
    7886     7731     7601     7516     7461     7411     7375     7400 
    7508     7668     7852     8048     8236     8392     8507     8569 
    8563     8507     8452     8425     8438     8487     8534     8559 
    8569     8563     8523     8484     8478     8488     8488     8463 
    8411     8349     8297     8263     8247     8253     8299     8386 
    8511     8661     8812     8951     9066     9139     9165     9144 
    9076     8969     8856     8779     8750     8739     8712     8658 
    8584     8509     8430     8343     8256     8176     8094     8010 
    7950     7932     7962     8031     8114     8197     8283     8353 
    8392     8398     8382     8351     8301     8244     8194     8140 
    8073     8001     7933     7897     7904     7944     8008     8078 
    8132     8151     8117     8035     7940     7844     7740     7669 
    7665     7728     7827     7935     8054     8166     8249     8302 
    8320     8298     8241     8167     8106     8059     8012     7965 
    7929     7905     7869     7808     7742     7689     7650     7630 
    7639     7686     7754     7803     7798     7749     7670     7568 
    7453     7360     7306     7269     7233     7199     7184     7196 
    7231     7291     7369     7456     7545     7620     7666     7693 
    7722     7750     7776     7796     7817     7831     7817     7766 
    7713     7703     7747     7840     7948     8037     8093     8108 
    8068     7983     7898     7857     7859     7898     7969     8056 
    8143     8229     8337     8478     8634     8793     8939     9051 
    9101     9078     9013     8949     8910     8884     8847     8792 
    8731     8648     8515     8355     8202     8067     7946     7840 
    7755     7663     7538     7415     7334     7311     7368     7526 
    7744     7943     8073     8145     8175     8158     8100     8029 
    7974     7932     7881     7819     7766     7730     7709     7712 
    7750     7827     7915     7985     8050     8112     8166     8222 
    8280     8314     8316     8295     8260     8212     8178     8190 
    8237     8305     8386     8453     8472     8445     8398     8355 
    8333     8332     8340     8344     8321     8239     8133     8063 
    8044     8074     8144     8232     8313     8356     8364     8378 
    8410     8430     8422     8380     8301     8193     8079     7996 
    7960     7962     7971     7979     7990     7993     7973     7940 
    7913     7889     7867     7843     7811     7784     7747     7701 
    7666     7641     7608     7570     7527     7492     7484     7508 
    7565     7645     7731     7811     7871     7923     7987     8070 
    8171     8271     8328     8329     8309     8303     8321     8341 
    8365     8399     8429     8440     8437     8444     8455     8442 
    8401     8360     8336     8313     8297     8307     8341     8398 
    8488     8599     8710     8819     8916     8959     8962     8958 
    8932     8888     8853     8827     8784     8716     8638     8568 
    8510     8455     8395     8330     8259     8181     8098     8013 
    7935     7877     7851     7835     7794     7740     7724     7755 
    7825     7928     8060     8224     8406     8557     8660     8737 
    8803     8861     8915     8951     8957     8942     8911     8858 
    8796     8739     8685     8631     8584     8538     8469     8364 
    8251     8167     8120     8093     8079     8062     8012     7915 
    7796     7699     7645     7620     7612     7605     7582     7543 
    7500     7468     7454     7464     7474     7462     7431     7392 
    7344     7304     7308     7353     7418     7504     7620     7751 
    7867     7967     8063     8148     8203     8213     8174     8098 
    7996     7882     7777     7680     7589     7508     7429     7342 
    7272     7240     7236     7248     7279     7321     7345     7346 
    7344     7357     7379     7403     7439     7499     7565     7623 
    7672     7716     7765     7828     7900     7963     8006     8039 
    8070     8089     8095     8102     8093     8052     8001     7963 
    7933     7913     7929     7985     8052     8117     8194     8297 
    8414     8515     8591     8652     8703     8753     8796     8820 
    8831     8850     8873     8896     8926     8968     9030     9117 
    9211     9281     9331     9375     9405     9397     9354     9281 
    9193     9123     9082     9073     9086     9116     9161     9212 
    9258     9293     9320     9347     9373     9382     9355     9298 
    9231     9166     9101     9022     8920     8791     8638     8500 
    8415     8386     8399     8440     8476     8475     8430     8357 
    8275     8199     8137     8087     8050     8032     8039     8058 
    8068     8086     8127     8172     8199     8210     8220     8220 
    8198     8178     8175     8166     8122     8056     8005     7977 
    7973     8002     8062     8135     8199     8213     8156     8047 
    7902     7747     7624     7534     7437     7331     7245     7173 
    7121     7110     7130     7136     7110     7059     6991     6940 
    6913     6901     6905     6930     6976     7032     7078     7103 
    7128     7163     7196     7221     7248     7290     7326     7352 
    7384     7441     7516     7585     7634     7688     7767     7870 
    7966     8044     8108     8143     8136     8105     8079     8071 
    8062     8029     7987     7947     7905     7863     7843     7840 
    7852     7911     8035     8202     8394     8596     8787     8954 
    9107     9255     9406     9558     9694     9783     9813     9796 
    9734     9617     9481     9374     9277     9166     9038     8885 
    8726     8591     8484     8418     8394     8371     8320     8226 
    8082     7915     7771     7665     7595     7561     7553     7538 
    7496     7441     7400     7377     7364     7348     7331     7318 
    7294     7248     7186     7122     7063     7002     6949     6912 
    6889     6889     6906     6933     6976     7047     7145     7250 
    7330     7389     7446     7485     7491     7488     7508     7543 
    7580     7619     7657     7693     7720     7739     7765     7798 
    7835     7884     7952     8024     8079     8128     8181     8233 
    8283     8338     8410     8478     8511     8511     8498     8482 
    8460     8438     8433     8453     8484     8510     8536     8576 
    8608     8610     8608     8635     8664     8654     8608     8554 
    8509     8459     8414     8405     8448     8529     8610     8669 
    8703     8708     8695     8673     8656     8652     8642     8607 
    8554     8487     8407     8336     8293     8278     8271     8264 
    8259     8235     8186     8139     8109     8110     8154     8226 
    8302     8351     8351     8299     8221     8145     8079     8021 
    7978     7933     7877     7821     7778     7744     7715     7685 
    7657     7623     7589     7562     7545     7541     7553     7584 
    7624     7663     7696     7731     7781     7846     7927     8020 
    8114     8185     8230     8278     8340     8409     8486     8573 
    8657     8730     8796     8851     8891     8912     8914     8904 
    8888     8854     8796     8721     8633     8549     8480     8414 
    8341     8264     8178     8085     7996     7911     7824     7740 
    7685     7684     7736     7819     7909     8009     8113     8194 
    8245     8306     8394     8484     8546     8571     8569     8549 
    8514     8486     8478     8468     8428     8361     8297     8251 
    8232     8255     8310     8375     8428     8448     8425     8378 
    8324     8272     8245     8247     8257     8259     8236     8190 
    8144     8118     8112     8110     8112     8129     8178     8262 
    8363     8457     8537     8600     8633     8625     8583     8529 
    8475     8425     8390     8376     8387     8406     8392     8340 
    8274     8217     8174     8132     8083     8035     7994     7963 
    7952     7971     8013     8063     8110     8154     8172     8148 
    8081     7992     7890     7781     7661     7520     7364     7204 
    7052     6916     6813     6759     6735     6704     6681     6702 
    6772     6855     6936     7015     7079     7115     7146     7187 
    7231     7271     7312     7369     7438     7503     7560     7641 
    7755     7882     8021     8183     8337     8438     8494     8536 
    8584     8640     8711     8811     8932     9040     9107     9142 
    9155     9158     9158     9151     9140     9136     9121     9073 
    8997     8932     8895     8862     8830     8804     8787     8758 
    8711     8660     8623     8602     8590     8587     8586     8579 
    8552     8500     8426     8334     8232     8118     8006     7908 
    7830     7770     7728     7704     7705     7726     7758     7805 
    7855     7890     7912     7933     7965     8000     8043     8106 
    8190     8280     8376     8461     8521     8565     8603     8623 
    8596     8514     8407     8299     8178     8044     7936     7877 
    7854     7843     7828     7803     7750     7669     7587     7530 
    7508     7520     7578     7686     7804     7889     7948     8014 
    8089     8149     8208     8274     8316     8305     8245     8166 
    8101     8073     8086     8128     8186     8243     8268     8266 
    8256     8241     8210     8163     8102     8029     7939     7832 
    7731     7658     7624     7624     7638     7651     7658     7658 
    7658     7651     7639     7624     7604     7577     7550     7527 
    7526     7551     7603     7666     7739     7817     7894     7960 
    8019     8075     8125     8163     8181     8181     8174     8170 
    8162     8145     8120     8102     8082     8032     7960     7898 
    7859     7834     7821     7832     7865     7915     7989     8089 
    8206     8318     8394     8415     8375     8275     8143     8021 
    7925     7840     7755     7677     7608     7545     7476     7411 
    7352     7287     7214     7144     7074     6997     6932     6901 
    6909     6952     7018     7099     7196     7306     7419     7551 
    7712     7886     8056     8225     8394     8541     8648     8721 
    8780     8835     8889     8957     9046     9132     9192     9227 
    9235     9204     9146     9088     9042     9004     8968     8932 
    8897     8860     8818     8776     8754     8749     8750     8765 
    8795     8824     8854     8893     8938     8978     9003     9007 
    8989     8934     8843     8730     8606     8483     8371     8271 
    8179     8106     8055     8006     7948     7890     7836     7792 
    7754     7708     7655     7622     7608     7612     7643     7700 
    7770     7852     7944     8036     8114     8182     8251     8325 
    8403     8472     8533     8577     8587     8557     8502     8444 
    8398     8361     8333     8313     8293     8260     8220     8186 
    8168     8168     8189     8232     8276     8299     8301     8306 
    8320     8355     8424     8506     8564     8594     8584     8525 
    8432     8330     8229     8151     8091     8010     7905     7796 
    7668     7508     7356     7241     7157     7099     7069     7048 
    7025     7011     7009     7007     7005     7017     7048     7088 
    7128     7161     7190     7222     7267     7329     7416     7535 
