Origin Time       2025/01/13 21:19:00
Lat.              31.8
Long.             131.6
Depth. (km)       30
Mag.              6.9
Station Code      YMG019
Station Lat.      33.8454
Station Long.     132.1204
Station Height(m) 63
Record Time       2025/01/13 21:20:39
Sampling Freq(Hz) 100Hz
Duration Time(s)  60
Dir.              E-W
Scale Factor      7845(gal)/8223790
Max. Acc. (gal)   2.044
Last Correction   2025/01/13 21:20:40
Memo.             
[...]
    7404     7443     7468     7491     7503     7488     7453     7412 
    7398     7430     7480     7515     7535     7568     7619     7657 
    7674     7692     7705     7703     7680     7638     7592     7573 
    7589     7622     7653     7659     7632     7596     7566     7539 
    7506     7476     7470     7469     7470     7487     7518     7546 
    7541     7514     7483     7435     7379     7361     7392     7439 
    7485     7518     7507     7453     7404     7385     7395     7412 
    7418     7410     7411     7429     7439     7426     7410     7423 
    7458     7488     7503     7506     7495     7500     7523     7523 
    7497     7484     7495     7533     7597     7666     7704     7701 
    7690     7686     7676     7670     7682     7692     7688     7672 
    7659     7666     7684     7705     7727     7724     7665     7576 
    7512     7487     7474     7470     7489     7518     7523     7495 
    7461     7445     7441     7420     7377     7330     7294     7285 
    7300     7319     7329     7325     7325     7353     7396     7434 
    7472     7526     7582     7607     7589     7550     7507     7453 
    7387     7331     7307     7326     7375     7414     7434     7452 
    7476     7510     7547     7591     7654     7722     7753     7750 
    7732     7708     7685     7670     7663     7661     7657     7631 
    7561     7479     7427     7398     7375     7372     7384     7408 
    7454     7512     7562     7596     7608     7607     7591     7549 
    7496     7445     7391     7341     7317     7315     7312     7306 
    7308     7335     7371     7376     7360     7338     7319     7333 
    7381     7425     7446     7458     7466     7476     7479     7470 
    7449     7437     7465     7496     7496     7493     7531     7603 
    7668     7696     7689     7657     7618     7593     7600     7632 
    7659     7661     7636     7599     7561     7546     7570     7632 
    7700     7740     7746     7732     7716     7693     7672     7650 
    7620     7591     7574     7578     7569     7518     7457     7430 
    7457     7527     7592     7624     7647     7674     7709     7738 
    7731     7708     7684     7643     7601     7577     7554     7515 
    7461     7399     7334     7283     7244     7209     7191     7215 
    7295     7396     7477     7516     7519     7512     7530     7572 
    7596     7593     7581     7561     7530     7487     7437     7406 
    7404     7414     7407     7385     7352     7314     7280     7253 
    7242     7253     7273     7294     7322     7361     7400     7422 
    7433     7441     7419     7356     7288     7249     7218     7172 
    7119     7090     7107     7153     7204     7245     7265     7271 
    7271     7256     7214     7157     7119     7149     7245     7321 
    7335     7329     7326     7312     7290     7287     7292     7265 
    7210     7153     7113     7115     7176     7277     7375     7431 
    7442     7429     7438     7496     7577     7638     7669     7684 
    7690     7701     7726     7755     7769     7753     7722     7705 
    7713     7720     7713     7685     7630     7587     7581     7589 
    7588     7570     7528     7470     7407     7341     7287     7254 
    7230     7195     7171     7180     7214     7268     7345     7430 
    7510     7566     7587     7569     7531     7535     7612     7712 
    7804     7896     7994     8094     8170     8205     8216     8205 
    8183     8203     8289     8405     8507     8579     8622     8642 
    8619     8569     8530     8513     8510     8499     8468     8437 
    8403     8359     8322     8317     8334     8349     8345     8307 
    8243     8179     8139     8118     8098     8059     7994     7936 
    7920     7940     7955     7956     7952     7938     7929     7954 
    7996     8037     8059     8040     7996     7973     7997     8056 
    8102     8087     8005     7892     7800     7743     7678     7591 
    7515     7470     7446     7427     7412     7403     7388     7371 
    7357     7346     7339     7317     7256     7182     7109     7006 
    6874     6744     6652     6616     6593     6555     6536     6542 
    6555     6583     6610     6610     6583     6544     6505     6484 
    6482     6481     6492     6529     6578     6627     6696     6785 
    6870     6943     7006     7061     7125     7192     7223     7206 
    7171     7141     7123     7122     7145     7180     7199     7213 
    7231     7254     7318     7427     7518     7543     7511     7438 
    7375     7376     7427     7481     7514     7528     7531     7519 
    7489     7453     7416     7381     7357     7358     7373     7377 
    7353     7326     7333     7348     7339     7317     7273     7210 
    7140     7084     7086     7145     7226     7300     7339     7334 
    7300     7269     7269     7307     7384     7499     7622     7713 
    7766     7777     7747     7695     7643     7615     7588     7527 
    7453     7426     7460     7501     7507     7491     7469     7466 
    7483     7492     7480     7449     7365     7226     7087     6986 
    6939     6948     6972     6987     7014     7060     7110     7167 
    7225     7264     7273     7272     7284     7294     7273     7227 
    7190     7179     7199     7245     7299     7331     7319     7264 
    7176     7080     7029     7032     7060     7076     7061     7047 
    7069     7123     7171     7172     7130     7087     7061     7051 
    7033     7005     7002     7040     7076     7102     7133     7179 
    7250     7321     7353     7366     7391     7412     7422     7426 
    7416     7411     7466     7588     7711     7792     7842     7866 
    7854     7835     7828     7834     7848     7859     7859     7852 
    7838     7809     7766     7720     7688     7670     7646     7604 
    7554     7493     7430     7369     7311     7252     7214     7206 
    7217     7248     7273     7261     7226     7176     7106     7033 
    6982     6967     7007     7082     7161     7254     7365     7480 
    7582     7646     7669     7701     7774     7854     7898     7886 
    7844     7830     7865     7925     7973     7986     7981     7958 
    7893     7803     7734     7692     7663     7646     7639     7654 
    7697     7757     7801     7834     7875     7933     7987     8019 
    8044     8073     8085     8087     8097     8100     8074     8029 
    7981     7940     7921     7904     7870     7830     7780     7699 
    7611     7577     7622     7689     7727     7744     7757     7770 
    7816     7902     8001     8079     8113     8108     8105     8109 
    8086     8040     7986     7906     7819     7753     7686     7597 
    7507     7439     7396     7353     7287     7211     7169     7179 
    7211     7237     7253     7284     7344     7418     7462     7456 
    7426     7391     7354     7311     7260     7217     7200     7199 
    7191     7167     7111     7022     6936     6891     6878     6880 
    6893     6913     6949     6972     6952     6907     6862     6813 
    6770     6733     6706     6683     6670     6678     6696     6723 
    6771     6821     6858     6862     6821     6770     6752     6783 
    6837     6899     6972     7044     7095     7133     7159     7159 
    7128     7072     7022     7001     7001     7006     7025     7061 
    7102     7149     7204     7254     7307     7389     7504     7631 
    7731     7770     7784     7825     7874     7901     7947     8025 
    8100     8144     8148     8116     8060     7986     7897     7813 
    7763     7762     7790     7831     7866     7882     7878     7865 
    7869     7925     8005     8052     8070     8091     8155     8263 
    8383     8483     8577     8683     8779     8839     8864     8856 
    8830     8797     8775     8776     8788     8770     8718     8650 
    8615     8665     8784     8900     8977     9027     9036     8978 
    8861     8719     8595     8525     8513     8540     8564     8575 
    8583     8587     8572     8533     8457     8345     8235     8162 
    8118     8060     7959     7836     7712     7600     7528     7511 
    7526     7531     7503     7446     7385     7335     7295     7291 
    7333     7368     7371     7366     7356     7333     7325     7338 
    7354     7357     7319     7242     7149     7045     6953     6907 
    6898     6890     6872     6837     6775     6697     6624     6559 
    6496     6438     6401     6419     6492     6575     6621     6615 
    6578     6539     6494     6443     6409     6423     6488     6578 
    6650     6679     6670     6628     6573     6527     6516     6551 
    6625     6697     6740     6778     6831     6880     6910     6925 
    6944     6988     7053     7110     7161     7217     7263     7311 
    7360     7380     7380     7360     7307     7248     7209     7180 
    7149     7123     7091     7048     7026     7049     7107     7190 
    7287     7389     7493     7603     7708     7777     7811     7840 
    7885     7925     7936     7923     7912     7909     7905     7892 
    7873     7863     7881     7946     8063     8203     8343     8467 
    8575     8672     8757     8824     8874     8910     8915     8870 
    8787     8703     8625     8546     8499     8500     8522     8514 
    8464     8383     8252     8074     7886     7723     7587     7474 
    7376     7276     7179     7090     7021     6995     7013     7037 
    7052     7051     7036     7022     7020     7025     7051     7091 
    7128     7165     7214     7275     7334     7334     7253     7149 
    7087     7060     7017     6953     6918     6944     7025     7132 
    7234     7321     7380     7414     7439     7435     7376     7276 
    7169     7084     7051     7051     7037     7006     6955     6866 
    6745     6613     6477     6343     6219     6102     6011     5979 
    5995     6022     6012     5965     5913     5875     5856     5861 
    5877     5903     5948     6016     6131     6293     6469     6625 
    6755     6863     6949     7021     7086     7125     7150     7200 
    7253     7280     7306     7356     7419     7462     7480     7483 
    7489     7553     7692     7855     8002     8120     8209     8282 
    8328     8359     8421     8518     8629     8752     8850     8895 
    8896     8856     8768     8658     8553     8456     8356     8241 
    8129     8040     7966     7894     7798     7670     7535     7410 
    7295     7191     7069     6914     6733     6548     6408     6345 
    6328     6309     6265     6212     6176     6158     6147     6138 
    6130     6118     6089     6054     6030     6026     6037     6057 
    6088     6135     6197     6277     6365     6436     6508     6594 
    6654     6690     6735     6797     6883     6993     7106     7206 
    7300     7415     7557     7697     7840     8017     8203     8332 
    8380     8374     8324     8249     8166     8101     8081     8086 
    8095     8109     8083     8001     7889     7761     7635     7528 
    7437     7375     7344     7330     7310     7261     7188     7095 
    6998     6929     6883     6859     6879     6914     6909     6849 
    6770     6710     6683     6691     6731     6762     6756     6736 
    6735     6767     6829     6917     7007     7068     7101     7128 
    7167     7217     7254     7272     7302     7372     7489     7650 
    7838     8020     8160     8245     8309     8380     8459     8538 
    8630     8737     8841     8926     8988     9022     9022     8988 
    8924     8839     8752     8680     8640     8642     8675     8700 
    8710     8735     8785     8833     8865     8876     8869     8854 
    8837     8829     8827     8814     8807     8812     8816     8822 
    8830     8856     8907     8939     8939     8943     8951     8941 
    8911     8866     8795     8712     8662     8645     8637     8622 
    8583     8533     8503     8494     8507     8546     8575     8557 
    8488     8397     8329     8306     8309     8294     8225     8104 
    7956     7828     7727     7618     7483     7323     7129     6928 
    6745     6608     6542     6528     6523     6498     6446     6389 
    6355     6327     6274     6196     6093     5991     5913     5836 
    5752     5710     5744     5859     6026     6191     6307     6374 
    6407     6421     6430     6454     6513     6601     6700     6801 
    6905     7003     7071     7088     7084     7076     7075     7094 
    7129     7172     7225     7291     7366     7426     7473     7545 
    7628     7695     7751     7813     7897     8005     8081     8090 
    8062     8012     7927     7811     7673     7523     7381     7263 
    7171     7091     6997     6890     6801     6764     6785     6849 
    6936     7017     7087     7144     7199     7281     7376     7458 
    7539     7628     7728     7834     7925     8001     8079     8158 
    8226     8263     8248     8186     8113     8056     8031     8050 
    8104     8167     8213     8243     8263     8271     8252     8195 
    8121     8066     8043     8043     8066     8095     8112     8110 
    8078     7996     7879     7780     7731     7735     7770     7815 
    7848     7862     7850     7827     7819     7824     7817     7784 
    7713     7619     7524     7431     7330     7207     7071     6948 
    6822     6663     6481     6297     6129     5983     5834     5674 
    5525     5402     5339     5368     5481     5633     5783     5913 
    6033     6143     6237     6324     6432     6539     6612     6662 
    6706     6741     6801     6914     7041     7150     7237     7300 
    7357     7416     7466     7493     7499     7485     7457     7415 
    7385     7393     7427     7468     7489     7462     7393     7323 
    7267     7213     7160     7118     7092     7079     7087     7107 
    7117     7106     7072     7022     6978     6940     6895     6867 
    6903     7006     7148     7292     7399     7468     7543     7634 
    7707     7758     7793     7817     7842     7866     7902     7967 
    8051     8132     8212     8286     8344     8403     8479     8569 
    8660     8722     8761     8829     8939     9055     9153     9220 
    9248     9246     9228     9197     9135     9030     8912     8810 
    8711     8587     8440     8302     8185     8090     8023     7966 
    7896     7824     7781     7782     7817     7870     7939     8017 
    8083     8135     8185     8229     8255     8274     8302     8325 
    8324     8282     8202     8095     7969     7832     7686     7538 
    7395     7246     7101     6978     6866     6759     6660     6575 
    6516     6478     6435     6393     6372     6365     6385     6443 
    6519     6604     6710     6825     6929     7006     7053     7095 
    7157     7225     7284     7344     7393     7399     7365     7325 
    7284     7260     7265     7296     7344     7398     7447     7504 
    7554     7592     7611     7592     7561     7565     7592     7612 
    7614     7593     7558     7516     7462     7383     7276     7159 
    7042     6913     6779     6673     6594     6525     6461     6400 
    6327     6239     6157     6095     6046     6006     5975     5958 
    5953     5956     5975     6014     6064     6127     6226     6349 
    6467     6574     6678     6786     6890     6988     7083     7191 
    7304     7403     7496     7612     7746     7865     7952     8009 
    8060     8125     8199     8260     8290     8298     8295     8298 
    8329     8386     8445     8482     8482     8468     8463     8467 
    8472     8468     8455     8434     8414     8401     8391     8383 
    8364     8334     8313     8297     8267     8206     8102     7958 
    7790     7607     7454     7362     7298     7227     7168     7119 
    7084     7071     7064     7045     7011     6979     6976     7022 
    7098     7160     7184     7184     7165     7111     7029     6930 
    6831     6763     6745     6762     6782     6775     6752     6752 
    6801     6885     6957     6988     6995     7024     7096     7184 
    7267     7344     7410     7469     7514     7530     7547     7605 
    7672     7726     7776     7804     7808     7801     7794     7788 
    7762     7704     7620     7542     7503     7500     7496     7477 
    7446     7404     7357     7310     7280     7287     7322     7368 
    7414     7446     7449     7431     7415     7391     7353     7321 
    7299     7300     7339     7400     7460     7518     7592     7674 
    7743     7803     7862     7894     7893     7878     7859     7852 
    7866     7874     7858     7836     7808     7771     7754     7758 
    7771     7796     7828     7851     7867     7890     7917     7951 
    7978     7990     8004     8028     8048     8067     8082     8075 
    8040     7989     7940     7896     7866     7854     7843     7835 
    7835     7817     7785     7753     7728     7719     7715     7707 
    7692     7672     7651     7631     7618     7611     7603     7600 
    7616     7643     7672     7692     7685     7642     7596     7570 
    7530     7458     7387     7321     7244     7169     7125     7118 
    7140     7164     7177     7172     7157     7142     7144     7148 
    7132     7099     7067     7038     6999     6934     6836     6717 
    6608     6529     6466     6397     6330     6295     6297     6307 
    6313     6320     6322     6323     6336     6361     6399     6462 
    6558     6669     6791     6934     7072     7187     7291     7375 
    7429     7461     7489     7516     7531     7526     7514     7496 
    7480     7470     7450     7404     7345     7285     7240     7221 
    7213     7200     7184     7160     7137     7122     7102     7057 
    7003     6960     6928     6890     6847     6810     6789     6790 
    6831     6895     6953     6993     7010     7006     7006     7038 
    7110     7209     7311     7389     7441     7484     7524     7562 
    7596     7635     7692     7754     7800     7813     7792     7751 
    7716     7681     7639     7599     7582     7601     7658     7749 
    7840     7915     7985     8052     8110     8178     8257     8322 
    8364     8387     8384     8368     8359     8337     8279     8201 
    8127     8067     8004     7908     7790     7674     7572     7492 
    7431     7392     7388     7425     7492     7572     7647     7707 
    7739     7739     7713     7689     7685     7709     7758     7804 
    7824     7819     7789     7751     7717     7677     7631     7593 
    7564     7533     7499     7480     7489     7523     7562     7592 
    7622     7650     7666     7678     7699     7722     7739     7758 
    7788     7819     7850     7884     7909     7908     7885     7847 
    7792     7716     7631     7539     7427     7306     7194     7091 
    7015     6987     6984     6975     6955     6940     6944     6968 
    7010     7057     7102     7159     7222     7275     7312     7317 
    7294     7281     7292     7306     7326     7366     7425     7470 
    7500     7534     7576     7636     7719     7790     7846     7917 
    8001     8070     8116     8143     8141     8114     8073     8025 
    7971     7919     7867     7816     7762     7705     7661     7638 
