Origin Time       2025/01/13 21:19:00
Lat.              31.8
Long.             131.6
Depth. (km)       30
Mag.              6.9
Station Code      YMG012
Station Lat.      33.9943
Station Long.     131.2179
Station Height(m) 2
Record Time       2025/01/13 21:20:30
Sampling Freq(Hz) 100Hz
Duration Time(s)  95
Dir.              E-W
Scale Factor      7845(gal)/8223790
Max. Acc. (gal)   5.200
Last Correction   2025/01/13 21:20:29
Memo.             
[...]
    2820     2964     3076     3179     3271     3339     3391     3400 
    3350     3267     3159     3017     2874     2743     2608     2481 
    2374     2290     2234     2189     2145     2108     2070     2025 
    1991     1981     2003     2053     2120     2212     2290     2316 
    2326     2335     2330     2315     2274     2204     2100     1968 
    1840     1734     1661     1621     1611     1644     1683     1717 
    1788     1885     1983     2077     2162     2247     2347     2469 
    2597     2712     2808     2887     2963     3045     3114     3156 
    3156     3103     3033     2948     2824     2691     2574     2443 
    2286     2133     1992     1853     1709     1580     1491     1418 
    1344     1286     1216     1125     1042      976      951      973 
    1017     1086     1159     1205     1215     1216     1260     1329 
    1397     1471     1522     1541     1566     1611     1676     1742 
    1794     1846     1912     1989     2066     2155     2263     2362 
    2459     2577     2689     2808     2937     3030     3084     3125 
    3130     3091     3045     3010     2976     2952     2929     2897 
    2857     2795     2716     2651     2598     2533     2481     2470 
    2450     2386     2305     2209     2089     1983     1910     1849 
    1787     1732     1672     1610     1557     1503     1459     1443 
    1412     1348     1291     1223     1154     1136     1132     1134 
    1171     1233     1318     1449     1613     1779     1930     2054 
    2146     2216     2284     2357     2443     2531     2600     2663 
    2743     2830     2905     2961     3011     3044     3048     3030 
    3002     2961     2895     2821     2751     2658     2535     2393 
    2250     2116     1975     1837     1719     1594     1459     1327 
    1189     1058      955      895      876      885      934     1012 
    1097     1213     1351     1479     1603     1732     1864     2007 
    2153     2311     2496     2677     2847     3024     3196     3342 
    3453     3519     3527     3474     3388     3285     3163     3022 
    2897     2782     2664     2550     2435     2322     2215     2092 
    1950     1822     1699     1590     1507     1420     1324     1242 
    1166     1102     1061     1032     1012      993      994     1012 
    1019     1038     1080     1140     1213     1281     1350     1426 
    1514     1626     1752     1884     2030     2170     2317     2481 
    2609     2704     2790     2833     2816     2775     2731     2683 
    2633     2569     2497     2436     2388     2362     2384     2398 
    2362     2301     2220     2106     1983     1879     1772     1652 
    1545     1456     1397     1389     1402     1425     1468     1499 
    1529     1579     1607     1628     1682     1732     1761     1822 
    1891     1929     1983     2077     2178     2274     2366     2446 
    2519     2574     2597     2597     2585     2560     2551     2596 
    2666     2732     2812     2880     2918     2947     2947     2928 
    2916     2883     2825     2755     2652     2521     2385     2246 
    2110     1983     1854     1723     1607     1507     1417     1355 
    1313     1275     1258     1255     1239     1237     1254     1267 
    1316     1417     1522     1624     1730     1827     1912     1999 
    2089     2178     2253     2296     2332     2378     2388     2366 
    2365     2357     2309     2262     2228     2181     2142     2118 
    2096     2092     2089     2074     2069     2061     2038     2027 
    2038     2043     2050     2081     2104     2111     2133     2133 
    2084     2035     1977     1883     1779     1669     1557     1464 
    1385     1336     1344     1398     1491     1618     1746     1850 
    1939     2031     2128     2219     2308     2386     2442     2479 
    2504     2540     2613     2683     2735     2766     2760     2732 
    2679     2600     2512     2397     2261     2145     2033     1914 
    1815     1738     1679     1648     1641     1648     1680     1740 
    1807     1892     2008     2139     2284     2455     2633     2813 
    2997     3157     3285     3397     3466     3481     3483     3468 
    3410     3334     3250     3152     3046     2921     2781     2654 
    2511     2340     2176     1998     1783     1587     1445     1325 
    1224     1140     1048      957      868      770      666      569 
     475      375      274      182      116       97      114      149 
     203      259      307      383      491      622      770      920 
    1080     1266     1443     1615     1829     2047     2268     2517 
    2766     3011     3252     3441     3599     3724     3797     3852 
    3902     3925     3912     3873     3827     3758     3650     3520 
    3365     3165     2928     2679     2431     2182     1960     1780 
    1614     1452     1308     1175     1058      966      900      873 
     882      903      930      955      961      966      992     1031 
    1102     1233     1398     1578     1780     1980     2147     2304 
    2447     2574     2697     2801     2878     2965     3064     3163 
    3288     3441     3565     3658     3728     3763     3771     3767 
    3746     3713     3670     3605     3542     3499     3445     3362 
    3260     3110     2925     2739     2539     2320     2084     1814 
    1530     1259      999      772      594      453      348      261 
     195      155      132      130      144      182      251      344 
     471      633      835     1085     1359     1663     2011     2347 
    2641     2911     3137     3314     3468     3601     3730     3832 
    3882     3916     3951     3970     3981     3967     3900     3780 
    3611     3404     3168     2907     2641     2374     2104     1831 
    1543     1233      927      633      337       39     -232     -449 
    -612     -722     -788     -819     -815     -792     -735     -641 
    -548     -445     -299     -130       67      313      584      866 
    1151     1432     1715     2003     2289     2558     2793     3011 
    3214     3387     3551     3717     3873     4006     4128     4243 
    4322     4344     4321     4252     4136     3996     3847     3707 
    3586     3472     3360     3252     3126     2972     2805     2612 
    2377     2116     1848     1560     1262      992      742      503 
     309      149        5      -89     -126     -129      -79       -2 
      83      216      384      598      888     1223     1580     1965 
    2347     2702     3034     3339     3604     3825     4006     4137 
    4232     4310     4348     4345     4325     4267     4171     4058 
    3908     3719     3514     3295     3072     2870     2690     2529 
    2412     2351     2313     2280     2262     2249     2231     2222 
    2215     2193     2157     2115     2062     2007     1952     1885 
    1826     1787     1740     1683     1640     1613     1603     1614 
    1636     1679     1729     1759     1777     1798     1806     1791 
    1748     1682     1606     1529     1472     1455     1460     1467 
    1468     1475     1486     1485     1474     1472     1474     1471 
    1474     1472     1476     1503     1548     1629     1759     1900 
    2049     2216     2381     2524     2640     2739     2835     2916 
    2975     3030     3091     3159     3235     3314     3389     3450 
    3474     3483     3493     3488     3447     3402     3358     3312 
    3275     3240     3196     3148     3098     3040     2970     2884 
    2776     2632     2462     2282     2091     1895     1721     1553 
    1372     1188     1019      859      696      552      440      356 
     309      287      290      348      444      558      711      911 
    1139     1382     1638     1906     2160     2398     2637     2868 
    3086     3279     3442     3601     3744     3839     3892     3902 
    3856     3755     3604     3408     3188     2964     2737     2515 
    2308     2111     1925     1760     1613     1466     1297     1107 
     897      662      418      186      -17     -195     -364     -508 
    -622     -729     -823     -891     -955    -1030    -1096    -1140 
   -1161    -1150    -1104    -1017     -877     -695     -479     -222 
      86      438      815     1212     1632     2047     2450     2856 
    3280     3709     4128     4533     4935     5310     5616     5856 
    6048     6165     6195     6160     6066     5906     5683     5410 
    5081     4689     4245     3747     3188     2590     1966     1318 
     684       98     -430     -899    -1308    -1645    -1929    -2192 
   -2421    -2594    -2720    -2798    -2830    -2813    -2740    -2617 
   -2435    -2185    -1894    -1576    -1215     -803     -353      129 
     646     1179     1719     2255     2768     3267     3753     4216 
    4650     5050     5402     5684     5881     6003     6062     6072 
    6038     5973     5892     5760     5553     5296     4996     4658 
    4299     3908     3478     3015     2525     2030     1541     1065 
     614      201     -175     -514     -827    -1109    -1335    -1510 
   -1636    -1706    -1726    -1690    -1593    -1445    -1236     -957 
    -627     -265      128      542      939     1317     1699     2068 
    2408     2736     3063     3392     3719     4023     4298     4549 
    4761     4931     5084     5220     5321     5382     5398     5362 
    5274     5146     4999     4858     4726     4576     4399     4191 
    3940     3647     3333     3003     2666     2327     1989     1671 
    1387     1144      945      805      719      661      634      648 
     689      756      868     1028     1229     1474     1746     2029 
    2330     2635     2925     3229     3549     3846     4105     4344 
    4554     4711     4833     4932     4997     5034     5039     4992 
    4912     4789     4596     4369     4131     3875     3613     3342 
    3065     2786     2485     2160     1821     1468     1096      711 
     338      -21     -375     -702     -978    -1192    -1348    -1451 
   -1494    -1512    -1532    -1547    -1557    -1552    -1525    -1476 
   -1387    -1248    -1062     -831     -567     -270       49      382 
     730     1075     1408     1723     2004     2253     2490     2709 
    2905     3086     3234     3345     3434     3514     3578     3628 
    3662     3685     3713     3716     3676     3608     3501     3354 
    3194     3046     2925     2812     2693     2579     2479     2393 
    2311     2218     2112     1983     1813     1629     1460     1296 
    1140     1027      967      932      903      907      966     1057 
    1179     1344     1537     1771     2043     2330     2632     2944 
    3231     3510     3790     4052     4297     4533     4741     4909 
    5044     5131     5174     5202     5211     5190     5154     5093 
    4990     4845     4672     4455     4205     3951     3700     3472 
    3276     3096     2932     2770     2583     2382     2172     1954 
    1749     1549     1341     1143      970      827      710      639 
     622      619      623      633      625      598      565      535 
     513      499      518      572      653      770      918     1084 
    1269     1448     1617     1775     1888     1966     2016     2030 
    2043     2062     2068     2081     2114     2142     2155     2165 
    2184     2182     2153     2122     2092     2058     2023     2002 
    1999     2002     2015     2046     2084     2122     2150     2160 
    2154     2118     2043     1952     1842     1725     1603     1463 
    1305     1155     1005      839      664      494      314      126 
     -33     -148     -224     -255     -232     -166      -64       79 
     252      440      643      859     1086     1323     1541     1736 
    1914     2058     2162     2247     2304     2322     2317     2303 
    2272     2226     2170     2087     1985     1912     1854     1800 
    1772     1768     1768     1780     1798     1806     1804     1791 
    1763     1726     1690     1648     1614     1603     1590     1561 
    1536     1493     1420     1337     1244     1142     1053      982 
     924      892      892      912      962     1046     1140     1244 
    1347     1435     1522     1610     1680     1746     1830     1938 
    2070     2245     2469     2722     3006     3322     3627     3916 
    4186     4422     4646     4872     5078     5273     5470     5667 
    5836     5956     6045     6111     6145     6142     6091     5991 
    5827     5594     5317     5015     4680     4310     3917     3514 
    3082     2640     2212     1780     1358      963      577      211 
    -117     -429     -720     -974    -1178    -1344    -1463    -1521 
   -1548    -1548    -1497    -1402    -1267    -1082     -858     -599 
    -315      -20      287      611      967     1347     1723     2093 
    2438     2748     3044     3322     3595     3873     4125     4345 
    4540     4699     4827     4931     5017     5080     5101     5077 
    5004     4877     4703     4482     4226     3946     3615     3231 
    2801     2323     1817     1294      770      256     -260     -765 
   -1237    -1668    -2043    -2361    -2610    -2783    -2895    -2953 
   -2960    -2918    -2818    -2663    -2439    -2150    -1813    -1420 
    -973     -492       14      545     1104     1688     2270     2844 
    3403     3928     4426     4903     5360     5796     6208     6586 
    6905     7157     7350     7468     7510     7489     7395     7222 
    6983     6687     6342     5954     5526     5055     4556     4047 
    3530     3005     2490     1985     1482      982      476      -33 
    -519     -970    -1377    -1715    -1981    -2188    -2319    -2351 
   -2320    -2242    -2089    -1867    -1611    -1328    -1009     -665 
    -292      124      569     1036     1537     2070     2625     3179 
    3715     4230     4703     5120     5491     5803     6057     6246 
    6350     6385     6359     6272     6141     5973     5765     5536 
    5285     5012     4746     4472     4163     3840     3522     3203 
    2878     2543     2205     1876     1553     1244      947      661 
     383      120     -116     -328     -502     -622     -692     -722 
    -718     -685     -634     -556     -430     -274     -108       82 
     292      508      711      889     1059     1212     1345     1493 
    1653     1821     1998     2178     2370     2569     2741     2891 
    3019     3092     3114     3100     3046     2971     2894     2821 
    2754     2704     2662     2604     2543     2479     2396     2299 
    2181     2026     1830     1611     1386     1167      970      808 
     685      606      549      486      425      349      233      113 
      -4     -120     -201     -241     -243     -218     -178     -106 
      -5      136      328      540      770     1035     1321     1636 
    1983     2355     2758     3164     3553     3933     4301     4645 
    4963     5251     5495     5684     5838     5962     6042     6072 
    6050     5979     5879     5763     5614     5418     5204     4978 
    4725     4465     4198     3877     3515     3142     2747     2359 
    1993     1618     1244      880      499      108     -264     -619 
    -958    -1248    -1474    -1632    -1703    -1680    -1578    -1395 
   -1147     -857     -534     -179      207      610     1027     1463 
    1887     2309     2749     3184     3611     4014     4359     4649 
    4876     5020     5105     5130     5085     4984     4841     4638 
    4369     4062     3720     3337     2941     2548     2153     1773 
    1391      997      625      270      -62     -344     -577     -770 
    -926    -1046    -1121    -1155    -1161    -1138    -1078     -969 
    -803     -580     -306       10      360      720     1077     1440 
    1804     2172     2546     2899     3229     3551     3869     4187 
    4491     4781     5065     5320     5540     5718     5833     5892 
    5892     5818     5702     5548     5343     5103     4814     4475 
    4101     3689     3246     2793     2335     1873     1418      989 
     576      180     -202     -572     -899    -1174    -1412    -1605 
   -1749    -1848    -1907    -1918    -1869    -1782    -1642    -1432 
   -1174     -870     -522     -160      216      610     1000     1385 
    1757     2097     2407     2686     2936     3167     3407     3666 
    3923     4168     4407     4621     4789     4916     5007     5049 
    5059     5047     4981     4873     4756     4607     4445     4293 
    4121     3937     3738     3497     3237     2957     2648     2332 
    2027     1726     1426     1138      872      622      406      232 
      72      -62     -171     -286     -398     -502     -604     -673 
    -683     -629     -508     -324      -85      190      494      819 
    1142     1464     1780     2052     2289     2516     2700     2866 
    3041     3213     3380     3549     3727     3908     4064     4201 
    4313     4391     4429     4409     4324     4176     3978     3754 
    3500     3222     2948     2681     2423     2178     1952     1734 
    1510     1285     1074      846      603      382      172      -33 
    -213     -353     -446     -487     -481     -427     -325     -183 
      -6      190      378      552      714      857      997     1142 
    1273     1406     1555     1721     1907     2092     2261     2425 
    2569     2673     2762     2844     2901     2951     3013     3063 
    3103     3171     3231     3272     3331     3391     3426     3466 
    3488     3464     3418     3338     3213     3063     2884     2686 
    2504     2350     2196     2060     1957     1849     1736     1653 
    1570     1462     1364     1264     1152     1057      980      931 
     926      955     1016     1115     1243     1371     1495     1625 
    1740     1850     1954     2025     2089     2173     2265     2380 
    2536     2732     2943     3150     3360     3545     3674     3753 
    3770     3732     3651     3523     3379     3233     3078     2921 
    2785     2678     2602     2566     2559     2551     2546     2543 
    2508     2451     2389     2305     2222     2172     2149     2150 
    2180     2226     2270     2304     2315     2285     2224     2126 
    1987     1830     1663     1493     1354     1271     1233     1217 
    1221     1242     1259     1248     1200     1105      961      778 
     599      444      309      194      103       44       16        2 
       1       12       39       89      155      222      302      388 
     475      572      692      835      993     1163     1339     1516 
    1692     1884     2108     2365     2646     2949     3280     3622 
    3955     4275     4581     4861     5100     5296     5448     5557 
    5617     5638     5621     5543     5414     5243     5032     4801 
    4556     4283     3981     3676     3368     3030     2686     2351 
    2019     1701     1397     1105      842      612      413      252 
     125       21      -49      -87     -122     -163     -178     -163 
    -116      -22      109      271      472      708      962     1233 
    1528     1827     2123     2425     2729     3015     3268     3488 
    3676     3824     3937     4025     4101     4152     4160     4148 
