Origin Time       2025/01/13 21:19:00
Lat.              31.8
Long.             131.6
Depth. (km)       30
Mag.              6.9
Station Code      YMG010
Station Lat.      34.2303
Station Long.     131.9819
Station Height(m) 61
Record Time       2025/01/13 21:20:52
Sampling Freq(Hz) 100Hz
Duration Time(s)  60
Dir.              N-S
Scale Factor      7845(gal)/8223790
Max. Acc. (gal)   1.339
Last Correction   2025/01/13 21:20:52
Memo.             
[...]
    6330     6388     6336     6270     6281     6369     6494     6608 
    6652     6631     6613     6625     6631     6605     6566     6539 
    6515     6477     6435     6405     6407     6440     6436     6334 
    6199     6120     6103     6129     6164     6151     6077     5969 
    5864     5799     5788     5805     5818     5809     5768     5715 
    5692     5736     5854     6030     6224     6370     6424     6405 
    6372     6350     6342     6335     6312     6262     6181     6107 
    6079     6088     6095     6085     6102     6169     6238     6245 
    6189     6131     6127     6145     6096     5960     5786     5632 
    5525     5468     5486     5584     5715     5854     6004     6149 
    6282     6419     6513     6525     6501     6501     6542     6610 
    6664     6637     6528     6411     6346     6351     6412     6474 
    6480     6417     6332     6278     6266     6269     6262     6258 
    6281     6311     6311     6276     6205     6118     6061     6066 
    6127     6201     6224     6184     6173     6245     6326     6327 
    6269     6224     6228     6251     6245     6183     6092     6004 
    5944     5923     5931     5930     5908     5899     5940     6022 
    6084     6064     5968     5864     5822     5848     5898     5930 
    5933     5906     5863     5840     5864     5927     6010     6104 
    6199     6278     6326     6331     6320     6336     6381     6416 
    6411     6367     6316     6274     6262     6289     6349     6419 
    6475     6494     6477     6443     6384     6305     6231     6165 
    6108     6088     6106     6120     6095     6031     5967     5938 
    5976     6062     6137     6156     6153     6177     6218     6250 
    6299     6367     6423     6432     6415     6430     6516     6625 
    6656     6588     6496     6431     6381     6324     6258     6201 
    6173     6174     6204     6250     6264     6218     6141     6084 
    6066     6077     6084     6064     6023     5977     5938     5915 
    5927     5998     6106     6187     6189     6122     6048     6018 
    6031     6073     6142     6226     6309     6388     6461     6515 
    6525     6486     6397     6277     6154     6029     5913     5865 
    5906     5975     6021     6053     6099     6156     6193     6176 
    6115     6062     6057     6092     6145     6183     6170     6088 
    5984     5925     5941     6030     6162     6278     6340     6345 
    6312     6288     6307     6354     6359     6281     6157     6042 
    5948     5865     5807     5790     5834     5948     6088     6187 
    6222     6201     6137     6064     6053     6111     6170     6177 
    6164     6181     6237     6292     6328     6355     6377     6378 
    6357     6327     6305     6282     6238     6185     6146     6108 
    6062     6038     6057     6103     6127     6116     6103     6104 
    6111     6097     6049     5964     5876     5844     5898     6019 
    6143     6219     6253     6293     6361     6439     6501     6523 
    6502     6438     6328     6200     6087     6018     6007     6039 
    6080     6118     6189     6313     6448     6529     6534     6473 
    6376     6269     6174     6085     6007     5961     5941     5933 
    5938     5933     5906     5902     5964     6085     6245     6413 
    6538     6566     6512     6421     6304     6172     6092     6102 
    6147     6173     6151     6079     6004     5973     5988     6064 
    6195     6316     6380     6394     6386     6370     6354     6311 
    6219     6114     6062     6097     6180     6245     6277     6307 
    6365     6442     6493     6524     6556     6556     6480     6346 
    6227     6187     6205     6227     6234     6216     6166     6129 
    6157     6243     6353     6448     6502     6498     6439     6345 
    6230     6135     6112     6153     6208     6268     6324     6349 
    6349     6358     6381     6404     6413     6401     6376     6366 
    6367     6326     6218     6057     5881     5748     5694     5719 
    5786     5852     5888     5887     5861     5827     5788     5761 
    5755     5761     5810     5921     6065     6212     6353     6470 
    6539     6546     6504     6447     6385     6318     6250     6191 
    6158     6172     6212     6245     6269     6261     6223     6239 
    6369     6546     6675     6710     6666     6617     6596     6532 
    6372     6173     6000     5841     5694     5620     5661     5780 
    5902     5985     6030     6058     6080     6077     6056     6038 
    6027     6026     6053     6111     6173     6235     6289     6353 
    6461     6581     6642     6628     6536     6357     6154     6015 
    5971     6006     6069     6095     6056     5973     5890     5834 
    5821     5853     5931     6027     6084     6058     5969     5879 
    5841     5872     5949     6015     6023     5985     5942     5935 
    5979     6037     6056     6027     6003     6043     6177     6390 
    6640     6859     7006     7063     7009     6848     6612     6331 
    6052     5842     5763     5809     5906     5979     5991     5945 
    5881     5863     5940     6130     6380     6598     6732     6790 
    6795     6743     6639     6547     6501     6475     6444     6404 
    6343     6254     6156     6083     6045     6021     6018     6056 
    6122     6176     6178     6161     6222     6393     6555     6562 
    6409     6223     6118     6130     6230     6349     6423     6416 
    6323     6181     6077     6072     6115     6120     6073     6041 
    6075     6149     6214     6223     6156     6053     5991     6035 
    6215     6489     6778     7003     7098     7014     6772     6473 
    6222     6054     5948     5876     5819     5769     5730     5718 
    5741     5768     5757     5706     5672     5733     5890     6068 
    6216     6326     6377     6340     6231     6104     6015     6007 
    6087     6187     6227     6197     6133     6054     5992     5999 
    6093     6216     6281     6286     6245     6141     5991     5856 
    5795     5833     5914     5944     5910     5881     5919     6037 
    6212     6400     6494     6420     6237     6052     5907     5809 
    5771     5799     5906     6077     6257     6381     6403     6304 
    6145     6062     6156     6377     6590     6687     6648     6529 
    6407     6327     6296     6297     6315     6331     6338     6331 
    6280     6162     6018     5914     5887     5929     6027     6145 
    6223     6249     6259     6291     6339     6366     6345     6280 
    6204     6141     6091     6064     6112     6257     6417     6500 
    6480     6380     6257     6185     6177     6201     6207     6154 
    6069     6045     6135     6284     6372     6336     6220     6093 
    6000     5981     6062     6224     6394     6505     6547     6551 
    6527     6451     6300     6106     5969     5961     6039     6107 
    6122     6107     6093     6077     6064     6091     6145     6176 
    6197     6253     6320     6322     6222     6064     5895     5752 
    5663     5660     5763     5931     6091     6205     6291     6367 
    6423     6404     6288     6122     5988     5945     5977     6031 
    6093     6178     6284     6365     6369     6289     6158     6003 
    5853     5759     5760     5842     5980     6164     6353     6480 
    6523     6473     6331     6157     6014     5918     5881     5935 
    6069     6238     6389     6446     6358     6165     5975     5865 
    5846     5908     6035     6199     6365     6490     6525     6455 
    6307     6169     6160     6286     6423     6420     6245     5985 
    5751     5599     5576     5657     5738     5768     5788     5868 
    6021     6199     6369     6532     6635     6586     6390     6153 
    5975     5890     5881     5933     6019     6103     6162     6184 
    6156     6081     6029     6061     6145     6189     6133     6002 
    5910     5960     6137     6357     6532     6592     6528     6376 
    6183     6015     5926     5922     5991     6080     6114     6072 
    6008     5973     5989     6054     6138     6199     6239     6284 
    6315     6289     6210     6142     6166     6301     6494     6662 
    6754     6768     6717     6627     6539     6471     6397     6308 
    6230     6185     6207     6324     6511     6696     6825     6875 
    6831     6694     6517     6377     6319     6347     6430     6501 
    6535     6555     6554     6484     6334     6139     5969     5892 
    5938     6092     6301     6497     6621     6655     6602     6496 
    6412     6392     6386     6363     6353     6340     6278     6173 
    6038     5902     5834     5861     5929     6010     6096     6134 
    6073     5935     5807     5787     5903     6103     6282     6373 
    6374     6324     6269     6250     6253     6222     6129     5988 
    5842     5737     5715     5776     5850     5877     5841     5757 
    5663     5613     5636     5710     5799     5872     5910     5926 
    5921     5890     5892     6008     6234     6457     6561     6539 
    6457     6369     6312     6303     6327     6340     6312     6253 
    6193     6149     6106     6054     6021     6007     5981     5956 
    5979     6064     6170     6227     6180     6064     5950     5873 
    5842     5890     6029     6204     6346     6458     6585     6710 
    6767     6687     6450     6137     5872     5730     5732     5864 
    6087     6297     6363     6284     6200     6216     6328     6496 
    6658     6759     6783     6728     6604     6459     6339     6255 
    6203     6204     6247     6295     6335     6362     6365     6372 
    6399     6426     6431     6419     6392     6357     6358     6428 
    6525     6594     6610     6559     6466     6380     6319     6312 
    6380     6470     6535     6581     6581     6482     6297     6089 
    5926     5868     5911     5973     5989     5958     5886     5818 
    5844     5976     6112     6137     6039     5886     5755     5734 
    5846     6022     6192     6318     6358     6318     6222     6085 
    5929     5776     5653     5584     5566     5598     5706     5884 
    6095     6304     6467     6562     6620     6670     6679     6621 
    6512     6366     6197     6054     5977     5961     5954     5911 
    5863     5850     5840     5815     5822     5872     5925     5952 
    5968     6002     6035     6041     6034     6053     6095     6127 
    6160     6232     6328     6388     6397     6405     6462     6555 
    6613     6596     6551     6550     6594     6629     6629     6608 
    6588     6554     6497     6442     6423     6447     6475     6432 
    6292     6107     5942     5807     5663     5462     5227     5063 
    5057     5220     5501     5791     5988     6061     6012     5875 
    5738     5679     5703     5778     5833     5810     5709     5567 
    5454     5463     5611     5814     5981     6072     6103     6131 
    6184     6289     6443     6559     6561     6448     6257     6058 
    5971     6046     6264     6566     6847     6956     6812     6482 
    6158     6026     6115     6326     6527     6643     6667     6629 
    6566     6501     6444     6413     6412     6420     6415     6370 
    6251     6072     5935     5961     6147     6357     6435     6350 
    6187     6054     6022     6083     6168     6219     6230     6237 
    6253     6249     6197     6100     5985     5925     5953     6012 
    6014     5954     5891     5848     5805     5755     5717     5706 
    5713     5721     5761     5876     6004     6041     6006     6004 
    6087     6223     6353     6412     6367     6222     5998     5765 
    5651     5706     5863     6029     6164     6258     6346     6492 
    6706     6891     6934     6833     6687     6561     6489     6490 
    6512     6489     6404     6254     6033     5772     5549     5448 
    5532     5807     6183     6490     6592     6474     6224     5958 
    5752     5637     5613     5640     5680     5742     5863     6038 
    6201     6284     6235     6050     5805     5598     5486     5489 
    5590     5717     5798     5815     5795     5759     5734     5792 
    6000     6311     6582     6714     6732     6716     6696     6659 
    6579     6426     6178     5881     5634     5532     5614     5849 
    6139     6381     6517     6555     6529     6465     6365     6245 
    6142     6092     6081     6097     6174     6355     6602     6814 
    6916     6921     6912     6951     7030     7103     7118     7074 
    6990     6845     6654     6515     6508     6623     6799     6968 
    7044     6976     6851     6809     6907     7080     7200     7163 
    6955     6698     6524     6451     6446     6477     6485     6432 
    6339     6259     6219     6219     6265     6326     6335     6247 
    6080     5894     5714     5539     5416     5406     5474     5539 
    5572     5583     5594     5636     5699     5730     5665     5499 
    5297     5142     5094     5139     5192     5185     5130     5128 
    5271     5528     5807     6026     6119     6077     5972     5914 
    5971     6122     6259     6289     6192     6052     6000     6124 
    6401     6724     6943     6957     6791     6558     6372     6278 
    6250     6249     6273     6339     6465     6650     6829     6944 
    7013     7078     7110     7061     6948     6825     6756     6790 
    6933     7136     7350     7522     7587     7524     7376     7214 
    7095     7032     6979     6885     6745     6600     6498     6482 
    6511     6496     6409     6254     6075     5977     6035     6180 
    6291     6316     6281     6238     6230     6257     6292     6330 
    6365     6353     6261     6133     6035     5971     5871     5717 
    5567     5491     5509     5552     5528     5418     5265     5107 
    4972     4919     5001     5223     5539     5865     6133     6336 
    6490     6581     6589     6498     6304     6065     5877     5805 
    5840     5926     5976     5926     5805     5670     5545     5476 
    5510     5602     5641     5551     5367     5212     5186     5300 
    5513     5783     6066     6320     6528     6671     6705     6608 
    6427     6247     6150     6147     6176     6162     6083     5954 
    5854     5863     5999     6215     6431     6589     6708     6791 
    6804     6758     6702     6648     6582     6480     6339     6215 
    6153     6156     6219     6335     6462     6540     6544     6536 
    6582     6631     6625     6604     6601     6563     6428     6203 
    5977     5823     5726     5656     5649     5733     5849     5931 
    5985     6053     6160     6296     6415     6505     6627     6779 
    6871     6832     6683     6482     6299     6176     6102     6043 
    6008     6048     6201     6430     6647     6775     6743     6531 
    6211     5903     5682     5589     5648     5859     6158     6417 
    6512     6428     6212     5923     5661     5539     5583     5710 
    5773     5687     5498     5344     5316     5397     5547     5761 
    5999     6177     6264     6307     6332     6322     6288     6289 
    6336     6397     6438     6413     6297     6139     6050     6110 
    6326     6620     6851     6953     6953     6862     6689     6501 
    6381     6349     6354     6374     6430     6492     6489     6403 
    6274     6176     6168     6243     6349     6434     6455     6377 
    6212     6043     5975     6053     6226     6393     6481     6473 
    6370     6181     5934     5694     5567     5632     5833     6018 
    6097     6066     5940     5794     5760     5929     6258     6596 
    6782     6770     6616     6389     6145     5941     5856     5919 
    6058     6168     6193     6139     6046     5976     5961     5980 
    5987     5969     5980     6057     6153     6216     6230     6201 
    6149     6058     5923     5787     5697     5645     5605     5594 
    5651     5749     5810     5805     5771     5763     5800     5890 
    6034     6203     6351     6453     6481     6409     6259     6106 
    6031     6077     6205     6343     6447     6536     6612     6627 
    6554     6451     6399     6400     6421     6477     6586     6686 
    6670     6502     6250     6006     5840     5778     5833     6004 
    6224     6386     6434     6386     6276     6112     5902     5706 
    5622     5670     5775     5868     5937     6004     6068     6103 
    6129     6160     6161     6124     6081     6050     6030     6046 
    6137     6270     6394     6477     6485     6403     6292     6220 
    6189     6160     6118     6083     6076     6107     6157     6196 
    6207     6185     6135     6061     5977     5899     5838     5817 
    5806     5745     5652     5626     5718     5865     5964     5968 
    5919     5864     5826     5810     5813     5836     5877     5933 
    6008     6095     6164     6210     6253     6320     6393     6430 
    6426     6431     6475     6558     6687     6886     7128     7307 
    7341     7273     7202     7172     7161     7119     6997     6794 
    6598     6480     6455     6516     6598     6585     6435     6220 
    6045     5994     6108     6326     6531     6656     6690     6650 
    6544     6370     6169     6027     5988     6037     6114     6149 
    6116     6053     5988     5908     5794     5636     5455     5323 
    5306     5412     5593     5806     6010     6150     6196     6180 
    6126     6030     5902     5784     5744     5815     5952     6102 
    6237     6319     6338     6345     6397     6513     6648     6694 
    6578     6355     6134     5964     5846     5771     5710     5671 
    5711     5852     6025     6138     6164     6146     6161     6247 
    6363     6431     6415     6351     6313     6351     6461     6608 
    6744     6840     6867     6781     6601     6404     6227     6076 
    5965     5900     5833     5713     5575     5503     5545     5690 
    5865     6019     6165     6313     6450     6586     6731     6829 
    6818     6674     6417     6127     5902     5784     5768     5837 
    5957     6099     6243     6366     6442     6485     6524     6544 
    6521     6446     6311     6123     5937     5807     5755     5753 
    5768     5800     5872     5972     6033     5987     5846     5726 
    5732     5848     5973     6033     5988     5857     5713     5607 
    5572     5636     5779     5948     6095     6180     6220     6249 
    6270     6276     6278     6293     6308     6327     6361     6388 
    6358     6254     6089     5923     5861     5942     6103     6284 
    6463     6609     6710     6771     6775     6706     6593     6500 
    6455     6430     6412     6427     6497     6612     6690     6663 
    6561     6469     6424     6408     6396     6385     6374     6351 
    6270     6118     5956     5852     5783     5709     5656     5671 
    5755     5884     6016     6104     6118     6053     5934     5841 
    5842     5941     6099     6282     6453     6585     6683     6748 
    6758     6710     6655     6631     6623     6615     6624     6663 
    6720     6777     6820     6831     6774     6627     6442     6345 
    6442     6709     6998     7144     7102     6949     6774     6646 
