Origin Time       2025/01/13 21:19:00
Lat.              31.8
Long.             131.6
Depth. (km)       30
Mag.              6.9
Station Code      YMG012
Station Lat.      33.9943
Station Long.     131.2179
Station Height(m) 2
Record Time       2025/01/13 21:20:30
Sampling Freq(Hz) 100Hz
Duration Time(s)  95
Dir.              U-D
Scale Factor      7845(gal)/8223790
Max. Acc. (gal)   1.343
Last Correction   2025/01/13 21:20:29
Memo.             
[...]
   -7326    -7319    -7308    -7294    -7291    -7299    -7308    -7326 
   -7356    -7388    -7416    -7431    -7422    -7402    -7379    -7349 
   -7318    -7288    -7240    -7168    -7117    -7101    -7102    -7119 
   -7161    -7219    -7283    -7334    -7365    -7400    -7445    -7493 
   -7553    -7612    -7642    -7645    -7646    -7657    -7669    -7669 
   -7651    -7630    -7619    -7607    -7584    -7543    -7480    -7403 
   -7322    -7249    -7200    -7167    -7138    -7122    -7119    -7125 
   -7134    -7163    -7214    -7264    -7290    -7306    -7321    -7312 
   -7279    -7225    -7148    -7063    -7002    -6983    -7009    -7078 
   -7179    -7296    -7425    -7541    -7626    -7684    -7716    -7697 
   -7628    -7543    -7456    -7352    -7250    -7182    -7150    -7141 
   -7130    -7102    -7061    -7034    -7053    -7114    -7177    -7209 
   -7195    -7168    -7163    -7173    -7176    -7155    -7102    -7030 
   -6964    -6914    -6899    -6940    -7009    -7061    -7086    -7096 
   -7118    -7153    -7190    -7213    -7200    -7144    -7071    -7026 
   -7013    -7006    -6999    -7009    -7026    -7057    -7125    -7219 
   -7308    -7383    -7457    -7550    -7642    -7704    -7726    -7719 
   -7695    -7654    -7599    -7549    -7510    -7487    -7479    -7453 
   -7379    -7261    -7134    -7037    -6988    -6955    -6917    -6899 
   -6914    -6944    -6976    -7014    -7060    -7123    -7204    -7281 
   -7342    -7388    -7423    -7461    -7499    -7507    -7469    -7408 
   -7352    -7303    -7253    -7199    -7140    -7074    -7015    -6986 
   -6995    -7033    -7076    -7122    -7180    -7241    -7287    -7329 
   -7383    -7430    -7452    -7466    -7489    -7511    -7524    -7526 
   -7500    -7449    -7385    -7318    -7269    -7252    -7245    -7250 
   -7272    -7295    -7304    -7304    -7314    -7345    -7388    -7420 
   -7423    -7408    -7393    -7387    -7406    -7461    -7526    -7584 
   -7646    -7703    -7719    -7682    -7609    -7530    -7445    -7345 
   -7233    -7125    -7032    -6959    -6924    -6937    -6986    -7052 
   -7130    -7215    -7291    -7342    -7364    -7375    -7379    -7354 
   -7299    -7248    -7217    -7204    -7207    -7207    -7186    -7168 
   -7187    -7250    -7333    -7395    -7410    -7385    -7354    -7345 
   -7364    -7410    -7476    -7533    -7560    -7573    -7587    -7600 
   -7614    -7620    -7623    -7608    -7543    -7437    -7333    -7242 
   -7149    -7087    -7096    -7153    -7227    -7314    -7389    -7433 
   -7457    -7489    -7533    -7582    -7620    -7642    -7661    -7661 
   -7639    -7616    -7600    -7593    -7595    -7600    -7611    -7636 
   -7672    -7688    -7655    -7589    -7510    -7439    -7407    -7416 
   -7425    -7406    -7376    -7353    -7334    -7317    -7308    -7322 
   -7345    -7346    -7307    -7241    -7165    -7087    -7026    -6995 
   -6982    -6987    -7028    -7098    -7164    -7188    -7177    -7180 
   -7226    -7281    -7314    -7321    -7296    -7244    -7199    -7191 
   -7203    -7215    -7230    -7256    -7281    -7295    -7294    -7280 
   -7254    -7223    -7194    -7176    -7173    -7161    -7132    -7094 
   -7067    -7064    -7083    -7103    -7130    -7171    -7204    -7223 
   -7245    -7256    -7241    -7229    -7242    -7272    -7317    -7388 
   -7472    -7533    -7530    -7473    -7419    -7404    -7410    -7408 
   -7380    -7308    -7202    -7102    -7029    -6964    -6894    -6849 
   -6844    -6856    -6862    -6862    -6880    -6940    -7022    -7094 
   -7146    -7188    -7236    -7311    -7423    -7555    -7680    -7771 
   -7817    -7819    -7796    -7750    -7680    -7597    -7506    -7389 
   -7268    -7179    -7134    -7126    -7144    -7172    -7191    -7180 
   -7155    -7141    -7148    -7148    -7122    -7078    -7028    -6970 
   -6926    -6920    -6924    -6924    -6929    -6959    -7010    -7061 
   -7105    -7137    -7156    -7152    -7136    -7126    -7126    -7130 
   -7160    -7221    -7288    -7349    -7403    -7431    -7446    -7454 
   -7437    -7407    -7395    -7404    -7403    -7376    -7339    -7317 
   -7314    -7331    -7365    -7381    -7356    -7304    -7265    -7258 
   -7275    -7307    -7353    -7396    -7420    -7425    -7422    -7412 
   -7387    -7353    -7321    -7300    -7284    -7263    -7250    -7253 
   -7245    -7231    -7245    -7273    -7287    -7296    -7303    -7287 
   -7248    -7204    -7179    -7187    -7230    -7281    -7323    -7346 
   -7348    -7326    -7312    -7331    -7371    -7411    -7442    -7447 
   -7435    -7414    -7371    -7314    -7260    -7196    -7123    -7074 
   -7056    -7036    -6999    -6964    -6940    -6925    -6943    -7015 
   -7142    -7296    -7433    -7528    -7580    -7588    -7581    -7587 
   -7591    -7564    -7507    -7434    -7357    -7295    -7245    -7200 
   -7163    -7138    -7128    -7125    -7121    -7106    -7083    -7057 
   -7037    -7020    -7007    -7020    -7075    -7164    -7256    -7322 
   -7364    -7395    -7414    -7429    -7449    -7458    -7449    -7426 
   -7388    -7329    -7246    -7156    -7095    -7088    -7117    -7153 
   -7202    -7275    -7364    -7464    -7581    -7688    -7755    -7771 
   -7747    -7688    -7600    -7493    -7388    -7291    -7202    -7123 
   -7068    -7042    -7042    -7060    -7092    -7128    -7150    -7161 
   -7165    -7165    -7176    -7190    -7190    -7198    -7244    -7317 
   -7399    -7488    -7561    -7596    -7619    -7663    -7707    -7707 
   -7663    -7608    -7558    -7516    -7476    -7435    -7400    -7365 
   -7338    -7331    -7331    -7317    -7299    -7300    -7312    -7308 
   -7281    -7250    -7238    -7246    -7263    -7284    -7307    -7314 
   -7294    -7260    -7236    -7219    -7196    -7165    -7138    -7123 
   -7132    -7157    -7196    -7242    -7269    -7269    -7258    -7253 
   -7267    -7321    -7412    -7507    -7577    -7620    -7657    -7708 
   -7746    -7732    -7668    -7572    -7450    -7331    -7238    -7150 
   -7030    -6897    -6786    -6704    -6629    -6559    -6508    -6492 
   -6498    -6513    -6544    -6601    -6686    -6804    -6948    -7086 
   -7188    -7263    -7329    -7388    -7435    -7458    -7453    -7431 
   -7408    -7369    -7314    -7272    -7265    -7275    -7294    -7322 
   -7335    -7330    -7331    -7348    -7380    -7422    -7449    -7458 
   -7453    -7425    -7377    -7339    -7327    -7326    -7326    -7333 
   -7331    -7302    -7248    -7183    -7125    -7086    -7065    -7074 
   -7113    -7152    -7172    -7191    -7214    -7234    -7248    -7260 
   -7264    -7252    -7226    -7207    -7209    -7222    -7231    -7246 
   -7276    -7299    -7302    -7288    -7267    -7236    -7203    -7163 
   -7123    -7103    -7096    -7079    -7051    -7022    -7001    -6998 
   -7032    -7086    -7115    -7111    -7096    -7094    -7105    -7126 
   -7167    -7236    -7307    -7339    -7335    -7303    -7230    -7134 
   -7063    -7018    -6966    -6895    -6829    -6785    -6766    -6770 
   -6782    -6795    -6806    -6805    -6801    -6822    -6866    -6903 
   -6930    -6961    -6998    -7038    -7096    -7188    -7284    -7348 
   -7365    -7365    -7376    -7393    -7410    -7426    -7438    -7446 
   -7460    -7496    -7564    -7649    -7717    -7771    -7824    -7874 
   -7902    -7898    -7862    -7796    -7696    -7581    -7470    -7366 
   -7277    -7225    -7204    -7202    -7202    -7210    -7237    -7273 
   -7296    -7312    -7338    -7371    -7406    -7439    -7454    -7442 
   -7420    -7402    -7398    -7408    -7418    -7403    -7372    -7334 
   -7281    -7219    -7171    -7148    -7134    -7107    -7059    -7011 
   -6995    -7005    -7041    -7102    -7159    -7196    -7240    -7312 
   -7389    -7442    -7484    -7522    -7541    -7547    -7545    -7528 
   -7493    -7434    -7354    -7279    -7215    -7160    -7122    -7110 
   -7111    -7114    -7144    -7209    -7276    -7323    -7339    -7323 
   -7298    -7275    -7248    -7223    -7218    -7230    -7245    -7257 
   -7265    -7267    -7260    -7248    -7238    -7242    -7263    -7294 
   -7329    -7352    -7344    -7319    -7311    -7317    -7326    -7346 
   -7380    -7411    -7429    -7429    -7414    -7388    -7353    -7314 
   -7284    -7261    -7231    -7206    -7206    -7219    -7236    -7264 
   -7312    -7357    -7383    -7395    -7400    -7407    -7422    -7435 
   -7435    -7425    -7411    -7407    -7410    -7412    -7408    -7399 
   -7388    -7388    -7396    -7400    -7385    -7358    -7321    -7280 
   -7268    -7303    -7356    -7400    -7442    -7488    -7537    -7584 
   -7616    -7631    -7635    -7635    -7628    -7618    -7587    -7515 
   -7430    -7380    -7364    -7357    -7356    -7357    -7353    -7346 
   -7350    -7366    -7392    -7423    -7458    -7497    -7534    -7545 
   -7538    -7531    -7512    -7469    -7412    -7353    -7308    -7294 
   -7302    -7310    -7322    -7339    -7354    -7376    -7404    -7419 
   -7406    -7385    -7377    -7369    -7352    -7329    -7314    -7308 
   -7292    -7260    -7227    -7207    -7198    -7203    -7222    -7233 
   -7217    -7190    -7164    -7129    -7064    -6980    -6899    -6828 
   -6770    -6717    -6686    -6689    -6718    -6760    -6814    -6864 
   -6906    -6947    -6980    -6991    -6987    -6975    -6964    -6964 
   -6959    -6939    -6934    -6971    -7032    -7099    -7160    -7203 
   -7226    -7244    -7271    -7306    -7342    -7379    -7406    -7422 
   -7418    -7387    -7344    -7325    -7341    -7376    -7411    -7441 
   -7470    -7504    -7541    -7573    -7596    -7603    -7584    -7550 
   -7516    -7468    -7407    -7357    -7317    -7276    -7256    -7271 
   -7321    -7391    -7464    -7515    -7539    -7537    -7512    -7488 
   -7481    -7474    -7452    -7422    -7404    -7403    -7415    -7434 
   -7456    -7472    -7483    -7499    -7530    -7550    -7538    -7510 
   -7493    -7484    -7468    -7447    -7438    -7439    -7441    -7434 
   -7423    -7407    -7381    -7356    -7329    -7280    -7192    -7088 
   -7020    -7011    -7047    -7095    -7137    -7161    -7155    -7113 
   -7059    -7020    -6997    -6984    -6990    -7014    -7033    -7040 
   -7059    -7102    -7153    -7192    -7213    -7219    -7223    -7222 
   -7214    -7210    -7204    -7177    -7145    -7141    -7149    -7144 
   -7122    -7091    -7055    -7017    -6975    -6941    -6922    -6907 
   -6887    -6874    -6864    -6837    -6810    -6817    -6855    -6895 
   -6940    -7001    -7075    -7145    -7196    -7236    -7277    -7318 
   -7368    -7435    -7506    -7549    -7565    -7585    -7611    -7620 
   -7607    -7580    -7558    -7551    -7545    -7537    -7543    -7554 
   -7550    -7547    -7560    -7565    -7558    -7561    -7585    -7630 
   -7678    -7717    -7767    -7823    -7857    -7871    -7889    -7902 
   -7892    -7865    -7843    -7828    -7817    -7823    -7854    -7904 
   -7944    -7954    -7948    -7944    -7925    -7874    -7805    -7734 
   -7649    -7562    -7519    -7515    -7512    -7495    -7477    -7464 
   -7461    -7461    -7460    -7458    -7447    -7400    -7329    -7263 
   -7211    -7179    -7171    -7187    -7217    -7246    -7290    -7364 
   -7449    -7501    -7506    -7488    -7477    -7473    -7480    -7512 
   -7555    -7587    -7611    -7641    -7666    -7677    -7665    -7638 
   -7597    -7533    -7441    -7335    -7236    -7138    -7049    -6990 
   -6963    -6947    -6916    -6874    -6843    -6835    -6840    -6867 
   -6924    -6983    -7013    -7030    -7065    -7117    -7165    -7203 
   -7227    -7236    -7227    -7219    -7227    -7242    -7241    -7230 
   -7241    -7265    -7276    -7273    -7277    -7281    -7272    -7249 
   -7215    -7179    -7144    -7114    -7096    -7102    -7106    -7096 
   -7099    -7117    -7129    -7133    -7141    -7145    -7130    -7091 
   -7041    -6993    -6949    -6926    -6929    -6953    -6983    -6998 
   -7003    -7009    -7002    -6980    -6953    -6939    -6933    -6922 
   -6895    -6878    -6887    -6929    -6994    -7078    -7171    -7248 
   -7298    -7345    -7387    -7395    -7375    -7354    -7335    -7306 
   -7269    -7249    -7252    -7268    -7299    -7339    -7375    -7403 
   -7430    -7457    -7487    -7518    -7541    -7555    -7561    -7546 
   -7500    -7411    -7304    -7195    -7065    -6934    -6836    -6767 
   -6710    -6673    -6654    -6642    -6629    -6619    -6612    -6610 
   -6602    -6598    -6616    -6643    -6663    -6691    -6751    -6845 
   -6974    -7126    -7284    -7430    -7554    -7650    -7735    -7828 
   -7916    -7983    -8036    -8070    -8064    -8014    -7940    -7859 
   -7782    -7715    -7665    -7641    -7628    -7619    -7630    -7670 
   -7708    -7715    -7707    -7705    -7701    -7692    -7677    -7653 
   -7624    -7593    -7554    -7512    -7479    -7453    -7426    -7411 
   -7416    -7429    -7442    -7465    -7487    -7485    -7460    -7434 
   -7427    -7439    -7469    -7522    -7596    -7684    -7780    -7881 
   -7973    -8037    -8070    -8071    -8033    -7948    -7823    -7669 
   -7501    -7327    -7137    -6944    -6785    -6652    -6538    -6448 
   -6385    -6346    -6334    -6359    -6430    -6535    -6654    -6781 
   -6924    -7065    -7184    -7288    -7389    -7472    -7522    -7547 
   -7551    -7519    -7446    -7353    -7248    -7129    -7003    -6870 
   -6743    -6623    -6490    -6346    -6226    -6133    -6050    -5981 
   -5926    -5887    -5876    -5902    -5954    -6018    -6079    -6120 
   -6154    -6196    -6222    -6212    -6187    -6160    -6124    -6085 
   -6061    -6048    -6038    -6042    -6061    -6099    -6160    -6228 
   -6285    -6336    -6400    -6477    -6569    -6670    -6764    -6840 
   -6907    -6978    -7045    -7095    -7111    -7106    -7082    -7029 
   -6957    -6898    -6864    -6852    -6841    -6831    -6831    -6849 
   -6889    -6951    -7033    -7133    -7240    -7361    -7503    -7628 
   -7726    -7819    -7923    -8028    -8128    -8228    -8324    -8397 
   -8442    -8463    -8453    -8422    -8383    -8360    -8368    -8380 
   -8379    -8371    -8359    -8348    -8336    -8328    -8329    -8337 
   -8337    -8307    -8267    -8229    -8178    -8127    -8095    -8060 
   -8008    -7955    -7909    -7861    -7804    -7740    -7677    -7624 
   -7592    -7573    -7557    -7538    -7503    -7454    -7407    -7366 
   -7330    -7303    -7290    -7302    -7318    -7318    -7315    -7329 
   -7366    -7419    -7474    -7549    -7628    -7681    -7705    -7711 
   -7688    -7642    -7600    -7568    -7527    -7465    -7387    -7310 
   -7241    -7172    -7103    -7044    -6974    -6887    -6808    -6737 
   -6656    -6561    -6457    -6363    -6297    -6257    -6235    -6246 
   -6301    -6384    -6448    -6485    -6509    -6534    -6567    -6615 
   -6671    -6720    -6748    -6775    -6829    -6902    -6974    -7049 
   -7146    -7249    -7337    -7410    -7461    -7481    -7487    -7489 
   -7481    -7458    -7416    -7362    -7322    -7307    -7300    -7296 
   -7308    -7338    -7377    -7408    -7423    -7431    -7431    -7423 
   -7420    -7430    -7434    -7425    -7418    -7426    -7418    -7388 
   -7364    -7354    -7362    -7399    -7446    -7484    -7520    -7565 
   -7627    -7713    -7801    -7865    -7908    -7947    -7979    -7989 
   -7993    -8000    -7998    -7983    -7962    -7946    -7938    -7929 
   -7928    -7942    -7950    -7929    -7892    -7858    -7823    -7762 
   -7693    -7636    -7600    -7587    -7589    -7603    -7628    -7665 
   -7707    -7747    -7781    -7800    -7793    -7769    -7736    -7689 
   -7643    -7623    -7623    -7631    -7635    -7620    -7593    -7564 
   -7523    -7476    -7431    -7384    -7327    -7280    -7261    -7265 
   -7290    -7325    -7358    -7387    -7393    -7375    -7341    -7284 
   -7190    -7076    -6971    -6894    -6843    -6826    -6849    -6901 
   -6964    -7026    -7072    -7115    -7152    -7163    -7152    -7125 
   -7063    -6963    -6852    -6750    -6654    -6570    -6509    -6469 
   -6440    -6409    -6372    -6335    -6304    -6270    -6245    -6250 
   -6281    -6320    -6370    -6421    -6458    -6501    -6551    -6596 
   -6643    -6691    -6724    -6755    -6794    -6821    -6836    -6868 
   -6925    -6984    -7037    -7084    -7123    -7155    -7187    -7215 
   -7242    -7275    -7315    -7368    -7431    -7481    -7512    -7555 
   -7611    -7659    -7693    -7701    -7678    -7632    -7565    -7474 
   -7384    -7306    -7241    -7202    -7179    -7155    -7133    -7130 
   -7157    -7211    -7277    -7349    -7433    -7526    -7607    -7662 
   -7696    -7712    -7720    -7734    -7758    -7782    -7798    -7812 
   -7836    -7865    -7886    -7905    -7933    -7983    -8039    -8079 
   -8098    -8097    -8068    -8010    -7924    -7817    -7703    -7600 
   -7518    -7446    -7384    -7333    -7290    -7265    -7265    -7269 
   -7267    -7277    -7312    -7364    -7429    -7497    -7569    -7650 
   -7736    -7812    -7888    -7969    -8041    -8108    -8155    -8162 
   -8137    -8089    -8014    -7928    -7847    -7771    -7701    -7634 
   -7564    -7487    -7412    -7350    -7291    -7230    -7177    -7134 
   -7094    -7053    -7009    -6960    -6913    -6879    -6862    -6851 
   -6839    -6825    -6822    -6832    -6837    -6843    -6862    -6880 
   -6903    -6945    -7001    -7051    -7095    -7136    -7169    -7196 
   -7215    -7225    -7234    -7242    -7226    -7173    -7106    -7037 
   -6971    -6905    -6837    -6770    -6708    -6662    -6636    -6628 
   -6627    -6625    -6633    -6647    -6644    -6628    -6615    -6593 
   -6556    -6520    -6489    -6454    -6420    -6400    -6399    -6413 
   -6443    -6485    -6540    -6593    -6632    -6666    -6700    -6729 
   -6758    -6789    -6813    -6836    -6868    -6905    -6952    -7026 
   -7123    -7223    -7329    -7439    -7535    -7605    -7662    -7703 
   -7723    -7735    -7739    -7723    -7692    -7658    -7638    -7645 
   -7663    -7668    -7653    -7619    -7577    -7541    -7507    -7461 
   -7402    -7339    -7290    -7250    -7218    -7194    -7171    -7148 
   -7142    -7150    -7163    -7190    -7229    -7263    -7273    -7265 
   -7248    -7226    -7213    -7203    -7186    -7175    -7179    -7195 
   -7223    -7253    -7271    -7277    -7283    -7302    -7338    -7379 
   -7408    -7435    -7472    -7512    -7553    -7597    -7620    -7605 
   -7577    -7546    -7501    -7452    -7402    -7342    -7267    -7183 
   -7106    -7051    -7015    -6988    -6967    -6953    -6940    -6933 
   -6959    -7007    -7075    -7164    -7256    -7346    -7447    -7550 
   -7643    -7730    -7800    -7846    -7879    -7912    -7939    -7948 
   -7931    -7886    -7827    -7767    -7705    -7641    -7580    -7520 
   -7450    -7380    -7318    -7256    -7190    -7140    -7105    -7076 
   -7060    -7045    -7029    -7009    -6979    -6949    -6944    -6964 
   -6995    -7045    -7118    -7206    -7306    -7408    -7512    -7611 
   -7696    -7761    -7801    -7819    -7815    -7790    -7757    -7716 
   -7666    -7619    -7580    -7546    -7511    -7474    -7437    -7388 
   -7330    -7261    -7192    -7140    -7098    -7057    -7033    -7026 
   -7032    -7057    -7117    -7202    -7298    -7384    -7442    -7472 
