Origin Time       2025/01/13 21:19:00
Lat.              31.8
Long.             131.6
Depth. (km)       30
Mag.              6.9
Station Code      YMG006
Station Lat.      34.1487
Station Long.     130.9299
Station Height(m) 6
Record Time       2025/01/13 21:20:53
Sampling Freq(Hz) 100Hz
Duration Time(s)  60
Dir.              U-D
Scale Factor      7845(gal)/8223790
Max. Acc. (gal)   0.683
Last Correction   2025/01/13 21:20:54
Memo.             
[...]
    2349     2316     2346     2357     2343     2376     2400     2377 
    2398     2436     2380     2354     2462     2504     2415     2421 
    2516     2496     2443     2497     2538     2492     2475     2493 
    2469     2470     2524     2556     2566     2582     2566     2525 
    2551     2594     2558     2504     2484     2447     2424     2444 
    2434     2376     2351     2338     2262     2197     2197     2180 
    2135     2141     2164     2126     2112     2191     2245     2238 
    2292     2415     2486     2513     2558     2554     2513     2554 
    2593     2506     2438     2478     2479     2407     2342     2308 
    2323     2357     2349     2344     2403     2458     2452     2448 
    2488     2531     2569     2619     2664     2690     2691     2667 
    2650     2677     2710     2658     2567     2569     2597     2519 
    2421     2401     2398     2404     2412     2371     2351     2411 
    2438     2374     2371     2450     2450     2389     2405     2447 
    2413     2373     2404     2421     2377     2344     2354     2347 
    2335     2369     2380     2343     2350     2376     2354     2340 
    2361     2376     2388     2389     2342     2323     2381     2382 
    2304     2300     2398     2452     2392     2344     2388     2436 
    2431     2407     2421     2462     2466     2425     2401     2419 
    2440     2440     2428     2398     2369     2378     2388     2355 
    2327     2313     2276     2276     2355     2384     2297     2246 
    2309     2340     2270     2243     2274     2269     2280     2317 
    2315     2328     2371     2350     2286     2290     2315     2259 
    2222     2266     2262     2191     2189     2238     2219     2173 
    2207     2239     2187     2181     2272     2313     2304     2349 
    2434     2484     2466     2442     2502     2577     2528     2442 
    2465     2523     2494     2451     2470     2471     2450     2469 
    2475     2473     2563     2631     2528     2473     2569     2559 
    2411     2388     2475     2452     2380     2382     2362     2315 
    2351     2390     2330     2281     2322     2347     2323     2327 
    2373     2400     2392     2347     2301     2330     2390     2393 
    2377     2409     2457     2443     2436     2528     2620     2620 
    2596     2593     2597     2617     2614     2536     2474     2493 
    2492     2439     2427     2432     2419     2489     2590     2539 
    2444     2494     2556     2513     2494     2529     2521     2520 
    2583     2614     2610     2641     2679     2710     2740     2721 
    2675     2694     2748     2721     2658     2660     2667     2627 
    2592     2567     2515     2465     2450     2401     2327     2311 
    2300     2230     2203     2265     2269     2195     2176     2188 
    2182     2208     2223     2214     2263     2339     2330     2258 
    2242     2284     2296     2266     2238     2231     2263     2305 
    2290     2273     2350     2443     2443     2428     2485     2521 
    2465     2454     2542     2565     2488     2447     2432     2403 
    2401     2377     2320     2335     2386     2366     2315     2308 
    2307     2282     2277     2226     2142     2158     2199     2157 
    2139     2187     2218     2230     2254     2280     2323     2380 
    2386     2371     2400     2442     2432     2396     2424     2497 
    2511     2488     2485     2473     2455     2477     2478     2427 
    2432     2475     2436     2435     2543     2569     2527     2602 
    2694     2674     2666     2706     2691     2635     2609     2600 
    2574     2544     2524     2521     2538     2536     2458     2393 
    2438     2442     2357     2365     2450     2434     2400     2469 
    2508     2484     2520     2565     2548     2562     2604     2575 
    2523     2542     2559     2533     2533     2551     2539     2543 
    2560     2520     2458     2473     2509     2442     2340     2343 
    2366     2309     2259     2241     2220     2236     2261     2245 
    2274     2354     2365     2332     2377     2439     2446     2465 
    2508     2540     2578     2593     2575     2619     2716     2708 
    2624     2673     2797     2778     2671     2627     2587     2496 
    2436     2405     2343     2304     2299     2238     2160     2184 
    2231     2182     2145     2199     2246     2282     2367     2440 
    2485     2567     2621     2575     2570     2650     2664     2625 
    2643     2683     2674     2632     2601     2604     2635     2627 
    2575     2581     2646     2648     2583     2583     2635     2593 
    2516     2519     2474     2374     2404     2462     2350     2254 
    2308     2313     2238     2230     2231     2170     2192     2293 
    2286     2227     2266     2347     2367     2380     2421     2412 
    2401     2504     2590     2546     2542     2631     2646     2616 
    2646     2627     2520     2490     2547     2555     2508     2450 
    2409     2427     2438     2369     2293     2269     2245     2231 
    2269     2278     2239     2241     2276     2289     2278     2270 
    2300     2344     2353     2350     2361     2347     2303     2265 
    2246     2228     2192     2139     2135     2191     2204     2176 
    2200     2226     2215     2239     2269     2274     2349     2451 
    2461     2443     2498     2589     2654     2658     2620     2609 
    2662     2704     2674     2647     2670     2663     2600     2589 
    2644     2614     2502     2481     2525     2508     2505     2551 
    2521     2479     2554     2583     2481     2471     2569     2544 
    2461     2501     2542     2475     2470     2538     2558     2585 
    2625     2604     2602     2662     2640     2552     2556     2616 
    2619     2590     2554     2531     2548     2567     2538     2478 
    2443     2454     2467     2435     2380     2358     2369     2381 
    2357     2303     2270     2266     2269     2276     2258     2211 
    2222     2315     2349     2289     2305     2417     2436     2384 
    2452     2528     2450     2397     2475     2505     2428     2396 
    2442     2467     2458     2442     2405     2405     2485     2532 
    2488     2444     2428     2398     2403     2424     2374     2301 
    2307     2336     2326     2319     2332     2355     2420     2475 
    2419     2354     2428     2478     2369     2316     2376     2331 
    2220     2241     2299     2259     2219     2234     2258     2304 
    2361     2369     2380     2444     2494     2484     2478     2532 
    2593     2609     2598     2556     2519     2544     2567     2532 
    2509     2508     2473     2473     2535     2517     2434     2457 
    2543     2535     2465     2448     2462     2463     2457     2440 
    2423     2416     2398     2357     2332     2332     2296     2245 
    2255     2297     2290     2257     2265     2299     2331     2367 
    2392     2431     2512     2533     2474     2493     2582     2559 
    2482     2515     2560     2512     2475     2498     2505     2478 
    2444     2409     2396     2405     2382     2330     2344     2409 
    2401     2386     2469     2529     2498     2517     2617     2650 
    2600     2587     2619     2631     2629     2610     2555     2523 
    2536     2520     2493     2525     2538     2497     2520     2567 
    2538     2516     2559     2566     2524     2511     2475     2381 
    2338     2338     2277     2219     2228     2238     2232     2257 
    2284     2277     2293     2354     2373     2340     2353     2386 
    2381     2378     2389     2369     2357     2351     2281     2253 
    2344     2336     2189     2185     2295     2263     2168     2195 
    2250     2228     2245     2301     2269     2220     2247     2239 
    2146     2115     2155     2126     2099     2168     2191     2134 
    2154     2238     2270     2276     2281     2268     2296     2362 
    2349     2297     2327     2367     2354     2342     2323     2286 
    2289     2297     2249     2222     2273     2281     2205     2191 
    2253     2257     2207     2216     2278     2308     2296     2255 
    2243     2347     2458     2408     2317     2393     2502     2462 
    2438     2536     2566     2538     2621     2691     2660     2687 
    2759     2774     2801     2837     2813     2790     2809     2816 
    2799     2789     2759     2693     2678     2721     2709     2654 
    2656     2689     2702     2714     2728     2708     2693     2737 
    2756     2687     2644     2652     2612     2563     2554     2497 
    2412     2389     2376     2326     2320     2343     2305     2272 
    2322     2335     2268     2268     2342     2363     2350     2373 
    2400     2435     2506     2554     2529     2546     2647     2666 
    2594     2605     2663     2628     2559     2542     2529     2496 
    2475     2462     2451     2443     2415     2401     2417     2398 
    2332     2303     2307     2258     2216     2254     2249     2170 
    2162     2197     2182     2169     2188     2170     2110     2116 
    2176     2160     2128     2201     2261     2231     2235     2270 
    2232     2197     2253     2276     2216     2203     2251     2266 
    2245     2235     2246     2258     2269     2299     2362     2409 
    2397     2411     2511     2583     2569     2587     2677     2709 
    2686     2735     2818     2793     2721     2727     2748     2721 
    2698     2675     2646     2678     2745     2771     2785     2822 
    2852     2866     2882     2874     2833     2816     2808     2740 
    2670     2635     2587     2575     2609     2546     2415     2412 
    2467     2397     2303     2296     2288     2255     2263     2272 
    2243     2243     2290     2335     2361     2397     2420     2393 
    2392     2454     2458     2408     2408     2403     2361     2362 
    2373     2322     2290     2300     2276     2266     2293     2245 
    2143     2138     2178     2123     2023     2014     2066     2076 
    2031     2003     2046     2106     2087     2026     2029     2085 
    2093     2064     2097     2147     2120     2118     2195     2220 
    2193     2228     2278     2266     2261     2278     2274     2273 
    2288     2290     2313     2366     2376     2340     2363     2425 
    2404     2353     2385     2434     2430     2428     2431     2427 
    2454     2467     2440     2470     2548     2558     2535     2593 
    2677     2673     2644     2693     2728     2663     2594     2585 
    2583     2567     2527     2454     2438     2500     2501     2401 
    2344     2355     2322     2270     2281     2292     2274     2319 
    2404     2444     2496     2578     2609     2633     2716     2749 
    2720     2754     2810     2803     2787     2781     2745     2743 
    2808     2809     2758     2766     2755     2677     2673     2721 
    2651     2535     2548     2585     2485     2390     2409     2376 
    2290     2315     2354     2269     2215     2312     2361     2262 
    2214     2281     2305     2269     2269     2282     2293     2350 
    2389     2357     2359     2416     2436     2424     2416     2415 
    2415     2367     2313     2354     2369     2224     2110     2177 
    2241     2164     2095     2141     2201     2215     2230     2251 
    2254     2285     2363     2380     2344     2388     2461     2450 
    2419     2461     2527     2559     2587     2620     2631     2640 
    2648     2651     2681     2720     2709     2639     2582     2601 
    2636     2623     2569     2506     2485     2479     2412     2346 
    2358     2334     2219     2191     2268     2209     2058     2072 
    2138     2057     1969     2010     2057     2019     1980     1992 
    2003     2006     2042     2084     2112     2176     2232     2234 
    2277     2378     2405     2393     2475     2570     2562     2531 
    2574     2646     2651     2606     2598     2597     2532     2471 
    2520     2566     2466     2363     2408     2474     2452     2442 
    2484     2490     2490     2569     2631     2585     2577     2670 
    2710     2683     2697     2733     2755     2791     2816     2793 
    2786     2840     2874     2852     2857     2902     2916     2899 
    2901     2913     2909     2890     2890     2907     2887     2813 
    2759     2778     2809     2778     2744     2759     2758     2739 
    2755     2770     2740     2714     2714     2702     2674     2640 
    2598     2575     2582     2575     2551     2556     2555     2520 
    2524     2543     2497     2450     2471     2479     2423     2378 
    2370     2338     2301     2307     2269     2150     2103     2153 
    2106     1961     1923     1969     1919     1846     1879     1894 
    1817     1783     1842     1888     1857     1806     1821     1899 
    1950     1930     1927     1992     2011     1977     2015     2085 
    2089     2085     2114     2124     2126     2155     2166     2122 
    2110     2143     2123     2079     2112     2150     2110     2096 
    2146     2160     2155     2197     2211     2185     2232     2324 
    2349     2324     2332     2376     2431     2471     2446     2427 
    2529     2619     2600     2631     2717     2712     2693     2778 
    2841     2787     2756     2825     2870     2822     2787     2829 
    2876     2875     2878     2917     2945     2940     2945     3002 
    3055     3030     3022     3084     3080     3011     3057     3142 
    3060     2945     3010     3080     2970     2878     2937     2918 
    2772     2740     2783     2691     2589     2647     2689     2571 
    2466     2512     2575     2525     2448     2463     2525     2492 
    2386     2376     2451     2454     2396     2400     2440     2431 
    2419     2457     2471     2477     2528     2546     2506     2528 
    2590     2578     2544     2533     2482     2452     2498     2496 
    2434     2442     2459     2390     2351     2394     2389     2330 
    2330     2342     2295     2266     2292     2280     2242     2266 
    2280     2207     2181     2245     2242     2193     2222     2246 
    2211     2232     2295     2281     2253     2266     2254     2228 
    2234     2191     2097     2069     2085     2050     2003     1985 
    1942     1908     1948     1954     1904     1941     2012     1979 
    1983     2110     2149     2101     2166     2254     2228     2212 
    2263     2273     2254     2293     2320     2299     2326     2371 
    2358     2354     2398     2404     2371     2367     2367     2357 
    2384     2408     2354     2344     2444     2469     2388     2403 
    2501     2520     2505     2565     2616     2604     2628     2694 
    2721     2716     2721     2754     2795     2818     2817     2825 
    2845     2824     2790     2816     2808     2691     2628     2673 
    2655     2562     2540     2551     2484     2420     2438     2431 
    2350     2301     2293     2263     2227     2189     2141     2150 
    2204     2187     2127     2139     2165     2130     2126     2178 
    2193     2182     2205     2218     2212     2269     2332     2315 
    2323     2432     2484     2421     2428     2527     2579     2569 
    2554     2577     2639     2658     2614     2594     2635     2652 
    2604     2579     2604     2600     2601     2627     2593     2556 
    2633     2683     2598     2548     2589     2551     2451     2438 
    2457     2408     2361     2344     2289     2243     2266     2234 
    2111     2074     2112     2018     1876     1904     1960     1883 
    1829     1865     1856     1802     1809     1853     1885     1918 
    1948     1965     2004     2062     2092     2101     2119     2145 
    2188     2250     2307     2340     2363     2404     2466     2516 
    2535     2546     2575     2608     2608     2597     2614     2651 
    2670     2678     2695     2686     2664     2716     2756     2691 
    2659     2694     2643     2558     2587     2613     2509     2448 
    2516     2532     2475     2477     2478     2412     2405     2450 
    2390     2303     2354     2442     2405     2357     2424     2493 
    2494     2521     2600     2643     2629     2629     2681     2712 
    2675     2652     2694     2718     2693     2695     2744     2747 
    2728     2782     2801     2701     2673     2764     2754     2658 
    2658     2695     2674     2650     2619     2578     2596     2628 
    2582     2540     2570     2556     2486     2496     2547     2502 
    2428     2443     2490     2490     2486     2508     2520     2573 
    2689     2728     2691     2752     2874     2905     2910     2975 
    2995     2960     3002     3069     3018     2934     2930     2938 
    2916     2872     2782     2702     2698     2678     2598     2567 
    2566     2500     2452     2479     2497     2467     2442     2446 
    2440     2388     2327     2319     2334     2307     2236     2191 
    2185     2165     2107     2066     2080     2077     2030     2018 
    2016     1985     2006     2050     2027     1998     2016     2018 
    2004     2069     2133     2087     2043     2084     2114     2106 
    2120     2161     2172     2154     2142     2169     2228     2235 
    2168     2143     2209     2251     2222     2215     2239     2238 
    2259     2316     2299     2231     2258     2332     2320     2293 
    2342     2371     2358     2417     2481     2434     2407     2485 
    2531     2502     2500     2519     2523     2558     2600     2556 
    2501     2533     2550     2496     2471     2457     2397     2367 
    2359     2290     2215     2223     2246     2203     2185     2218 
    2187     2142     2182     2214     2176     2160     2182     2191 
    2200     2212     2189     2205     2296     2335     2299     2338 
    2432     2452     2461     2517     2520     2475     2505     2554 
    2516     2504     2593     2633     2606     2641     2686     2662 
    2659     2671     2633     2614     2621     2579     2546     2578 
    2573     2489     2478     2560     2582     2532     2511     2523 
    2556     2598     2582     2533     2548     2586     2570     2559 
    2592     2589     2578     2632     2675     2659     2679     2722 
    2697     2693     2751     2733     2673     2708     2747     2681 
    2628     2668     2656     2551     2524     2544     2435     2324 
    2361     2361     2257     2242     2280     2214     2168     2235 
    2235     2147     2151     2219     2207     2170     2192     2207 
    2205     2224     2216     2200     2241     2265     2228     2232 
    2292     2308     2290     2319     2377     2404     2401     2411 
    2448     2508     2559     2578     2596     2659     2722     2735 
    2741     2772     2814     2864     2887     2852     2841     2914 
    2965     2947     2948     2979     2984     3002     3037     3003 
    2963     3015     3033     2957     2947     2971     2870     2759 
    2789     2793     2654     2583     2641     2609     2523     2542 
    2546     2478     2496     2533     2436     2351     2397     2404 
    2293     2238     2280     2269     2197     2176     2207     2219 
    2168     2108     2157     2245     2189     2083     2135     2227 
