Origin Time       2025/01/13 21:19:00
Lat.              31.8
Long.             131.6
Depth. (km)       30
Mag.              6.9
Station Code      YMG015
Station Lat.      34.0966
Station Long.     132.0761
Station Height(m) 64
Record Time       2025/01/13 21:20:46
Sampling Freq(Hz) 100Hz
Duration Time(s)  72
Dir.              E-W
Scale Factor      7845(gal)/8223790
Max. Acc. (gal)   5.639
Last Correction   2025/01/13 21:20:46
Memo.             
[...]
   -6021    -6168    -6301    -6381    -6419    -6463    -6527    -6563 
   -6548    -6498    -6413    -6331    -6288    -6245    -6189    -6162 
   -6176    -6189    -6183    -6162    -6112    -6052    -6026    -6023 
   -6046    -6087    -6119    -6135    -6153    -6228    -6357    -6463 
   -6519    -6535    -6523    -6505    -6489    -6457    -6420    -6426 
   -6458    -6443    -6347    -6226    -6127    -6025    -5906    -5818 
   -5765    -5728    -5728    -5740    -5748    -5792    -5848    -5867 
   -5854    -5830    -5802    -5813    -5872    -5927    -5944    -5956 
   -5973    -5969    -5954    -5948    -5935    -5931    -5940    -5923 
   -5883    -5861    -5849    -5833    -5859    -5940    -6012    -6014 
   -5980    -5998    -6088    -6204    -6316    -6424    -6485    -6489 
   -6505    -6508    -6448    -6381    -6315    -6214    -6124    -6080 
   -6046    -6007    -5960    -5902    -5868    -5860    -5818    -5751 
   -5742    -5776    -5813    -5861    -5910    -5944    -5962    -5981 
   -6007    -6000    -5964    -5952    -5964    -5957    -5958    -5975 
   -5980    -5999    -6035    -6056    -6104    -6215    -6319    -6373 
   -6432    -6550    -6700    -6851    -6972    -7009    -6949    -6852 
   -6743    -6610    -6494    -6413    -6331    -6249    -6173    -6069 
   -5937    -5836    -5787    -5740    -5680    -5636    -5598    -5562 
   -5505    -5409    -5344    -5377    -5459    -5525    -5555    -5547 
   -5517    -5498    -5524    -5653    -5903    -6191    -6420    -6561 
   -6608    -6602    -6605    -6652    -6747    -6831    -6844    -6795 
   -6690    -6528    -6382    -6305    -6255    -6170    -5992    -5744 
   -5544    -5481    -5537    -5655    -5761    -5810    -5814    -5826 
   -5872    -5944    -6030    -6095    -6083    -5985    -5864    -5776 
   -5737    -5733    -5757    -5776    -5767    -5771    -5834    -5941 
   -6066    -6183    -6273    -6353    -6458    -6610    -6790    -6957 
   -7095    -7183    -7190    -7113    -6974    -6793    -6600    -6424 
   -6265    -6130    -6046    -5991    -5935    -5900    -5883    -5853 
   -5830    -5819    -5795    -5768    -5769    -5791    -5791    -5753 
   -5690    -5614    -5516    -5420    -5421    -5503    -5549    -5571 
   -5621    -5683    -5765    -5907    -6085    -6234    -6338    -6435 
   -6559    -6714    -6849    -6945    -7042    -7137    -7182    -7175 
   -7150    -7103    -6994    -6855    -6733    -6608    -6481    -6370 
   -6223    -6014    -5783    -5556    -5360    -5248    -5196    -5152 
   -5134    -5131    -5120    -5150    -5250    -5360    -5435    -5495 
   -5557    -5618    -5713    -5836    -5935    -6019    -6134    -6315 
   -6517    -6647    -6705    -6743    -6772    -6814    -6889    -6952 
   -6948    -6895    -6863    -6845    -6835    -6874    -6924    -6937 
   -6893    -6750    -6565    -6409    -6241    -6042    -5871    -5724 
   -5549    -5339    -5097    -4811    -4554    -4410    -4356    -4391 
   -4498    -4579    -4619    -4706    -4861    -5055    -5275    -5481 
   -5620    -5698    -5736    -5732    -5761    -5864    -5976    -6111 
   -6331    -6575    -6777    -6994    -7230    -7368    -7407    -7433 
   -7410    -7306    -7195    -7119    -7055    -6999    -6972    -6972 
   -6937    -6837    -6701    -6556    -6417    -6274    -6139    -6014 
   -5857    -5683    -5497    -5260    -5032    -4866    -4735    -4607 
   -4465    -4326    -4253    -4315    -4499    -4726    -4986    -5292 
   -5614    -5965    -6326    -6621    -6858    -7101    -7335    -7474 
   -7485    -7437    -7408    -7384    -7317    -7210    -7088    -6971 
   -6882    -6831    -6802    -6759    -6663    -6500    -6278    -6010 
   -5717    -5475    -5332    -5231    -5127    -5088    -5128    -5175 
   -5243    -5412    -5640    -5814    -5929    -6038    -6145    -6257 
   -6400    -6543    -6656    -6751    -6818    -6836    -6801    -6737 
   -6682    -6623    -6492    -6303    -6133    -6021    -5933    -5840 
   -5759    -5694    -5624    -5574    -5568    -5597    -5647    -5717 
   -5809    -5911    -6026    -6165    -6324    -6507    -6729    -6918 
   -6987    -6967    -6912    -6858    -6839    -6836    -6808    -6729 
   -6583    -6385    -6168    -5985    -5854    -5732    -5599    -5460 
   -5308    -5167    -5073    -5012    -4973    -4968    -5000    -5098 
   -5298    -5555    -5778    -5944    -6092    -6218    -6273    -6261 
   -6193    -6058    -5892    -5778    -5748    -5763    -5787    -5822 
   -5860    -5881    -5896    -5903    -5927    -6026    -6207    -6431 
   -6617    -6710    -6704    -6629    -6538    -6419    -6250    -6092 
   -5960    -5849    -5784    -5760    -5757    -5748    -5687    -5599 
   -5512    -5427    -5354    -5260    -5135    -5062    -5123    -5313 
   -5579    -5850    -6041    -6141    -6234    -6362    -6485    -6569 
   -6594    -6575    -6558    -6558    -6534    -6447    -6324    -6196 
   -6069    -5968    -5894    -5823    -5795    -5861    -6003    -6184 
   -6366    -6523    -6651    -6759    -6859    -6937    -6952    -6878 
   -6721    -6555    -6451    -6390    -6338    -6291    -6226    -6110 
   -5967    -5881    -5883    -5922    -5972    -6038    -6104    -6185 
   -6295    -6370    -6339    -6220    -6073    -5953    -5922    -6002 
   -6157    -6327    -6447    -6493    -6500    -6501    -6523    -6610 
   -6778    -6975    -7153    -7287    -7357    -7364    -7349    -7346 
   -7338    -7271    -7118    -6891    -6617    -6366    -6228    -6227 
   -6270    -6261    -6192    -6080    -5935    -5810    -5736    -5705 
   -5724    -5768    -5819    -5900    -6030    -6216    -6477    -6787 
   -7057    -7176    -7110    -6955    -6791    -6616    -6451    -6338 
   -6266    -6228    -6215    -6219    -6307    -6515    -6756    -6952 
   -7084    -7157    -7183    -7164    -7080    -6920    -6717    -6500 
   -6243    -5925    -5559    -5167    -4787    -4475    -4264    -4129 
   -4045    -4037    -4106    -4214    -4368    -4572    -4781    -4962 
   -5127    -5260    -5367    -5503    -5687    -5871    -6019    -6158 
   -6327    -6543    -6799    -7063    -7241    -7264    -7188    -7084 
   -6978    -6851    -6658    -6415    -6192    -6004    -5813    -5609 
   -5418    -5255    -5125    -5042    -4989    -4943    -4903    -4882 
   -4877    -4888    -4942    -5046    -5188    -5374    -5589    -5798 
   -6004    -6220    -6455    -6723    -6995    -7227    -7375    -7437 
   -7445    -7427    -7399    -7362    -7317    -7275    -7261    -7294 
   -7360    -7419    -7464    -7506    -7543    -7550    -7493    -7371 
   -7195    -6959    -6675    -6409    -6160    -5933    -5809    -5782 
   -5780    -5795    -5775    -5670    -5556    -5524    -5575    -5634 
   -5574    -5422    -5379    -5481    -5609    -5748    -5884    -5922 
   -5875    -5827    -5771    -5672    -5579    -5564    -5665    -5823 
   -5914    -5907    -5846    -5757    -5648    -5520    -5400    -5316 
   -5287    -5367    -5575    -5823    -6007    -6130    -6234    -6320 
   -6382    -6378    -6277    -6158    -6108    -6093    -6088    -6107 
   -6127    -6153    -6215    -6301    -6389    -6463    -6517    -6574 
   -6664    -6766    -6826    -6809    -6716    -6601    -6507    -6416 
   -6327    -6228    -6084    -5900    -5694    -5451    -5211    -5007 
   -4824    -4695    -4676    -4749    -4849    -4941    -5001    -5013 
   -4985    -4934    -4876    -4816    -4800    -4882    -5050    -5273 
   -5556    -5881    -6215    -6556    -6898    -7204    -7481    -7753 
   -8036    -8324    -8548    -8625    -8579    -8490    -8405    -8336 
   -8233    -8031    -7732    -7419    -7148    -6887    -6590    -6277 
   -5960    -5621    -5278    -4936    -4587    -4275    -4040    -3852 
   -3686    -3558    -3476    -3419    -3407    -3457    -3559    -3720 
   -3943    -4229    -4599    -5022    -5441    -5852    -6254    -6628 
   -6928    -7121    -7246    -7369    -7519    -7689    -7878    -8091 
   -8264    -8298    -8197    -8041    -7905    -7811    -7731    -7639 
   -7543    -7420    -7236    -6960    -6589    -6180    -5802    -5474 
   -5193    -4939    -4706    -4483    -4237    -4023    -3904    -3851 
   -3824    -3820    -3816    -3812    -3867    -4043    -4365    -4812 
   -5304    -5738    -6072    -6330    -6547    -6732    -6912    -7095 
   -7260    -7408    -7555    -7670    -7723    -7720    -7682    -7609 
   -7495    -7356    -7209    -7084    -7014    -6963    -6891    -6824 
   -6750    -6608    -6404    -6208    -6068    -5962    -5841    -5679 
   -5508    -5337    -5161    -5013    -4959    -5013    -5123    -5244 
   -5401    -5599    -5806    -5991    -6108    -6108    -6045    -6006 
   -6015    -6073    -6192    -6323    -6380    -6332    -6242    -6166 
   -6112    -6079    -6031    -5948    -5846    -5740    -5598    -5414 
   -5204    -4988    -4804    -4683    -4587    -4468    -4342    -4240 
   -4176    -4201    -4337    -4521    -4675    -4819    -5024    -5259 
   -5470    -5688    -5914    -6139    -6430    -6739    -6930    -7006 
   -7037    -7048    -7088    -7221    -7434    -7670    -7882    -8029 
   -8074    -8010    -7900    -7808    -7730    -7636    -7501    -7295 
   -7020    -6718    -6432    -6189    -6007    -5884    -5807    -5752 
   -5690    -5599    -5483    -5350    -5209    -5109    -5093    -5132 
   -5174    -5213    -5279    -5356    -5385    -5354    -5304    -5252 
   -5216    -5235    -5308    -5374    -5394    -5405    -5486    -5688 
   -5972    -6253    -6470    -6600    -6674    -6762    -6879    -6990 
   -7082    -7149    -7149    -7094    -7055    -7041    -7010    -6974 
   -6968    -6978    -6984    -7007    -7021    -6963    -6852    -6750 
   -6648    -6525    -6396    -6220    -5949    -5656    -5440    -5316 
   -5251    -5239    -5293    -5422    -5617    -5890    -6230    -6552 
   -6791    -6943    -6964    -6821    -6585    -6316    -5975    -5602 
   -5283    -4986    -4683    -4414    -4185    -4029    -4024    -4141 
   -4297    -4430    -4488    -4500    -4588    -4799    -5066    -5320 
   -5532    -5705    -5864    -6035    -6219    -6366    -6466    -6573 
   -6698    -6831    -6990    -7159    -7296    -7403    -7488    -7538 
   -7547    -7500    -7381    -7215    -7017    -6794    -6575    -6419 
   -6370    -6401    -6438    -6431    -6367    -6276    -6247    -6319 
   -6416    -6498    -6579    -6640    -6697    -6790    -6886    -6944 
   -6978    -7001    -7003    -6979    -6952    -6929    -6924    -6993 
   -7160    -7348    -7489    -7570    -7585    -7523    -7393    -7234 
   -7056    -6844    -6596    -6292    -5937    -5584    -5277    -5013 
   -4757    -4482    -4213    -3973    -3781    -3677    -3658    -3678 
   -3731    -3811    -3894    -3997    -4143    -4325    -4556    -4874 
   -5266    -5675    -6045    -6373    -6717    -7123    -7558    -7944 
   -8226    -8380    -8422    -8399    -8334    -8225    -8093    -7938 
   -7709    -7398    -7055    -6704    -6376    -6146    -6007    -5907 
   -5845    -5821    -5810    -5787    -5730    -5633    -5487    -5344 
   -5321    -5466    -5721    -5999    -6216    -6342    -6459    -6658 
   -6939    -7250    -7516    -7661    -7695    -7681    -7670    -7704 
   -7794    -7890    -7913    -7828    -7654    -7419    -7168    -6956 
   -6785    -6619    -6455    -6293    -6100    -5881    -5663    -5420 
   -5148    -4946    -4892    -4966    -5131    -5344    -5525    -5647 
   -5786    -6004    -6301    -6647    -6994    -7330    -7670    -8027 
   -8383    -8726    -9058    -9363    -9603    -9780    -9917    -9991 
   -9977    -9884    -9721    -9491    -9197    -8834    -8387    -7866 
   -7292    -6704    -6149    -5670    -5293    -5047    -4957    -5004 
   -5100    -5174    -5239    -5337    -5462    -5590    -5729    -5888 
   -6035    -6156    -6262    -6342    -6388    -6423    -6440    -6447 
   -6488    -6565    -6667    -6820    -7002    -7171    -7300    -7356 
   -7350    -7352    -7388    -7439    -7480    -7479    -7433    -7361 
   -7276    -7150    -6914    -6552    -6116    -5657    -5223    -4842 
   -4507    -4206    -3936    -3673    -3388    -3073    -2749    -2436 
   -2142    -1881    -1659    -1449    -1247    -1098    -1038    -1036 
   -1078    -1174    -1329    -1551    -1845    -2197    -2608    -3069 
   -3528    -3932    -4284    -4623    -4972    -5340    -5709    -6022 
   -6232    -6328    -6319    -6243    -6160    -6108    -6089    -6076 
   -6041    -5994    -5980    -6035    -6149    -6282    -6419    -6529 
   -6593    -6644    -6723    -6832    -6956    -7040    -7042    -6974 
   -6864    -6741    -6632    -6539    -6448    -6349    -6237    -6112 
   -5971    -5832    -5740    -5709    -5726    -5791    -5871    -5937 
   -6019    -6133    -6266    -6413    -6561    -6685    -6764    -6812 
   -6866    -6914    -6913    -6880    -6875    -6902    -6925    -6929 
   -6928    -6939    -6983    -7048    -7080    -7051    -6990    -6933 
   -6863    -6783    -6729    -6714    -6735    -6767    -6764    -6709 
   -6631    -6570    -6529    -6462    -6318    -6087    -5796    -5475 
   -5124    -4716    -4239    -3703    -3140    -2604    -2149    -1795 
   -1541    -1364    -1228    -1116    -1046    -1058    -1204    -1479 
   -1858    -2309    -2772    -3207    -3613    -3978    -4317    -4695 
   -5123    -5544    -5941    -6334    -6723    -7121    -7585    -8120 
   -8669    -9184    -9643   -10029   -10342   -10617   -10893   -11182 
  -11460   -11684   -11843   -11940   -11996   -12023   -12015   -11950 
  -11820   -11614   -11342   -11020   -10613   -10116    -9601    -9140 
   -8768    -8449    -8100    -7645    -7105    -6605    -6239    -5977 
   -5756    -5536    -5309    -5124    -5012    -4958    -4955    -4996 
   -5053    -5121    -5213    -5317    -5421    -5522    -5597    -5617 
   -5579    -5503    -5422    -5358    -5316    -5302    -5306    -5304 
   -5270    -5204    -5130    -5069    -5026    -4999    -4963    -4885 
   -4764    -4631    -4518    -4445    -4446    -4523    -4599    -4592 
   -4517    -4421    -4352    -4342    -4355    -4352    -4374    -4419 
   -4442    -4429    -4410    -4403    -4405    -4421    -4453    -4484 
   -4498    -4510    -4545    -4633    -4793    -4962    -5055    -5107 
   -5193    -5348    -5586    -5884    -6199    -6509    -6821    -7125 
   -7389    -7605    -7789    -7956    -8114    -8279    -8460    -8633 
   -8785    -8916    -9011    -9053    -9047    -9009    -8958    -8903 
   -8814    -8634    -8343    -7967    -7546    -7122    -6721    -6308 
   -5845    -5344    -4842    -4375    -3939    -3534    -3190    -2947 
   -2802    -2728    -2694    -2679    -2712    -2826    -3017    -3284 
   -3646    -4062    -4492    -4927    -5335    -5701    -6061    -6427 
   -6785    -7130    -7426    -7626    -7746    -7824    -7867    -7904 
   -7973    -8079    -8206    -8338    -8455    -8511    -8479    -8384 
   -8262    -8079    -7819    -7530    -7241    -6949    -6663    -6365 
   -6054    -5769    -5475    -5112    -4733    -4426    -4212    -4067 
   -3986    -3944    -3901    -3842    -3789    -3748    -3717    -3689 
   -3653    -3622    -3632    -3690    -3754    -3792    -3819    -3873 
   -3989    -4168    -4392    -4630    -4851    -5040    -5219    -5428 
   -5672    -5903    -6089    -6246    -6394    -6538    -6669    -6787 
   -6875    -6928    -7001    -7144    -7350    -7592    -7842    -8105 
   -8425    -8826    -9254    -9628    -9917   -10150   -10363   -10578 
  -10768   -10872   -10841   -10687   -10442   -10129    -9794    -9466 
   -9130    -8769    -8438    -8182    -7973    -7777    -7616    -7506 
   -7423    -7325    -7184    -7010    -6826    -6647    -6459    -6251 
   -6034    -5811    -5579    -5329    -5089    -4918    -4816    -4768 
   -4762    -4753    -4718    -4693    -4677    -4650    -4630    -4633 
   -4687    -4807    -4954    -5071    -5142    -5161    -5134    -5101 
   -5100    -5130    -5188    -5263    -5314    -5313    -5262    -5208 
   -5190    -5192    -5157    -5036    -4830    -4596    -4406    -4278 
   -4186    -4099    -4012    -3944    -3919    -3952    -4056    -4212 
   -4395    -4592    -4768    -4900    -5013    -5142    -5301    -5475 
   -5648    -5841    -6045    -6218    -6323    -6372    -6424    -6509 
   -6610    -6723    -6836    -6955    -7091    -7204    -7253    -7252 
   -7241    -7263    -7329    -7396    -7458    -7535    -7599    -7587 
   -7473    -7263    -6999    -6758    -6578    -6442    -6300    -6123 
   -5937    -5788    -5703    -5695    -5742    -5778    -5752    -5688 
   -5616    -5543    -5474    -5394    -5279    -5125    -4951    -4784 
   -4652    -4563    -4490    -4411    -4353    -4349    -4415    -4556 
   -4769    -5057    -5405    -5800    -6239    -6685    -7094    -7447 
   -7731    -7955    -8159    -8349    -8523    -8703    -8883    -9055 
   -9240    -9448    -9667    -9867    -9999   -10060   -10120   -10211 
  -10266   -10246   -10164    -9969    -9633    -9238    -8835    -8376 
   -7854    -7325    -6789    -6257    -5817    -5498    -5194    -4847 
   -4521    -4249    -4010    -3807    -3654    -3541    -3460    -3422 
   -3415    -3443    -3535    -3669    -3807    -3981    -4222    -4488 
   -4711    -4878    -4980    -5016    -5055    -5131    -5193    -5223 
   -5265    -5335    -5424    -5532    -5638    -5722    -5783    -5822 
   -5864    -5926    -5987    -6046    -6115    -6180    -6261    -6377 
   -6480    -6481    -6357    -6154    -5908    -5629    -5347    -5096 
   -4884    -4695    -4534    -4434    -4378    -4320    -4284    -4315 
   -4392    -4502    -4661    -4855    -5066    -5294    -5532    -5746 
   -5937    -6133    -6361    -6620    -6925    -7258    -7537    -7700 
   -7776    -7825    -7900    -7998    -8077    -8095    -8046    -7943 
   -7812    -7684    -7587    -7512    -7419    -7279    -7101    -6922 
   -6771    -6631    -6507    -6431    -6415    -6432    -6457    -6463 
   -6455    -6484    -6602    -6781    -6952    -7101    -7217    -7271 
   -7263    -7237    -7223    -7221    -7215    -7198    -7144    -7064 
   -6984    -6879    -6718    -6519    -6297    -6060    -5833    -5644 
   -5490    -5360    -5259    -5178    -5113    -5059    -5011    -4970 
   -4936    -4916    -4916    -4914    -4897    -4897    -4926    -4963 
   -4997    -5026    -5051    -5094    -5167    -5244    -5304    -5359 
   -5427    -5533    -5695    -5903    -6139    -6399    -6652    -6866 
   -7048    -7222    -7377    -7491    -7533    -7470    -7321    -7123 
   -6887    -6619    -6320    -5989    -5629    -5269    -4972    -4749 
   -4544    -4336    -4139    -3955    -3809    -3730    -3705    -3703 
   -3726    -3774    -3843    -3958    -4126    -4314    -4519    -4756 
   -5022    -5339    -5710    -6070    -6351    -6542    -6656    -6725 
   -6785    -6833    -6825    -6714    -6525    -6331    -6203    -6170 
   -6210    -6254    -6281    -6346    -6494    -6712    -6949    -7168 
   -7331    -7454    -7591    -7740    -7879    -8024    -8175    -8301 
   -8364    -8348    -8282    -8205    -8148    -8112    -8046    -7932 
   -7815    -7730    -7670    -7601    -7493    -7335    -7133    -6893 
   -6620    -6313    -5983    -5651    -5331    -5032    -4774    -4549 
   -4338    -4147    -3963    -3789    -3661    -3607    -3647    -3802 
