Origin Time       2025/01/13 21:19:00
Lat.              31.8
Long.             131.6
Depth. (km)       30
Mag.              6.9
Station Code      YMG019
Station Lat.      33.8454
Station Long.     132.1204
Station Height(m) 63
Record Time       2025/01/13 21:20:39
Sampling Freq(Hz) 100Hz
Duration Time(s)  60
Dir.              U-D
Scale Factor      7845(gal)/8223790
Max. Acc. (gal)   1.449
Last Correction   2025/01/13 21:20:40
Memo.             
[...]
    8567     8576     8591     8580     8552     8527     8510     8499 
    8502     8502     8491     8488     8499     8507     8511     8517 
    8518     8514     8507     8496     8495     8527     8588     8654 
    8703     8706     8668     8646     8664     8689     8703     8689 
    8648     8606     8587     8590     8602     8611     8617     8629 
    8640     8653     8692     8752     8806     8831     8835     8839 
    8849     8866     8901     8943     8973     8991     8991     8978 
    8974     8966     8941     8899     8864     8849     8835     8803 
    8764     8749     8775     8815     8833     8803     8760     8733 
    8715     8715     8742     8762     8760     8750     8746     8770 
    8827     8895     8949     8988     9034     9078     9086     9066 
    9055     9058     9057     9022     8949     8897     8900     8900 
    8849     8760     8681     8649     8652     8652     8640     8630 
    8625     8610     8607     8626     8625     8579     8523     8486 
    8472     8475     8465     8433     8394     8367     8349     8325 
    8313     8328     8337     8320     8291     8282     8320     8390 
    8459     8514     8549     8571     8600     8645     8694     8733 
    8764     8791     8806     8812     8827     8864     8901     8923 
    8927     8923     8918     8914     8915     8916     8908     8877 
    8824     8766     8714     8675     8646     8635     8642     8648 
    8650     8665     8702     8757     8808     8843     8881     8912 
    8900     8837     8756     8703     8699     8735     8772     8772 
    8743     8729     8746     8766     8766     8752     8731     8707 
    8691     8681     8676     8684     8700     8710     8700     8676 
    8656     8654     8654     8648     8630     8600     8579     8595 
    8640     8656     8619     8575     8569     8581     8580     8571 
    8561     8549     8534     8517     8484     8451     8444     8467 
    8486     8496     8510     8534     8573     8621     8645     8657 
    8691     8752     8808     8864     8937     9028     9124     9201 
    9244     9263     9267     9262     9227     9148     9072     9031 
    9005     8981     8955     8928     8904     8860     8808     8777 
    8769     8777     8795     8795     8769     8712     8626     8527 
    8455     8424     8418     8403     8364     8321     8298     8299 
    8321     8333     8332     8333     8355     8397     8453     8515 
    8588     8660     8700     8710     8719     8731     8745     8762 
    8758     8725     8675     8613     8544     8483     8440     8417 
    8399     8383     8375     8368     8378     8422     8482     8532 
    8557     8598     8696     8814     8896     8927     8922     8900 
    8870     8837     8808     8799     8810     8812     8784     8734 
    8685     8648     8625     8623     8618     8602     8598     8603 
    8599     8587     8573     8577     8599     8614     8615     8617 
    8625     8644     8667     8684     8684     8677     8687     8707 
    8708     8685     8642     8606     8608     8644     8679     8700 
    8718     8757     8822     8880     8928     8976     9004     9003 
    8980     8934     8881     8850     8819     8768     8721     8695 
    8672     8641     8606     8576     8559     8553     8565     8583 
    8586     8590     8623     8671     8699     8694     8683     8706 
    8748     8757     8716     8642     8572     8526     8502     8502 
    8526     8545     8538     8523     8523     8542     8556     8552 
    8550     8560     8576     8606     8640     8657     8662     8658 
    8662     8698     8741     8746     8710     8648     8588     8565 
    8581     8608     8619     8611     8606     8618     8629     8637 
    8673     8745     8839     8919     8955     8970     8977     8961 
    8918     8851     8776     8707     8656     8617     8592     8577 
    8542     8505     8506     8533     8529     8483     8434     8407 
    8383     8371     8379     8365     8318     8284     8283     8302 
    8328     8348     8376     8413     8460     8527     8580     8587 
    8587     8598     8607     8621     8642     8661     8679     8688 
    8668     8625     8619     8669     8731     8788     8839     8889 
    8943     8974     8964     8939     8928     8950     8988     8992 
    8980     8992     9018     9038     9039     9046     9082     9109 
    9092     9063     9051     9059     9076     9093     9117     9143 
    9157     9171     9194     9207     9186     9144     9112     9113 
    9138     9163     9165     9147     9139     9127     9081     9036 
    9030     9046     9050     9030     8986     8937     8928     8977 
    9011     8974     8907     8856     8829     8845     8911     8969 
    8968     8930     8866     8784     8716     8673     8618     8523 
    8388     8241     8129     8070     8041     8004     7933     7867 
    7836     7821     7801     7780     7773     7781     7778     7765 
    7753     7754     7767     7766     7755     7770     7801     7828 
    7867     7908     7939     7958     7969     7979     8005     8041 
    8077     8102     8102     8068     8023     8001     8021     8067 
    8104     8124     8149     8208     8295     8375     8437     8496 
    8569     8653     8722     8779     8833     8865     8870     8864 
    8843     8820     8839     8897     8951     8980     8995     9007 
    9026     9058     9105     9154     9200     9247     9297     9355 
    9435     9510     9548     9549     9532     9504     9486     9489 
    9485     9451     9400     9347     9302     9273     9269     9298 
    9329     9344     9363     9382     9391     9402     9402     9385 
    9352     9308     9271     9256     9242     9211     9169     9119 
    9072     9057     9082     9113     9138     9162     9182     9194 
    9194     9184     9174     9162     9154     9147     9119     9074 
    9047     9035     9011     8965     8922     8911     8934     8966 
    8984     8982     8972     8973     8980     8969     8962     8972 
    8973     8957     8927     8911     8934     8974     9004     9040 
    9089     9142     9200     9254     9278     9259     9201     9140 
    9094     9050     9018     9004     8978     8915     8841     8789 
    8758     8734     8726     8729     8710     8654     8591     8571 
    8595     8608     8577     8515     8453     8415     8399     8388 
    8364     8336     8322     8307     8276     8247     8240     8243 
    8239     8224     8197     8172     8164     8158     8128     8077 
    8046     8060     8102     8127     8109     8082     8075     8070 
    8059     8059     8056     8027     7981     7948     7931     7915 
    7904     7886     7843     7792     7774     7774     7753     7707 
    7654     7611     7595     7619     7658     7701     7765     7821 
    7866     7927     7993     8067     8174     8301     8422     8523 
    8600     8660     8722     8792     8854     8914     8981     9057 
    9123     9171     9217     9274     9325     9360     9389     9410 
    9435     9474     9494     9454     9370     9296     9243     9185 
    9108     9027     8957     8897     8835     8762     8696     8672 
    8703     8750     8773     8781     8793     8791     8762     8741 
    8741     8743     8742     8748     8745     8715     8669     8633 
    8618     8621     8626     8618     8618     8648     8673     8658 
    8618     8587     8571     8545     8511     8483     8440     8380 
    8330     8289     8271     8284     8299     8311     8332     8343 
    8336     8332     8328     8311     8287     8247     8183     8117 
    8073     8050     8027     7983     7935     7917     7943     7987 
    8019     8039     8070     8120     8190     8257     8282     8272 
    8260     8260     8263     8237     8163     8086     8062     8086 
    8121     8145     8167     8193     8229     8259     8263     8249 
    8225     8194     8172     8164     8178     8214     8239     8229 
    8205     8189     8175     8155     8121     8071     8020     7990 
    7971     7955     7940     7925     7928     7970     8028     8068 
    8091     8116     8159     8195     8208     8228     8284     8365 
    8451     8540     8650     8777     8897     9003     9094     9193 
    9308     9414     9490     9555     9630     9706     9764     9806 
    9836     9856     9877     9894     9882     9844     9807     9779 
    9752     9724     9691     9660     9636     9597     9532     9462 
    9404     9367     9352     9337     9313     9289     9269     9251 
    9231     9213     9216     9238     9256     9250     9219     9188 
    9166     9171     9213     9250     9250     9248     9277     9323 
    9363     9374     9371     9390     9413     9420     9436     9460 
    9475     9471     9432     9348     9251     9181     9146     9121 
    9073     8992     8905     8820     8729     8635     8559     8510 
    8491     8482     8451     8383     8299     8222     8178     8167 
    8160     8117     8037     7956     7890     7827     7774     7738 
    7692     7632     7585     7577     7607     7665     7740     7834 
    7923     7977     8017     8089     8170     8235     8289     8322 
    8351     8372     8370     8370     8398     8436     8484     8541 
    8586     8622     8661     8704     8765     8845     8908     8926 
    8924     8937     8945     8941     8958     9009     9059     9092 
    9131     9186     9242     9301     9360     9400     9417     9424 
    9427     9432     9448     9459     9444     9414     9390     9386 
    9396     9401     9410     9452     9502     9509     9472     9421 
    9362     9293     9207     9108     9030     8991     8985     8988 
    8966     8926     8883     8839     8795     8754     8725     8706 
    8698     8696     8673     8621     8565     8540     8549     8580 
    8611     8642     8669     8685     8683     8657     8619     8600 
    8608     8613     8603     8602     8613     8618     8619     8618 
    8606     8590     8596     8640     8704     8758     8791     8810 
    8827     8846     8851     8835     8803     8754     8688     8613 
    8568     8560     8552     8518     8459     8399     8357     8311 
    8255     8217     8221     8244     8268     8307     8347     8363 
    8370     8380     8395     8411     8418     8422     8445     8475 
    8479     8448     8392     8324     8255     8199     8154     8101 
    8035     7960     7886     7836     7801     7736     7654     7603 
    7582     7573     7562     7558     7566     7585     7604     7627 
    7673     7744     7797     7809     7803     7801     7804     7804 
    7808     7835     7877     7904     7906     7904     7919     7956 
    8013     8073     8112     8144     8201     8274     8340     8390 
    8436     8498     8568     8634     8706     8791     8887     8977 
    9039     9076     9116     9180     9250     9320     9385     9427 
    9447     9466     9487     9517     9539     9528     9504     9501 
    9516     9537     9548     9549     9556     9567     9583     9598 
    9601     9598     9594     9579     9578     9589     9593     9603 
    9625     9652     9679     9680     9659     9633     9605     9587 
    9587     9571     9533     9501     9483     9463     9417     9354 
    9294     9254     9220     9177     9130     9112     9128     9151 
    9163     9146     9105     9073     9059     9065     9096     9147 
    9189     9194     9181     9184     9205     9231     9262     9310 
    9364     9414     9477     9566     9666     9737     9760     9759 
    9757     9730     9667     9594     9520     9439     9355     9235 
    9073     8910     8769     8645     8521     8388     8253     8128 
    8037     7985     7935     7879     7828     7796     7792     7800 
    7801     7807     7803     7759     7692     7635     7604     7587 
    7570     7553     7534     7526     7531     7539     7550     7551 
    7535     7526     7545     7577     7614     7672     7743     7808 
    7882     7966     8037     8113     8198     8280     8359     8448 
    8553     8642     8679     8679     8677     8684     8689     8684 
    8668     8638     8592     8527     8455     8399     8384     8383 
    8363     8310     8233     8158     8117     8116     8137     8168 
    8203     8229     8247     8280     8344     8409     8449     8463 
    8472     8506     8556     8596     8618     8635     8650     8652 
    8648     8623     8556     8471     8405     8356     8306     8256 
    8233     8259     8307     8353     8406     8478     8561     8641 
    8696     8737     8783     8831     8870     8897     8914     8931 
    8957     8995     9047     9093     9138     9201     9271     9331 
    9381     9443     9518     9598     9680     9738     9748     9738 
    9738     9753     9782     9792     9769     9726     9674     9621 
    9586     9566     9555     9548     9536     9521     9513     9512 
    9529     9563     9582     9567     9525     9464     9405     9375 
    9367     9358     9348     9321     9273     9231     9209     9211 
    9219     9209     9178     9132     9078     9020     8962     8901 
    8842     8787     8725     8640     8529     8402     8272     8149 
    8035     7927     7832     7749     7674     7601     7535     7489 
    7461     7429     7384     7334     7285     7241     7209     7192 
    7183     7177     7167     7163     7190     7244     7315     7416 
    7528     7607     7651     7690     7749     7819     7877     7909 
    7939     7981     8041     8110     8176     8235     8283     8344 
    8410     8469     8536     8627     8730     8811     8873     8938 
    9001     9061     9143     9259     9386     9502     9598     9682 
    9761     9829     9888     9937     9975    10012    10042    10048 
   10046    10060    10084    10114    10141    10150    10146    10141 
   10125    10072     9987     9904     9832     9757     9675     9589 
    9495     9390     9278     9190     9131     9081     9038     8992 
    8935     8868     8797     8738     8695     8645     8572     8494 
    8419     8348     8276     8210     8149     8094     8051     8017 
    7990     7978     7978     7977     7956     7912     7855     7812 
    7788     7770     7742     7692     7630     7574     7535     7520 
    7515     7501     7499     7520     7555     7580     7593     7618 
    7659     7716     7786     7858     7919     7963     7993     8031 
    8081     8131     8185     8230     8241     8233     8236     8247 
    8255     8257     8264     8282     8303     8337     8388     8448 
    8530     8646     8772     8887     8978     9040     9100     9184 
    9266     9331     9386     9428     9460     9505     9572     9640 
    9686     9715     9742     9764     9778     9786     9791     9807 
    9832     9842     9815     9749     9676     9630     9613     9599 
    9567     9517     9478     9471     9479     9466     9431     9390 
    9336     9270     9207     9136     9051     8976     8928     8896 
    8856     8818     8787     8765     8752     8738     8708     8669 
    8633     8598     8553     8500     8449     8402     8347     8289 
    8226     8164     8110     8063     8009     7963     7928     7884 
    7848     7847     7874     7917     7963     8006     8059     8116 
    8162     8203     8268     8347     8406     8442     8475     8499 
    8514     8544     8606     8685     8745     8761     8742     8715 
    8702     8695     8695     8694     8684     8677     8679     8679 
    8667     8644     8622     8608     8602     8603     8615     8627 
    8634     8646     8664     8685     8700     8706     8719     8773 
    8841     8885     8910     8930     8957     8993     9028     9042 
    9030     9007     8968     8899     8822     8766     8727     8687 
    8640     8598     8549     8494     8451     8403     8341     8291 
    8255     8216     8193     8179     8162     8144     8125     8116 
    8128     8149     8171     8201     8255     8317     8364     8402 
    8448     8507     8581     8661     8723     8761     8791     8811 
    8826     8851     8876     8860     8823     8811     8830     8843 
    8839     8835     8839     8846     8854     8856     8847     8846 
    8850     8847     8846     8850     8861     8870     8860     8833 
    8812     8799     8784     8754     8716     8685     8649     8615 
    8598     8588     8588     8596     8607     8626     8657     8692 
    8727     8770     8815     8858     8910     8962     9016     9077 
    9132     9171     9205     9242     9279     9316     9354     9387 
    9401     9401     9414     9443     9458     9466     9486     9508 
    9536     9586     9629     9652     9664     9675     9684     9691 
    9690     9686     9691     9699     9695     9675     9643     9606 
    9563     9506     9424     9319     9224     9138     9049     8961 
    8876     8775     8652     8523     8413     8321     8232     8129 
    8013     7893     7778     7672     7558     7449     7373     7327 
    7281     7226     7188     7182     7207     7253     7315     7393 
    7481     7558     7623     7695     7781     7867     7943     8008 
    8058     8097     8124     8141     8166     8186     8195     8213 
    8243     8272     8313     8359     8394     8414     8433     8461 
    8505     8568     8646     8716     8768     8816     8878     8943 
    9004     9053     9081     9097     9121     9140     9144     9140 
    9131     9121     9124     9135     9148     9170     9202     9228 
    9252     9279     9292     9278     9254     9220     9181     9148 
    9116     9077     9040     8996     8939     8881     8837     8807 
    8789     8775     8756     8731     8710     8679     8631     8591 
    8568     8553     8556     8573     8579     8586     8618     8654 
    8673     8689     8718     8758     8823     8896     8958     9013 
    9057     9078     9103     9132     9142     9135     9147     9178 
    9198     9192     9158     9094     9026     8969     8926     8889 
    8854     8818     8789     8768     8753     8741     8719     8677 
    8625     8580     8544     8514     8490     8456     8409     8361 
    8326     8310     8298     8279     8268     8275     8282     8280 
    8286     8301     8324     8364     8413     8463     8507     8538 
    8565     8599     8644     8703     8765     8820     8856     8850 
    8824     8808     8800     8785     8741     8665     8586     8536 
    8514     8498     8473     8445     8414     8379     8337     8282 
    8214     8147     8086     8037     8002     7973     7955     7959 
    7989     8027     8054     8063     8073     8087     8100     8109 
    8117     8114     8093     8062     8039     8036     8051     8078 
    8116     8156     8187     8217     8256     8313     8371     8406 
    8421     8442     8483     8538     8606     8677     8749     8829 
    8915     8996     9081     9177     9274     9356     9421     9468 
    9508     9552     9597     9622     9633     9639     9624     9589 
    9552     9517     9479     9447     9421     9386     9343     9300 
    9243     9173     9108     9047     8986     8935     8887     8831 
