Origin Time       2025/01/13 21:19:00
Lat.              31.8
Long.             131.6
Depth. (km)       30
Mag.              6.9
Station Code      YMG012
Station Lat.      33.9943
Station Long.     131.2179
Station Height(m) 2
Record Time       2025/01/13 21:20:30
Sampling Freq(Hz) 100Hz
Duration Time(s)  95
Dir.              N-S
Scale Factor      7845(gal)/8223790
Max. Acc. (gal)   6.087
Last Correction   2025/01/13 21:20:29
Memo.             
[...]
    2569     2484     2420     2369     2327     2300     2281     2255 
    2220     2188     2151     2095     2022     1937     1826     1695 
    1553     1397     1220     1039      857      666      473      294 
     133       -5     -109     -172     -206     -224     -217     -182 
    -116      -17      114      291      510      742      986     1232 
    1448     1630     1794     1945     2088     2226     2347     2457 
    2560     2655     2741     2817     2883     2929     2929     2886 
    2801     2675     2523     2340     2123     1880     1622     1364 
    1115      862      621      398      179      -39     -256     -469 
    -677     -869    -1012    -1096    -1138    -1123    -1055     -955 
    -830     -689     -541     -386     -225      -45      152      352 
     556      756      957     1159     1339     1506     1656     1765 
    1850     1907     1925     1907     1848     1755     1647     1530 
    1397     1242     1089      943      780      607      429      233 
      32     -175     -387     -576     -741     -876     -962     -997 
    -985     -942     -868     -776     -693     -600     -494     -384 
    -238      -66      113      313      526      753      988     1231 
    1491     1733     1937     2111     2235     2332     2420     2482 
    2536     2592     2635     2662     2666     2666     2654     2612 
    2556     2465     2323     2155     1954     1734     1534     1344 
    1173     1038      931      854      808      787      762      747 
     765      788      838      930     1013     1115     1240     1344 
    1453     1580     1702     1826     1954     2091     2239     2382 
    2511     2613     2681     2728     2760     2776     2779     2748 
    2682     2593     2477     2350     2228     2106     1983     1861 
    1725     1559     1368     1165      950      739      552      386 
     243      129       35      -64     -172     -286     -399     -488 
    -549     -591     -600     -581     -545     -469     -360     -238 
    -102       41      187      319      437      554      662      753 
     850      939     1004     1044     1047     1008      926      796 
     634      445      228        1     -222     -446     -662     -853 
   -1013    -1143    -1213    -1243    -1260    -1260    -1248    -1236 
   -1221    -1197    -1142    -1061     -958     -814     -648     -477 
    -278      -78       86      218      330      433      515      576 
     639      691      738      818      922     1024     1123     1213 
    1275     1302     1317     1321     1302     1278     1252     1223 
    1179     1115     1054      997      923      855      789      700 
     604      506      405      310      233      206      220      255 
     325      422      541      679      823      970     1112     1243 
    1385     1524     1661     1825     1985     2130     2274     2413 
    2535     2636     2729     2802     2845     2890     2944     3002 
    3080     3176     3285     3403     3501     3589     3677     3743 
    3782     3789     3759     3708     3636     3546     3431     3283 
    3114     2924     2691     2413     2085     1696     1260      801 
     336     -124     -562     -977    -1362    -1713    -2029    -2296 
   -2519    -2701    -2841    -2944    -3001    -3011    -2982    -2907 
   -2785    -2613    -2388    -2123    -1829    -1501    -1161     -816 
    -468     -140      167      461      739     1023     1291     1529 
    1761     1983     2185     2370     2523     2640     2712     2735 
    2728     2673     2566     2430     2263     2074     1868     1642 
    1417     1186      950      716      477      248       16     -229 
    -467     -675     -835     -945    -1019    -1043    -1015     -949 
    -834     -670     -461     -230        6      268      531      772 
    1017     1270     1516     1755     1976     2170     2340     2489 
    2612     2701     2764     2791     2771     2720     2619     2473 
    2309     2118     1907     1691     1447     1189      930      672 
     422      166      -85     -317     -537     -722     -862     -978 
   -1061    -1092    -1070    -1004     -903     -776     -616     -419 
    -187       66      346      650      972     1312     1656     1992 
    2311     2605     2878     3122     3327     3493     3632     3757 
    3858     3905     3904     3862     3770     3638     3469     3276 
    3053     2785     2492     2180     1854     1533     1219      927 
     665      413      184      -18     -217     -398     -560     -689 
    -768     -800     -789     -742     -668     -575     -491     -414 
    -325     -226     -121      -14      110      255      390      544 
     722      892     1082     1296     1516     1745     1953     2138 
    2304     2416     2497     2556     2570     2565     2536     2484 
    2434     2358     2238     2103     1948     1767     1575     1363 
    1134      905      687      464      237       12     -217     -453 
    -687     -896    -1073    -1227    -1327    -1356    -1345    -1293 
   -1194    -1074     -928     -754     -554     -317      -59      209 
     502      803     1096     1383     1675     1957     2212     2450 
    2663     2835     2961     3032     3042     3015     2951     2840 
    2683     2501     2297     2062     1811     1566     1312     1053 
     791      531      283       36     -189     -379     -554     -710 
    -834     -932    -1009    -1082    -1144    -1186    -1231    -1263 
   -1278    -1297    -1298    -1289    -1271    -1231    -1155    -1032 
    -873     -688     -472     -264      -85       97      280      460 
     637      818     1026     1233     1424     1637     1868     2079 
    2272     2447     2589     2694     2774     2829     2853     2872 
    2883     2862     2833     2802     2760     2712     2647     2589 
    2546     2481     2400     2307     2187     2046     1894     1737 
    1582     1410     1248     1098      938      796      683      567 
     449      325      201       89       -8      -74     -108     -124 
    -126     -108      -58       10       98      199      292      399 
     535      672      807      953     1100     1236     1363     1499 
    1647     1788     1910     2003     2043     2022     1956     1867 
    1757     1622     1476     1328     1177     1020      849      675 
     514      357      203       59      -63     -153     -210     -233 
    -210     -143      -39       83      230      400      572      758 
     974     1183     1368     1541     1710     1858     1979     2080 
    2158     2199     2207     2177     2097     1962     1776     1555 
    1310     1043      760      468      180      -94     -361     -616 
    -841    -1024    -1178    -1318    -1413    -1449    -1452    -1417 
   -1331    -1198    -1034     -849     -646     -436     -238      -54 
     120      294      476      652      837     1048     1271     1512 
    1760     2006     2255     2482     2668     2832     2967     3073 
    3152     3207     3245     3250     3241     3235     3223     3196 
    3141     3048     2928     2762     2556     2336     2103     1869 
    1637     1405     1178      951      738      546      365      202 
      47     -112     -259     -411     -579     -722     -838     -946 
   -1031    -1077    -1089    -1090    -1077    -1038     -985     -907 
    -792     -675     -550     -407     -256      -85      109      322 
     546      768      993     1212     1390     1533     1647     1730 
    1790     1838     1890     1942     1984     2016     2057     2107 
    2147     2177     2203     2211     2204     2177     2107     2025 
    1949     1853     1741     1621     1499     1390     1287     1204 
    1139     1077     1019      967      912      851      797      764 
     754      756      784      857      965     1086     1229     1386 
    1529     1657     1765     1833     1865     1867     1823     1763 
    1706     1641     1570     1503     1441     1364     1258     1136 
     999      841      665      481      313      149      -12     -143 
    -244     -314     -344     -337     -302     -267     -249     -233 
    -245     -288     -336     -415     -515     -591     -660     -724 
    -766     -783     -774     -747     -691     -614     -531     -432 
    -311     -178      -41       89      260      480      693      912 
    1162     1416     1663     1906     2135     2339     2523     2695 
    2848     2978     3088     3173     3227     3246     3225     3168 
    3069     2938     2801     2640     2459     2289     2108     1900 
    1674     1443     1217      980      730      492      260       14 
    -226     -444     -643     -835     -999    -1124    -1228    -1313 
   -1375    -1399    -1375    -1304    -1179    -1003     -796     -557 
    -288       -9      271      552      827     1082     1314     1529 
    1703     1836     1949     2037     2092     2131     2164     2182 
    2172     2130     2066     1956     1799     1625     1431     1210 
     976      742      518      295       81     -114     -284     -433 
    -568     -688     -800     -919    -1028    -1116    -1178    -1194 
   -1167    -1098     -984     -835     -656     -465     -265      -40 
     184      407      643      877     1113     1350     1576     1809 
    2022     2205     2390     2554     2687     2797     2876     2933 
    2951     2926     2871     2776     2654     2508     2327     2128 
    1911     1657     1385     1107      819      519      216      -76 
    -351     -607     -850    -1078    -1293    -1493    -1676    -1819 
   -1907    -1957    -1965    -1918    -1827    -1687    -1478    -1220 
    -930     -611     -274       74      434      803     1174     1555 
    1945     2331     2718     3110     3491     3861     4205     4504 
    4769     4993     5147     5232     5260     5224     5121     4973 
    4785     4542     4249     3913     3541     3132     2673     2170 
    1659     1148      635      137     -329     -770    -1170    -1505 
   -1782    -2012    -2188    -2313    -2394    -2425    -2403    -2343 
   -2251    -2114    -1929    -1691    -1401    -1070     -697     -287 
     152      619     1092     1553     1991     2408     2817     3199 
    3557     3921     4260     4545     4808     5046     5232     5373 
    5454     5462     5390     5224     4986     4695     4329     3909 
    3450     2948     2417     1858     1273      673       60     -564 
   -1186    -1788    -2358    -2898    -3407    -3854    -4239    -4580 
   -4869    -5090    -5238    -5305    -5309    -5235    -5070    -4843 
   -4553    -4176    -3735    -3250    -2717    -2138    -1529     -901 
    -261      371      990     1599     2193     2758     3287     3789 
    4252     4646     4978     5252     5454     5587     5657     5663 
    5607     5506     5363     5159     4892     4577     4229     3846 
    3407     2921     2419     1892     1339      803      301     -172 
    -608     -994    -1321    -1593    -1827    -2035    -2209    -2336 
   -2407    -2427    -2389    -2270    -2088    -1850    -1541    -1178 
    -787     -379       41      481      923     1355     1780     2191 
    2567     2909     3230     3537     3804     4014     4179     4306 
    4375     4372     4298     4155     3956     3712     3416     3083 
    2729     2365     1999     1641     1300      976      669      382 
     110     -151     -411     -643     -830     -988    -1113    -1181 
   -1200    -1194    -1158    -1084     -984     -859     -704     -518 
    -309      -85      152      395      631      855     1067     1269 
    1452     1613     1745     1838     1898     1929     1908     1836 
    1734     1613     1447     1225      990      756      513      276 
      60     -149     -341     -495     -618     -726     -820     -904 
    -986    -1057    -1113    -1162    -1185    -1178    -1142    -1069 
    -967     -841     -689     -521     -332      -98      171      448 
     735     1040     1355     1678     2006     2343     2683     2997 
    3292     3574     3801     3963     4083     4153     4163     4118 
    4025     3879     3688     3445     3146     2810     2447     2053 
    1630     1196      758      314     -132     -558     -945    -1283 
   -1578    -1819    -1999    -2130    -2219    -2243    -2196    -2100 
   -1958    -1760    -1505    -1189     -819     -403       52      538 
    1038     1551     2076     2589     3073     3537     3969     4353 
    4684     4950     5157     5300     5367     5355     5267     5112 
    4882     4577     4209     3778     3283     2741     2172     1583 
     985      380     -210     -770    -1308    -1821    -2281    -2693 
   -3068    -3400    -3678    -3897    -4060    -4175    -4222    -4199 
   -4099    -3904    -3628    -3291    -2893    -2451    -1958    -1402 
    -803     -172      486     1165     1854     2539     3195     3821 
    4423     4980     5474     5917     6297     6582     6762     6859 
    6866     6758     6561     6297     5954     5547     5093     4594 
    4050     3442     2772     2070     1343      589     -166     -913 
   -1640    -2313    -2933    -3499    -3989    -4410    -4770    -5058 
   -5255    -5362    -5395    -5359    -5233    -5023    -4747    -4391 
   -3942    -3424    -2851    -2214    -1520     -773      -10      745 
    1520     2295     3026     3716     4356     4928     5435     5896 
    6320     6681     6964     7165     7275     7299     7242     7094 
    6872     6585     6226     5825     5391     4916     4407     3871 
    3318     2758     2177     1566      943      328     -287     -909 
   -1498    -2031    -2538    -3011    -3415    -3753    -4041    -4286 
   -4476    -4604    -4665    -4665    -4610    -4491    -4307    -4081 
   -3801    -3437    -2990    -2488    -1938    -1336     -681       -5 
     654     1297     1918     2493     3029     3539     3998     4392 
    4743     5078     5368     5574     5725     5830     5860     5827 
    5745     5616     5448     5229     4958     4650     4309     3935 
    3516     3060     2585     2096     1591     1085      591      101 
    -410     -936    -1445    -1934    -2411    -2843    -3200    -3488 
   -3712    -3870    -3966    -4014    -4005    -3923    -3769    -3554 
   -3280    -2949    -2554    -2107    -1618    -1093     -550       16 
     611     1212     1791     2355     2903     3407     3869     4302 
    4691     5032     5335     5594     5794     5921     5981     5988 
    5931     5796     5587     5305     4946     4523     4045     3527 
    2982     2396     1771     1127      463     -209     -869    -1510 
   -2110    -2658    -3152    -3578    -3943    -4256    -4504    -4683 
   -4785    -4811    -4769    -4641    -4428    -4148    -3800    -3395 
   -2932    -2412    -1867    -1296     -692      -79      525     1115 
    1690     2250     2787     3302     3786     4214     4579     4885 
    5131     5321     5443     5494     5497     5443     5306     5097 
    4839     4541     4201     3823     3418     2995     2552     2088 
    1618     1152      692      252     -153     -534     -888    -1193 
   -1433    -1614    -1741    -1811    -1827    -1799    -1725    -1609 
   -1464    -1278    -1043     -780     -487     -163      168      506 
     861     1224     1588     1948     2278     2578     2859     3118 
    3349     3565     3769     3940     4075     4182     4244     4248 
    4210     4135     4014     3862     3692     3495     3242     2938 
    2596     2218     1821     1409      977      525       55     -413 
    -854    -1270    -1657    -2004    -2316    -2601    -2836    -3003 
   -3119    -3184    -3184    -3132    -3028    -2857    -2628    -2355 
   -2045    -1690    -1290     -864     -423       40      527     1013 
    1505     2010     2500     2956     3379     3762     4106     4405 
    4661     4868     5015     5107     5139     5100     4982     4796 
    4545     4239     3878     3480     3061     2616     2141     1649 
    1135      595       59     -463     -969    -1451    -1896    -2316 
   -2708    -3061    -3373    -3634    -3835    -3973    -4043    -4047 
   -3964    -3801    -3595    -3335    -3009    -2647    -2258    -1827 
   -1371     -900     -406      105      625     1147     1664     2165 
    2646     3091     3501     3886     4236     4541     4822     5088 
    5327     5529     5680     5775     5822     5826     5787     5695 
    5544     5341     5085     4753     4359     3929     3457     2945 
    2415     1879     1335      780      226     -319     -880    -1439 
   -1958    -2434    -2857    -3219    -3507    -3719    -3865    -3932 
   -3916    -3834    -3689    -3485    -3231    -2924    -2581    -2216 
   -1822    -1405     -967     -495        0      498     1008     1503 
    1961     2397     2809     3179     3493     3765     3994     4171 
    4299     4396     4460     4472     4437     4361     4228     4043 
    3823     3561     3258     2903     2505     2097     1682     1267 
     868      459       40     -372     -780    -1177    -1537    -1849 
   -2118    -2342    -2504    -2597    -2640    -2616    -2509    -2354 
   -2160    -1921    -1663    -1391    -1109     -820     -508     -178 
     162      513      874     1239     1599     1958     2300     2608 
    2898     3164     3389     3589     3769     3915     4032     4117 
    4162     4171     4156     4104     4004     3863     3689     3487 
    3257     2990     2693     2385     2045     1675     1321      970 
     596      225     -144     -517     -855    -1163    -1448    -1688 
   -1884    -2037    -2126    -2151    -2128    -2050    -1918    -1746 
   -1545    -1317    -1063     -793     -506     -197      121      440 
     766     1102     1439     1757     2054     2326     2559     2763 
    2943     3094     3226     3331     3407     3461     3492     3499 
    3473     3411     3314     3171     2990     2775     2528     2259 
    1981     1683     1382     1092      804      530      272       18 
    -214     -425     -619     -788     -936    -1070    -1186    -1282 
   -1340    -1362    -1356    -1309    -1219    -1104     -963     -795 
    -607     -400     -178       39      255      484      707      930 
    1165     1394     1618     1830     2018     2182     2327     2447 
    2540     2609     2654     2656     2621     2552     2435     2281 
    2110     1921     1706     1487     1286     1102      927      750 
     577      409      229       54      -99     -240     -363     -457 
    -521     -553     -548     -510     -461     -394     -306     -211 
    -113        8      153      306      459      622      797      978 
    1161     1359     1579     1800     2003     2197     2386     2548 
    2678     2790     2871     2905     2913     2907     2864     2774 
    2660     2521     2336     2120     1890     1637     1374     1119 
     876      641      414      201        4     -176     -342     -480 
    -598     -697     -761     -795     -822     -834     -816     -778 
    -729     -664     -571     -446     -309     -170      -21      136 
     302      479      653      815      965     1098     1206     1290 
    1355     1406     1452     1491     1522     1545     1559     1580 
