Origin Time       2025/01/13 21:19:00
Lat.              31.8
Long.             131.6
Depth. (km)       30
Mag.              6.9
Station Code      YMG013
Station Lat.      34.0313
Station Long.     131.5342
Station Height(m) 3
Record Time       2025/01/13 21:20:21
Sampling Freq(Hz) 100Hz
Duration Time(s)  106
Dir.              N-S
Scale Factor      7845(gal)/8223790
Max. Acc. (gal)   6.782
Last Correction   2025/01/13 21:20:20
Memo.             
[...]
   -6793    -6606    -6478    -6374    -6259    -6120    -5964    -5826 
   -5709    -5601    -5510    -5424    -5312    -5189    -5080    -4993 
   -4919    -4824    -4708    -4622    -4587    -4592    -4656    -4777 
   -4950    -5194    -5502    -5840    -6183    -6493    -6736    -6916 
   -7047    -7156    -7283    -7438    -7619    -7820    -7996    -8082 
   -8010    -7744    -7325    -6832    -6316    -5800    -5313    -4889 
   -4552    -4315    -4216    -4275    -4468    -4738    -5042    -5335 
   -5583    -5791    -5988    -6195    -6405    -6596    -6737    -6826 
   -6876    -6902    -6898    -6845    -6735    -6583    -6416    -6243 
   -6060    -5860    -5644    -5412    -5190    -5026    -4939    -4905 
   -4892    -4884    -4878    -4899    -4973    -5098    -5266    -5475 
   -5699    -5902    -6053    -6127    -6134    -6122    -6138    -6227 
   -6400    -6613    -6808    -6933    -6964    -6926    -6855    -6787 
   -6771    -6806    -6855    -6880    -6832    -6673    -6405    -6085 
   -5788    -5548    -5346    -5147    -4926    -4672    -4423    -4226 
   -4094    -4047    -4108    -4288    -4585    -4957    -5368    -5792 
   -6200    -6589    -6984    -7392    -7788    -8113    -8313    -8388 
   -8379    -8333    -8287    -8226    -8102    -7884    -7539    -7061 
   -6494    -5902    -5350    -4893    -4536    -4253    -4028    -3842 
   -3688    -3597    -3592    -3665    -3789    -3921    -4052    -4197 
   -4386    -4660    -5035    -5510    -6073    -6696    -7333    -7924 
   -8413    -8760    -8966    -9050    -9026    -8912    -8723    -8455 
   -8095    -7673    -7248    -6879    -6592    -6381    -6208    -6015 
   -5761    -5445    -5080    -4684    -4294    -3956    -3732    -3649 
   -3694    -3836    -4018    -4195    -4342    -4459    -4558    -4650 
   -4739    -4850    -4989    -5157    -5360    -5602    -5871    -6165 
   -6501    -6879    -7277    -7627    -7828    -7828    -7626    -7233 
   -6696    -6119    -5586    -5124    -4765    -4521    -4384    -4390 
   -4585    -4977    -5521    -6142    -6728    -7183    -7457    -7547 
   -7485    -7326    -7128    -6947    -6832    -6795    -6805    -6812 
   -6775    -6654    -6408    -6043    -5632    -5244    -4915    -4631 
   -4363    -4109    -3894    -3723    -3586    -3458    -3330    -3260 
   -3308    -3488    -3789    -4189    -4635    -5105    -5601    -6096 
   -6579    -7076    -7584    -8060    -8455    -8726    -8842    -8780 
   -8541    -8193    -7828    -7506    -7219    -6926    -6604    -6266 
   -5934    -5632    -5391    -5228    -5119    -5053    -5024    -5028 
   -5076    -5163    -5274    -5418    -5595    -5791    -6006    -6214 
   -6372    -6461    -6490    -6482    -6448    -6377    -6284    -6210 
   -6193    -6247    -6358    -6484    -6559    -6559    -6509    -6446 
   -6377    -6311    -6232    -6100    -5891    -5598    -5220    -4800 
   -4402    -4043    -3724    -3450    -3208    -2994    -2840    -2798 
   -2911    -3196    -3638    -4194    -4816    -5463    -6087    -6621 
   -7026    -7339    -7649    -8014    -8428    -8811    -9065    -9116 
   -8958    -8626    -8158    -7615    -7064    -6532    -6026    -5556 
   -5132    -4788    -4594    -4623    -4915    -5413    -5981    -6504 
   -6907    -7156    -7260    -7260    -7199    -7096    -6939    -6702 
   -6396    -6026    -5586    -5078    -4523    -3963    -3461    -3059 
   -2785    -2646    -2627    -2740    -3028    -3473    -4016    -4631 
   -5329    -6116    -6957    -7766    -8438    -8914    -9181    -9281 
   -9252    -9078    -8748    -8274    -7672    -6993    -6319    -5701 
   -5158    -4684    -4247    -3844    -3511    -3283    -3198    -3288 
   -3545    -3929    -4395    -4901    -5409    -5867    -6218    -6430 
   -6523    -6548    -6567    -6628    -6739    -6876    -6999    -7063 
   -7078    -7084    -7111    -7199    -7352    -7522    -7674    -7774 
   -7770    -7636    -7383    -7053    -6709    -6370    -6018    -5624 
   -5159    -4621    -4045    -3499    -3033    -2701    -2540    -2531 
   -2625    -2778    -2936    -3071    -3194    -3362    -3659    -4131 
   -4788    -5603    -6484    -7312    -8021    -8572    -8972    -9259 
   -9454    -9537    -9499    -9363    -9155    -8874    -8505    -8009 
   -7330    -6481    -5564    -4715    -4050    -3630    -3458    -3500 
   -3701    -4009    -4379    -4788    -5215    -5621    -5965    -6211 
   -6336    -6332    -6219    -6048    -5872    -5732    -5644    -5599 
   -5545    -5437    -5266    -5036    -4772    -4521    -4341    -4266 
   -4286    -4372    -4491    -4621    -4758    -4931    -5189    -5564 
   -6057    -6627    -7204    -7713    -8112    -8401    -8615    -8785 
   -8908    -8970    -8951    -8810    -8522    -8101    -7551    -6876 
   -6124    -5362    -4622    -3925    -3314    -2840    -2546    -2432 
   -2497    -2724    -3063    -3465    -3919    -4438    -5039    -5694 
   -6335    -6932    -7485    -7979    -8379    -8648    -8762    -8737 
   -8619    -8451    -8243    -8004    -7730    -7422    -7113    -6822 
   -6538    -6249    -5961    -5694    -5460    -5243    -5028    -4795 
   -4506    -4163    -3801    -3461    -3199    -3080    -3142    -3400 
   -3838    -4390    -4965    -5459    -5802    -5999    -6092    -6130 
   -6173    -6258    -6399    -6594    -6804    -7011    -7242    -7514 
   -7812    -8112    -8357    -8478    -8421    -8158    -7711    -7167 
   -6613    -6087    -5598    -5144    -4718    -4325    -3964    -3640 
   -3368    -3164    -3069    -3127    -3354    -3769    -4360    -5055 
   -5773    -6444    -7020    -7506    -7920    -8272    -8564    -8758 
   -8803    -8694    -8478    -8193    -7865    -7512    -7167    -6879 
   -6663    -6492    -6327    -6118    -5806    -5382    -4870    -4328 
   -3836    -3447    -3171    -3014    -2961    -2965    -3014    -3100 
   -3207    -3327    -3483    -3693    -3974    -4310    -4675    -5040 
   -5395    -5763    -6164    -6597    -7049    -7489    -7897    -8274 
   -8617    -8892    -9043    -9054    -8978    -8872    -8753    -8592 
   -8337    -7954    -7434    -6786    -6069    -5354    -4673    -4062 
   -3569    -3238    -3096    -3150    -3358    -3677    -4078    -4506 
   -4932    -5332    -5645    -5852    -6002    -6150    -6332    -6559 
   -6817    -7111    -7403    -7612    -7735    -7813    -7846    -7807 
   -7693    -7528    -7341    -7144    -6939    -6716    -6466    -6208 
   -5988    -5817    -5690    -5601    -5539    -5483    -5402    -5233 
   -4936    -4506    -3970    -3399    -2876    -2444    -2128    -1975 
   -2000    -2191    -2527    -2984    -3524    -4108    -4710    -5327 
   -5933    -6482    -6960    -7381    -7746    -8056    -8317    -8511 
   -8646    -8742    -8799    -8804    -8729    -8532    -8213    -7807 
   -7350    -6901    -6535    -6277    -6092    -5933    -5772    -5601 
   -5418    -5251    -5143    -5127    -5197    -5341    -5509    -5641 
   -5726    -5778    -5810    -5861    -5968    -6137    -6359    -6598 
   -6799    -6913    -6924    -6864    -6785    -6758    -6825    -6936 
   -6986    -6899    -6673    -6369    -6088    -5904    -5822    -5814 
   -5864    -5980    -6153    -6326    -6421    -6413    -6334    -6232 
   -6145    -6093    -6081    -6095    -6095    -6046    -5926    -5755 
   -5618    -5598    -5694    -5864    -6065    -6265    -6470    -6690 
   -6906    -7105    -7268    -7369    -7399    -7342    -7191    -6952 
   -6615    -6189    -5715    -5231    -4795    -4445    -4175    -3986 
   -3890    -3865    -3874    -3889    -3902    -3933    -3973    -3982 
   -3962    -3947    -3987    -4114    -4314    -4537    -4741    -4909 
   -5069    -5255    -5482    -5752    -6056    -6334    -6498    -6509 
   -6385    -6199    -6034    -5931    -5892    -5904    -5940    -5971 
   -5980    -5953    -5887    -5811    -5790    -5899    -6173    -6578 
   -7036    -7454    -7757    -7894    -7850    -7647    -7323    -6930 
   -6555    -6276    -6111    -6016    -5918    -5769    -5570    -5339 
   -5112    -4923    -4773    -4664    -4587    -4526    -4475    -4438 
   -4423    -4461    -4596    -4861    -5244    -5695    -6169    -6640 
   -7042    -7298    -7388    -7314    -7101    -6828    -6559    -6322 
   -6111    -5896    -5660    -5418    -5197    -5001    -4828    -4664 
   -4500    -4342    -4197    -4082    -4017    -4014    -4091    -4240 
   -4448    -4712    -5013    -5319    -5618    -5891    -6091    -6192 
   -6204    -6178    -6178    -6242    -6369    -6548    -6745    -6924 
   -7083    -7227    -7350    -7458    -7551    -7647    -7778    -7948 
   -8139    -8326    -8461    -8526    -8526    -8433    -8203    -7847 
   -7389    -6847    -6241    -5587    -4909    -4263    -3708    -3287 
   -3042    -2990    -3133    -3472    -3955    -4515    -5113    -5709 
   -6269    -6779    -7230    -7624    -7958    -8218    -8418    -8572 
   -8656    -8633    -8467    -8141    -7689    -7175    -6654    -6183 
   -5783    -5439    -5136    -4857    -4573    -4283    -4004    -3762 
   -3599    -3524    -3550    -3690    -3940    -4275    -4691    -5196 
   -5788    -6469    -7215    -7950    -8563    -8973    -9174    -9207 
   -9123    -8974    -8785    -8541    -8232    -7865    -7434    -6952 
   -6430    -5868    -5279    -4681    -4086    -3511    -2960    -2451 
   -2031    -1759    -1668    -1779    -2079    -2497    -2945    -3372 
   -3767    -4144    -4523    -4934    -5377    -5826    -6259    -6670 
   -7053    -7407    -7712    -7950    -8127    -8249    -8310    -8314 
   -8268    -8189    -8091    -7997    -7932    -7906    -7909    -7908 
   -7862    -7746    -7542    -7238    -6826    -6301    -5660    -4943 
   -4216    -3534    -2933    -2447    -2106    -1934    -1953    -2169 
   -2579    -3173    -3900    -4669    -5408    -6089    -6724    -7306 
   -7816    -8230    -8525    -8671    -8662    -8505    -8201    -7788 
   -7312    -6826    -6382    -6002    -5691    -5464    -5304    -5178 
   -5071    -4965    -4843    -4731    -4660    -4646    -4702    -4814 
   -4968    -5175    -5456    -5810    -6220    -6646    -7034    -7360 
   -7622    -7843    -8047    -8213    -8289    -8233    -8031    -7653 
   -7091    -6411    -5719    -5092    -4561    -4120    -3743    -3427 
   -3198    -3083    -3087    -3187    -3369    -3624    -3928    -4248 
   -4591    -4958    -5343    -5746    -6151    -6543    -6937    -7333 
   -7704    -8024    -8270    -8418    -8475    -8448    -8333    -8154 
   -7939    -7716    -7485    -7218    -6889    -6515    -6089    -5607 
   -5108    -4637    -4216    -3901    -3753    -3788    -3977    -4275 
   -4645    -5057    -5482    -5906    -6312    -6678    -6976    -7188 
   -7307    -7337    -7285    -7150    -6961    -6786    -6644    -6554 
   -6534    -6547    -6566    -6621    -6735    -6890    -7048    -7133 
   -7096    -6945    -6710    -6430    -6147    -5876    -5625    -5413 
   -5254    -5163    -5128    -5085    -4959    -4703    -4326    -3904 
   -3514    -3195    -2959    -2803    -2720    -2698    -2736    -2835 
   -3018    -3294    -3646    -4068    -4573    -5162    -5832    -6562 
   -7307    -8014    -8626    -9058    -9238    -9147    -8830    -8352 
   -7774    -7144    -6494    -5857    -5256    -4741    -4347    -4058 
   -3844    -3699    -3631    -3682    -3896    -4280    -4801    -5422 
   -6124    -6876    -7649    -8410    -9069    -9520    -9725    -9686 
   -9437    -9039    -8545    -7970    -7303    -6552    -5744    -4884 
   -3981    -3076    -2228    -1518    -1021     -776     -804    -1100 
   -1603    -2255    -3046    -3955    -4904    -5813    -6619    -7285 
   -7832    -8270    -8579    -8745    -8762    -8646    -8425    -8140 
   -7832    -7507    -7153    -6775    -6407    -6087    -5849    -5707 
   -5652    -5679    -5767    -5868    -5946    -5958    -5854    -5651 
   -5395    -5117    -4822    -4514    -4210    -3970    -3851    -3875 
   -4020    -4243    -4526    -4880    -5321    -5863    -6473    -7102 
   -7728    -8314    -8811    -9207    -9522    -9764    -9899    -9890 
   -9733    -9458    -9085    -8637    -8127    -7561    -6936    -6266 
   -5602    -4985    -4459    -4048    -3754    -3585    -3542    -3589 
   -3704    -3886    -4135    -4446    -4833    -5300    -5842    -6447 
   -7067    -7643    -8155    -8607    -9005    -9347    -9595    -9698 
   -9640    -9437    -9126    -8721    -8206    -7591    -6913    -6212 
   -5549    -4966    -4469    -4054    -3704    -3402    -3144    -2922 
   -2717    -2517    -2339    -2224    -2181    -2219    -2385    -2705 
   -3168    -3769    -4488    -5277    -6081    -6863    -7589    -8233 
   -8773    -9171    -9412    -9493    -9416    -9196    -8860    -8444 
   -7965    -7418    -6812    -6168    -5526    -4946    -4460    -4074 
   -3797    -3622    -3511    -3450    -3437    -3450    -3501    -3639 
   -3865    -4152    -4480    -4834    -5219    -5641    -6097    -6602 
   -7149    -7674    -8137    -8523    -8808    -8992    -9081    -9065 
   -8945    -8731    -8426    -8029    -7528    -6926    -6254    -5547 
   -4853    -4240    -3743    -3379    -3156    -3056    -3061    -3160 
   -3323    -3545    -3834    -4185    -4595    -5057    -5529    -5967 
   -6350    -6675    -6967    -7260    -7577    -7931    -8329    -8741 
   -9135    -9504    -9848   -10164   -10427   -10589   -10596   -10396 
   -9964    -9288    -8386    -7319    -6153    -4943    -3732    -2574 
   -1544     -681       12      530      889     1113     1192     1097 
     811      337     -302    -1109    -2087    -3210    -4450    -5755 
   -7030    -8213    -9288   -10246   -11087   -11808   -12375   -12735 
  -12849   -12734   -12429   -11943   -11263   -10407    -9436    -8411 
   -7358    -6299    -5242    -4213    -3264    -2440    -1757    -1247 
    -939     -812     -801     -865    -1009    -1254    -1618    -2095 
   -2640    -3226    -3850    -4509    -5208    -5922    -6612    -7272 
   -7919    -8565    -9219    -9848   -10388   -10775   -10964   -10962 
  -10804   -10482    -9979    -9301    -8484    -7574    -6600    -5589 
   -4572    -3591    -2678    -1891    -1270     -851     -666     -710 
    -963    -1412    -2030    -2767    -3565    -4390    -5186    -5941 
   -6655    -7311    -7898    -8374    -8712    -8919    -8988    -8915 
   -8695    -8345    -7906    -7402    -6845    -6249    -5643    -5088 
   -4652    -4333    -4082    -3875    -3740    -3713    -3820    -4047 
   -4328    -4633    -5000    -5454    -5980    -6552    -7113    -7599 
   -7987    -8318    -8607    -8830    -8961    -8965    -8853    -8650 
   -8355    -8016    -7649    -7242    -6789    -6269    -5713    -5159 
   -4639    -4180    -3789    -3483    -3235    -3040    -2925    -2860 
   -2835    -2876    -2974    -3115    -3335    -3681    -4186    -4819 
   -5510    -6208    -6897    -7581    -8270    -8920    -9489    -9934 
  -10228   -10401   -10462   -10426   -10274    -9956    -9502    -8951 
   -8360    -7765    -7155    -6525    -5898    -5304    -4758    -4275 
   -3852    -3454    -3090    -2828    -2693    -2694    -2833    -3036 
   -3295    -3631    -3996    -4422    -4918    -5435    -5949    -6415 
   -6837    -7182    -7414    -7542    -7545    -7499    -7443    -7349 
   -7234    -7051    -6777    -6404    -5892    -5297    -4680    -4087 
   -3608    -3302    -3184    -3248    -3491    -3928    -4457    -5007 
   -5553    -6033    -6470    -6855    -7142    -7337    -7353    -7215 
   -7025    -6835    -6704    -6575    -6420    -6277    -6114    -5971 
   -5850    -5690    -5508    -5344    -5252    -5229    -5196    -5136 
   -5053    -4970    -4893    -4806    -4769    -4762    -4780    -4876 
   -4942    -4992    -5080    -5142    -5243    -5422    -5694    -6072 
   -6442    -6778    -7095    -7341    -7456    -7357    -7118    -6822 
   -6467    -6143    -5806    -5360    -4926    -4584    -4324    -4131 
   -3983    -3888    -3865    -3979    -4195    -4398    -4585    -4675 
   -4664    -4706    -4762    -4803    -4935    -5155    -5379    -5602 
   -5925    -6357    -6804    -7295    -7771    -8114    -8386    -8591 
   -8745    -8850    -8787    -8580    -8330    -8090    -7846    -7620 
   -7497    -7388    -7248    -7152    -7030    -6836    -6642    -6475 
   -6289    -6054    -5853    -5746    -5680    -5629    -5555    -5472 
   -5498    -5578    -5638    -5706    -5775    -5871    -5949    -5989 
   -5977    -5850    -5680    -5475    -5223    -5004    -4779    -4531 
   -4372    -4307    -4255    -4237    -4297    -4415    -4594    -4846 
   -5127    -5462    -5989    -6604    -7103    -7507    -7858    -8163 
   -8402    -8557    -8640    -8654    -8627    -8478    -8198    -7920 
   -7628    -7303    -6997    -6729    -6574    -6515    -6457    -6309 
   -6072    -5803    -5452    -5059    -4714    -4371    -4064    -3834 
   -3597    -3361    -3141    -2911    -2705    -2542    -2492    -2632 
   -2934    -3353    -3820    -4322    -4881    -5479    -6095    -6670 
   -7177    -7619    -7960    -8259    -8509    -8613    -8573    -8403 
   -8166    -7967    -7797    -7596    -7267    -6841    -6355    -5814 
   -5347    -4918    -4464    -4020    -3562    -3173    -2957    -2929 
   -3084    -3338    -3623    -3940    -4326    -4812    -5305    -5756 
   -6197    -6555    -6860    -7173    -7441    -7673    -7820    -7858 
   -7825    -7703    -7524    -7302    -7013    -6644    -6222    -5807 
   -5424    -5109    -4877    -4718    -4666    -4752    -4916    -5086 
   -5242    -5362    -5464    -5553    -5661    -5821    -5976    -6068 
   -6058    -6048    -6100    -6184    -6304    -6436    -6582    -6725 
   -6801    -6843    -6863    -6799    -6602    -6257    -5815    -5393 
   -5080    -4905    -4819    -4745    -4718    -4745    -4766    -4766 
   -4754    -4714    -4634    -4581    -4602    -4711    -4927    -5221 
   -5543    -5876    -6268    -6750    -7330    -7966    -8546    -9039 
   -9462    -9801   -10022   -10102   -10037    -9868    -9651    -9323 
   -8866    -8349    -7766    -7138    -6488    -5794    -5098    -4456 
   -3847    -3258    -2725    -2293    -2011    -1926    -2049    -2350 
   -2801    -3385    -4083    -4818    -5529    -6230    -6885    -7443 
   -7920    -8306    -8607    -8843    -9009    -9126    -9163    -9070 
   -8843    -8511    -8093    -7622    -7138    -6658    -6162    -5659 
   -5185    -4766    -4411    -4108    -3843    -3678    -3678    -3802 
   -3952    -4113    -4282    -4441    -4622    -4810    -4965    -5098 
   -5201    -5262    -5281    -5251    -5182    -5152    -5219    -5294 
   -5321    -5359    -5437    -5526    -5598    -5640    -5711    -5836 
   -5941    -6012    -6081    -6137    -6181    -6220    -6255    -6303 
   -6358    -6432    -6529    -6606    -6625    -6655    -6743    -6831 
   -6874    -6866    -6829    -6852    -6926    -6963    -6941    -6880 
   -6818    -6779    -6705    -6579    -6430    -6239    -6038    -5891 
   -5787    -5697    -5657    -5616    -5501    -5363    -5209    -5013 
   -4814    -4617    -4414    -4261    -4202    -4213    -4264    -4325 
   -4363    -4460    -4718    -5076    -5452    -5863    -6261    -6556 
   -6762    -6928    -7051    -7095    -7047    -6893    -6632    -6334 
   -6029    -5638    -5138    -4627    -4217    -3933    -3758    -3694 
