Origin Time       2025/01/13 21:19:00
Lat.              31.8
Long.             131.6
Depth. (km)       30
Mag.              6.9
Station Code      YMG018
Station Lat.      33.9091
Station Long.     132.3559
Station Height(m) 3
Record Time       2025/01/13 21:20:23
Sampling Freq(Hz) 100Hz
Duration Time(s)  111
Dir.              E-W
Scale Factor      7845(gal)/8223790
Max. Acc. (gal)   7.829
Last Correction   2025/01/13 21:20:23
Memo.             
[...]
    3422     3376     3327     3326     3343     3325     3218     2997 
    2718     2470     2266     2101     1964     1814     1644     1498 
    1397     1325     1278     1263     1277     1260     1109      768 
     332      -24     -206     -197        6      360      770     1140 
    1413     1614     1829     2108     2423     2714     2963     3153 
    3280     3338     3323     3257     3144     2967     2767     2577 
    2400     2263     2177     2128     2111     2104     2085     2050 
    2012     1962     1854     1668     1416     1084      670      251 
     -64     -210     -205     -116       -4      110      264      500 
     754      926      994      992      927      805      657      521 
     430      400      411      426      432      457      544      689 
     876     1119     1441     1800     2153     2535     2945     3303 
    3539     3643     3604     3392     3038     2689     2459     2338 
    2263     2211     2170     2141     2147     2195     2232     2232 
    2216     2204     2191     2143     2053     1968     1944     1980 
    2026     2023     1977     1957     1998     2089     2209     2319 
    2405     2462     2459     2416     2421     2513     2652     2758 
    2751     2616     2417     2214     2025     1827     1601     1358 
    1115      888      693      522      371      243      122       21 
     -31      -16       87      292      579      884     1128     1279 
    1350     1350     1306     1278     1313     1437     1641     1872 
    2062     2227     2431     2694     2975     3221     3400     3535 
    3678     3839     3937     3886     3690     3429     3186     3009 
    2895     2830     2793     2758     2694     2574     2400     2203 
    2022     1900     1858     1864     1864     1838     1784     1678 
    1506     1294     1061      781      467      199       64       87 
     241      492      839     1247     1626     1903     2074     2154 
    2139     2088     2057     2006     1904     1800     1740     1701 
    1588     1347     1028      693      395      214      182      247 
     379      584      835     1092     1301     1390     1352     1252 
    1144     1066     1061     1162     1370     1633     1937     2285 
    2621     2903     3195     3542     3906     4251     4560     4803 
    4928     4911     4764     4519     4195     3804     3406     3057 
    2755     2452     2141     1826     1494     1128      731      336 
     -25     -371     -737    -1113    -1487    -1852    -2191    -2478 
   -2697    -2817    -2805    -2631    -2274    -1759    -1171     -595 
      -2      646     1335     2057     2847     3662     4415     5105 
    5782     6384     6804     7041     7168     7153     6951     6639 
    6335     6085     5894     5751     5625     5470     5279     5065 
    4745     4236     3584     2883     2196     1564      996      483 
      13     -453     -942    -1420    -1840    -2199    -2470    -2565 
   -2465    -2224    -1872    -1455    -1069     -764     -521     -275 
     -12      211      386      600      911     1300     1719     2138 
    2538     2930     3333     3754     4206     4702     5208     5659 
    6035     6385     6740     7061     7302     7422     7380     7180 
    6868     6480     6012     5448     4800     4120     3439     2743 
    2016     1279      549     -172     -839    -1377    -1764    -2045 
   -2250    -2409    -2560    -2708    -2821    -2911    -3007    -3090 
   -3100    -3005    -2787    -2454    -2029    -1564    -1117     -696 
    -261      206      723     1308     1953     2620     3285     3927 
    4513     5036     5498     5864     6114     6272     6355     6377 
    6361     6304     6201     6106     6053     5992     5842     5552 
    5113     4585     4035     3472     2879     2255     1638     1094 
     646      276      -31     -294     -554     -830    -1067    -1239 
   -1389    -1522    -1621    -1715    -1819    -1877    -1846    -1741 
   -1617    -1513    -1440    -1366    -1239    -1028     -737     -360 
     116      675     1285     1918     2535     3078     3504     3816 
    4021     4144     4216     4255     4278     4318     4405     4554 
    4761     4954     5023     4942     4777     4603     4459     4359 
    4326     4363     4419     4453     4455     4419     4325     4158 
    3944     3731     3535     3366     3257     3219     3241     3291 
    3333     3338     3298     3215     3106     2975     2809     2590 
    2328     2058     1815     1598     1397     1247     1142     1016 
     824      567      256      -94     -464     -830    -1194    -1544 
   -1838    -2091    -2338    -2573    -2763    -2871    -2855    -2720 
   -2511    -2241    -1904    -1513    -1080     -614     -133      319 
     724     1125     1576     2057     2527     2986     3439     3886 
    4361     4905     5513     6145     6741     7254     7689     8066 
    8387     8634     8776     8799     8715     8529     8235     7821 
    7280     6652     6012     5391     4789     4202     3611     3018 
    2448     1892     1310      708      136     -387     -849    -1231 
   -1524    -1741    -1903    -2034    -2170    -2357    -2608    -2906 
   -3200    -3434    -3581    -3615    -3491    -3213    -2822    -2367 
   -1919    -1547    -1250     -961     -638     -302       31      380 
     741     1090     1432     1779     2120     2454     2787     3088 
    3330     3555     3805     4041     4195     4245     4220     4148 
    4033     3913     3819     3694     3496     3262     3049     2887 
    2797     2783     2824     2864     2866     2847     2821     2747 
    2601     2409     2204     2022     1857     1651     1393     1131 
     892      689      533      406      287      143      -35     -211 
    -392     -606     -812     -963    -1043    -1027     -882     -630 
    -355     -114      112      357      627      936     1331     1807 
    2312     2799     3256     3692     4137     4602     5055     5451 
    5761     6015     6257     6478     6589     6521     6307     6023 
    5722     5381     4934     4402     3856     3302     2716     2120 
    1557     1035      523       33     -417     -853    -1271    -1636 
   -1976    -2328    -2647    -2889    -3032    -3030    -2859    -2533 
   -2106    -1638    -1140     -587        0      584     1131     1605 
    2012     2413     2853     3330     3820     4313     4791     5204 
    5501     5675     5769     5837     5911     5971     5961     5875 
    5751     5637     5570     5544     5532     5509     5440     5310 
    5128     4900     4626     4318     3991     3654     3298     2949 
    2632     2285     1864     1394      881      330     -203     -677 
   -1059    -1317    -1458    -1541    -1637    -1756    -1871    -1977 
   -2076    -2120    -2076    -1950    -1728    -1386     -958     -486 
      20      537     1023     1463     1868     2222     2502     2717 
    2897     3064     3241     3438     3653     3869     4083     4275 
    4413     4504     4598     4714     4831     4932     5007     5007 
    4911     4770     4645     4533     4410     4278     4126     3909 
    3620     3318     3032     2732     2396     2022     1599     1143 
     696      267     -157     -606    -1084    -1540    -1898    -2137 
   -2269    -2304    -2265    -2218    -2204    -2204    -2195    -2181 
   -2158    -2123    -2076    -2031    -1993    -1946    -1885    -1811 
   -1675    -1444    -1161     -880     -610     -311       86      631 
    1290     1980     2637     3257     3847     4395     4865     5239 
    5524     5736     5896     6054     6247     6455     6625     6745 
    6845     6945     7033     7110     7169     7133     6957     6691 
    6343     5896     5397     4885     4357     3812     3258     2690 
    2087     1463      874      345     -109     -469     -761    -1016 
   -1208    -1305    -1321    -1296    -1275    -1274    -1291    -1343 
   -1399    -1372    -1221    -1004     -777     -552     -337     -145 
      71      373      723     1035     1293     1543     1815     2099 
    2384     2686     2994     3272     3508     3694     3846     4000 
    4168     4341     4507     4625     4676     4683     4668     4621 
    4523     4382     4203     3987     3750     3524     3343     3186 
    3014     2837     2656     2454     2220     1981     1759     1547 
    1337     1129      922      724      558      415      268       91 
    -105     -302     -456     -503     -421     -224       58      367 
     669      950     1197     1410     1599     1759     1881     1966 
    2019     2041     2033     2008     1952     1856     1761     1690 
    1625     1579     1599     1695     1823     1984     2193     2415 
    2612     2798     2968     3107     3218     3334     3470     3604 
    3747     3951     4217     4517     4843     5175     5463     5670 
    5765     5730     5559     5275     4903     4476     4051     3655 
    3276     2884     2474     2047     1580     1042      427     -248 
    -947    -1613    -2232    -2841    -3447    -3978    -4361    -4627 
   -4815    -4903    -4885    -4761    -4527    -4206    -3807    -3310 
   -2737    -2147    -1560     -954     -315      332      950     1510 
    1995     2394     2728     3022     3279     3497     3712     3947 
    4202     4468     4766     5139     5563     5980     6349     6632 
    6816     6875     6779     6515     6112     5628     5109     4583 
    4050     3512     2994     2525     2099     1696     1317      965 
     621      272      -71     -415     -754    -1031    -1197    -1271 
   -1271    -1197    -1065     -897     -706     -488     -259      -22 
     240      553      928     1370     1861     2358     2810     3211 
    3581     3910     4172     4380     4564     4715     4801     4823 
    4791     4685     4500     4271     4041     3819     3591     3352 
    3111     2879     2658     2450     2266     2087     1856     1564 
    1255      973      718      464      209      -39     -253     -399 
    -454     -392     -218        4      210      380      561      791 
    1044     1294     1537     1767     1981     2197     2409     2579 
    2698     2816     2953     3079     3149     3149     3080     2956 
    2782     2542     2251     1965     1734     1593     1564     1632 
    1753     1898     2060     2251     2470     2706     2953     3192 
    3383     3484     3469     3339     3133     2875     2574     2255 
    1966     1715     1487     1291     1146     1040      957      907 
     907      940      967      980      984      965      931      932 
    1009     1167     1387     1637     1888     2134     2384     2639 
    2887     3113     3311     3473     3615     3769     3913     3982 
    3943     3805     3609     3400     3203     3019     2844     2674 
    2504     2300     2060     1807     1564     1370     1228     1108 
     986      846      680      488      282       76     -103     -243 
    -330     -325     -213      -32      210      495      770     1040 
    1333     1641     1933     2191     2428     2647     2835     2998 
    3119     3163     3154     3153     3180     3206     3207     3188 
    3161     3136     3109     3068     3021     2984     2976     2979 
    2961     2943     2952     2971     2965     2925     2852     2737 
    2569     2336     2035     1684     1320      969      653      400 
     205       17     -193     -410     -616     -835    -1063    -1258 
   -1387    -1440    -1421    -1350    -1237    -1093     -946     -832 
    -739     -608     -379      -43      383      905     1517     2174 
    2805     3375     3897     4391     4837     5202     5503     5788 
    6077     6355     6597     6764     6812     6718     6524     6259 
    5926     5547     5144     4706     4221     3717     3230     2739 
    2215     1686     1170      668      225     -120     -387     -573 
    -668     -681     -626     -508     -338     -140       81      338 
     616      909     1240     1591     1921     2222     2496     2720 
    2899     3075     3280     3499     3688     3846     3979     4060 
    4085     4078     4037     3950     3825     3672     3453     3133 
    2732     2308     1894     1497     1111      722      322      -83 
    -471     -804    -1093    -1367    -1624    -1863    -2104    -2338 
   -2527    -2664    -2766    -2852    -2926    -2957    -2907    -2781 
   -2590    -2303    -1908    -1453     -947     -399      144      679 
    1221     1760     2315     2907     3526     4166     4831     5509 
    6169     6787     7325     7763     8135     8453     8706     8900 
    9042     9120     9130     9059     8901     8661     8326     7871 
    7311     6696     6064     5440     4820     4199     3574     2955 
    2359     1768     1152      526      -91     -719    -1370    -2034 
   -2689    -3294    -3821    -4278    -4669    -4962    -5135    -5219 
   -5250    -5236    -5169    -5024    -4752    -4315    -3757    -3146 
   -2532    -1927    -1316     -666       14      700     1355     1981 
    2619     3280     3951     4635     5328     6006     6655     7268 
    7842     8361     8810     9173     9448     9641     9755     9752 
    9599     9293     8826     8197     7431     6581     5705     4839 
    3982     3132     2278     1397      479     -442    -1323    -2145 
   -2914    -3600    -4159    -4612    -5032    -5441    -5787    -6034 
   -6197    -6269    -6226    -6076    -5823    -5444    -4936    -4347 
   -3707    -3034    -2347    -1644     -885      -44      838     1721 
    2594     3456     4287     5073     5803     6475     7090     7663 
    8201     8658     8995     9212     9320     9309     9181     8969 
    8702     8383     8024     7653     7279     6912     6554     6180 
    5773     5335     4868     4384     3870     3295     2681     2056 
    1420      784      170     -403     -922    -1390    -1807    -2169 
   -2494    -2787    -3022    -3196    -3312    -3349    -3288    -3141 
   -2957    -2797    -2650    -2475    -2251    -1991    -1722    -1437 
   -1097     -673     -193      319      846     1359     1840     2299 
    2754     3177     3537     3856     4151     4390     4575     4737 
    4862     4934     4996     5109     5256     5402     5533     5637 
    5695     5711     5698     5643     5530     5377     5213     5040 
    4849     4635     4384     4098     3800     3508     3214     2922 
    2648     2366     2038     1669     1282      905      561      248 
     -52     -363     -685    -1016    -1351    -1679    -1987    -2251 
   -2451    -2583    -2643    -2627    -2574    -2511    -2417    -2268 
   -2065    -1836    -1576    -1255     -851     -379      132      656 
    1175     1678     2154     2619     3079     3524     3948     4344 
    4680     4941     5163     5374     5553     5694     5792     5815 
    5748     5611     5431     5206     4922     4584     4201     3771 
    3316     2864     2408     1958     1534     1127      715      321 
      -9     -259     -437     -538     -553     -499     -395     -253 
     -90       79      255      430      598      757      909     1048 
    1175     1312     1463     1610     1737     1844     1925     1987 
    2056     2150     2272     2416     2581     2741     2883     3018 
    3136     3213     3253     3276     3283     3287     3312     3357 
    3384     3379     3345     3287     3213     3132     3037     2918 
    2779     2628     2471     2324     2200     2100     2008     1908 
    1813     1717     1586     1428     1286     1178     1120     1123 
    1162     1212     1270     1345     1418     1470     1493     1468 
    1368     1205     1030      881      769      683      606      538 
     496      476      461      457      484      561      677      822 
    1003     1186     1358     1547     1753     1956     2162     2376 
    2597     2829     3075     3327     3576     3820     4070     4318 
    4540     4743     4931     5078     5171     5215     5212     5175 
    5120     5042     4918     4737     4495     4190     3838     3478 
    3133     2776     2398     2023     1657     1287      905      518 
     136     -221     -540     -805    -1017    -1192    -1337    -1456 
   -1529    -1537    -1486    -1383    -1229    -1046     -855     -648 
    -405     -132      176      552     1007     1509     2014     2490 
    2938     3372     3784     4166     4533     4895     5236     5533 
    5773     5952     6064     6112     6099     6018     5887     5722 
    5521     5287     5030     4737     4398     4008     3578     3136 
    2689     2234     1763     1279      799      349      -63     -436 
    -791    -1144    -1487    -1794    -2057    -2270    -2421    -2516 
   -2563    -2539    -2421    -2239    -2033    -1804    -1543    -1256 
    -927     -526      -71      387      830     1264     1682     2087 
    2497     2911     3314     3701     4059     4371     4641     4878 
    5065     5185     5259     5317     5350     5344     5319     5269 
    5166     5015     4847     4657     4423     4166     3919     3666 
    3388     3114     2851     2583     2324     2083     1849     1606 
    1358     1127      924      749      591      436      297      194 
     114       31      -59     -132     -168     -167     -113      -13 
     103      229      340      407      452      511      565      588 
     599      642      742      889     1063     1260     1466     1667 
    1883     2108     2324     2559     2843     3173     3543     3913 
    4247     4533     4754     4920     5049     5113     5107     5059 
    4984     4878     4737     4549     4320     4021     3649     3237 
    2808     2380     1965     1561     1169      778      384        4 
    -344     -652     -915    -1132    -1304    -1424    -1495    -1522 
   -1498    -1413    -1274    -1093     -874     -631     -368      -72 
     261      622      984     1332     1668     1993     2303     2596 
    2886     3172     3433     3663     3856     3989     4052     4062 
    4035     3970     3854     3688     3493     3292     3098     2917 
    2733     2528     2336     2191     2089     2016     1964     1925 
    1904     1914     1950     1996     2042     2085     2128     2172 
    2211     2236     2242     2219     2157     2077     2008     1965 
    1942     1922     1910     1917     1933     1949     1966     1980 
    1984     1992     2002     2008     2008     2002     1988     1962 
    1923     1872     1792     1675     1549     1436     1328     1228 
    1146     1084     1047     1048     1084     1154     1252     1367 
    1490     1609     1709     1798     1902     2035     2188     2334 
    2458     2559     2647     2729     2813     2890     2951     2995 
    3032     3069     3118     3177     3233     3271     3292     3300 
    3288     3241     3154     3032     2874     2662     2393     2089 
    1776     1482     1200      919      639      368      112     -136 
    -398     -643     -834     -966    -1053    -1100    -1116    -1098 
   -1038     -922     -762     -580     -379     -152      102      375 
     642      919     1208     1507     1829     2165     2497     2828 
    3153     3464     3757     4020     4255     4486     4710     4916 
