Origin Time       2025/01/13 21:19:00
Lat.              31.8
Long.             131.6
Depth. (km)       30
Mag.              6.9
Station Code      YMG014
Station Lat.      34.0542
Station Long.     131.8077
Station Height(m) 15
Record Time       2025/01/13 21:20:39
Sampling Freq(Hz) 100Hz
Duration Time(s)  76
Dir.              N-S
Scale Factor      7845(gal)/8223790
Max. Acc. (gal)   4.009
Last Correction   2025/01/13 21:20:41
Memo.             
[...]
    -828     -853     -884     -931     -982    -1026    -1054    -1040 
    -994     -966     -970     -972     -942     -886     -832     -811 
    -824     -843     -861     -908     -976    -1035    -1097    -1175 
   -1232    -1263    -1308    -1358    -1371    -1343    -1306    -1285 
   -1271    -1256    -1206    -1100     -972     -865     -776     -699 
    -666     -684     -722     -797     -897     -974    -1038    -1119 
   -1193    -1235    -1270    -1321    -1379    -1433    -1462    -1482 
   -1528    -1561    -1563    -1560    -1536    -1483    -1445    -1443 
   -1421    -1355    -1291    -1248    -1189    -1136    -1147    -1204 
   -1271    -1355    -1459    -1564    -1680    -1795    -1890    -1984 
   -2081    -2149    -2192    -2251    -2336    -2404    -2405    -2363 
   -2312    -2232    -2114    -1989    -1857    -1710    -1574    -1451 
   -1325    -1208    -1119    -1034     -945     -882     -858     -850 
    -855     -881     -931     -985    -1023    -1043    -1053    -1063 
   -1078    -1086    -1084    -1084    -1093    -1117    -1158    -1202 
   -1231    -1242    -1229    -1197    -1182    -1186    -1200    -1246 
   -1314    -1377    -1437    -1507    -1575    -1626    -1665    -1692 
   -1688    -1652    -1594    -1530    -1480    -1445    -1429    -1435 
   -1451    -1479    -1507    -1532    -1559    -1584    -1624    -1675 
   -1707    -1721    -1737    -1750    -1750    -1737    -1707    -1659 
   -1598    -1525    -1451    -1399    -1359    -1309    -1274    -1259 
   -1239    -1227    -1231    -1228    -1221    -1215    -1212    -1236 
   -1282    -1316    -1337    -1378    -1439    -1493    -1529    -1559 
   -1594    -1626    -1649    -1667    -1680    -1690    -1707    -1745 
   -1796    -1837    -1876    -1921    -1946    -1957    -1930    -1848 
   -1748    -1640    -1483    -1306    -1159    -1032     -920     -838 
    -768     -687     -607     -519     -399     -284     -232     -214 
    -190     -175     -189     -213     -249     -340     -487     -668 
    -870    -1069    -1247    -1416    -1564    -1671    -1745    -1810 
   -1860    -1904    -1968    -2047    -2110    -2143    -2143    -2108 
   -2066    -2025    -1962    -1879    -1798    -1730    -1678    -1638 
   -1591    -1548    -1539    -1544    -1549    -1561    -1556    -1521 
   -1467    -1393    -1293    -1182    -1075     -992     -926     -876 
    -837     -770     -676     -583     -492     -403     -326     -271 
    -244     -233     -244     -284     -333     -378     -446     -553 
    -680     -805     -920    -1036    -1159    -1279    -1390    -1487 
   -1582    -1676    -1744    -1773    -1809    -1850    -1896    -1966 
   -2038    -2091    -2127    -2147    -2154    -2143    -2116    -2084 
   -2052    -2018    -1968    -1904    -1856    -1807    -1733    -1652 
   -1578    -1517    -1494    -1509    -1536    -1556    -1564    -1571 
   -1574    -1572    -1591    -1610    -1602    -1587    -1564    -1543 
   -1549    -1563    -1564    -1582    -1593    -1571    -1534    -1503 
   -1466    -1406    -1333    -1264    -1208    -1162    -1124    -1084 
   -1044    -1011     -981     -955     -939     -928     -947    -1007 
   -1065    -1113    -1188    -1273    -1327    -1366    -1405    -1432 
   -1444    -1445    -1420    -1367    -1294    -1196    -1098    -1027 
    -990     -996    -1023    -1035    -1017     -972     -911     -850 
    -796     -772     -783     -819     -882     -963    -1023    -1042 
   -1058    -1071    -1040    -1005    -1007    -1013    -1058    -1171 
   -1306    -1412    -1482    -1530    -1551    -1553    -1552    -1541 
   -1544    -1576    -1637    -1702    -1742    -1757    -1737    -1678 
   -1598    -1514    -1441    -1378    -1345    -1368    -1418    -1475 
   -1547    -1642    -1757    -1869    -1952    -1993    -2035    -2114 
   -2211    -2303    -2374    -2431    -2477    -2509    -2506    -2435 
   -2324    -2211    -2077    -1930    -1800    -1701    -1614    -1526 
   -1425    -1294    -1154    -1035     -940     -869     -832     -855 
    -922     -984    -1036    -1082    -1100    -1100    -1088    -1070 
   -1077    -1090    -1063    -1013     -967     -896     -787     -670 
    -562     -468     -418     -403     -394     -398     -432     -487 
    -572     -675     -747     -788     -820     -853     -888     -896 
    -862     -838     -854     -874     -886     -949    -1069    -1177 
   -1252    -1306    -1312    -1287    -1283    -1297    -1325    -1399 
   -1503    -1598    -1686    -1765    -1818    -1850    -1858    -1848 
   -1858    -1900    -1935    -1949    -1962    -1989    -2008    -1983 
   -1888    -1752    -1628    -1533    -1451    -1375    -1341    -1363 
   -1381    -1368    -1358    -1370    -1391    -1436    -1525    -1624 
   -1723    -1852    -1979    -2073    -2168    -2255    -2293    -2289 
   -2261    -2187    -2079    -1968    -1841    -1706    -1598    -1510 
   -1417    -1313    -1228    -1183    -1169    -1173    -1173    -1171 
   -1196    -1219    -1205    -1197    -1229    -1271    -1301    -1333 
   -1383    -1447    -1524    -1582    -1613    -1637    -1648    -1632 
   -1582    -1482    -1333    -1173    -1024     -868     -704     -564 
    -448     -345     -251     -168     -108      -79      -83      -94 
    -106     -140     -187     -221     -243     -288     -379     -508 
    -665     -846    -1069    -1337    -1638    -1945    -2219    -2447 
   -2643    -2803    -2928    -3021    -3082    -3115    -3132    -3125 
   -3078    -2982    -2824    -2597    -2336    -2100    -1923    -1800 
   -1738    -1718    -1699    -1669    -1632    -1563    -1455    -1317 
   -1171    -1027     -872     -735     -660     -653     -704     -791 
    -872     -922     -943     -932     -882     -808     -734     -672 
    -612     -554     -535     -561     -596     -625     -645     -668 
    -707     -742     -753     -762     -789     -830     -868     -900 
    -958    -1067    -1198    -1320    -1433    -1541    -1647    -1749 
   -1831    -1912    -2016    -2112    -2180    -2214    -2216    -2203 
   -2170    -2091    -1977    -1856    -1728    -1594    -1470    -1364 
   -1281    -1216    -1170    -1146    -1131    -1116    -1105    -1088 
   -1054    -1020     -988     -935     -881     -869     -876     -865 
    -842     -800     -743     -693     -642     -579     -542     -564 
    -633     -730     -835     -905     -927     -927     -928     -939 
    -966     -999    -1031    -1074    -1129    -1204    -1300    -1395 
   -1489    -1580    -1678    -1784    -1888    -2003    -2127    -2235 
   -2315    -2365    -2401    -2450    -2513    -2587    -2659    -2716 
   -2758    -2787    -2790    -2758    -2698    -2597    -2462    -2305 
   -2111    -1896    -1692    -1503    -1337    -1205    -1107    -1035 
    -978     -946     -927     -882     -815     -745     -657     -553 
    -459     -384     -333     -338     -402     -504     -660     -868 
   -1077    -1252    -1387    -1480    -1537    -1582    -1632    -1675 
   -1719    -1798    -1891    -1979    -2066    -2138    -2189    -2242 
   -2297    -2370    -2466    -2551    -2594    -2613    -2610    -2558 
   -2454    -2324    -2177    -2012    -1833    -1651    -1463    -1263 
   -1066     -893     -761     -685     -664     -670     -704     -773 
    -872     -970    -1035    -1069    -1082    -1084    -1078    -1081 
   -1102    -1135    -1161    -1166    -1155    -1146    -1138    -1138 
   -1163    -1229    -1340    -1466    -1579    -1702    -1831    -1945 
   -2027    -2065    -2068    -2045    -2000    -1960    -1937    -1925 
   -1925    -1938    -1945    -1918    -1853    -1753    -1615    -1436 
   -1227     -997     -760     -542     -360     -194      -49       74 
     199      321      432      538      614      627      583      510 
     403      253      103      -22     -141     -213     -210     -203 
    -225     -257     -329     -446     -556     -643     -720     -765 
    -760     -735     -716     -692     -672     -668     -676     -685 
    -693     -720     -764     -796     -803     -803     -831     -904 
   -1019    -1192    -1422    -1671    -1907    -2108    -2265    -2403 
   -2512    -2524    -2435    -2316    -2196    -2074    -1958    -1841 
   -1699    -1529    -1358    -1202    -1062     -953     -882     -846 
    -870     -966    -1128    -1368    -1661    -1961    -2251    -2504 
   -2693    -2822    -2907    -2949    -2963    -2968    -2984    -3001 
   -3017    -3037    -3022    -2949    -2840    -2693    -2504    -2288 
   -2039    -1757    -1462    -1155     -862     -641     -503     -430 
    -418     -441     -479     -541     -619     -726     -881    -1059 
   -1237    -1412    -1591    -1777    -1952    -2115    -2270    -2385 
   -2458    -2489    -2459    -2392    -2282    -2092    -1830    -1536 
   -1227     -927     -665     -453     -290     -172      -91      -32 
      -6      -44     -128     -237     -398     -587     -770     -962 
   -1142    -1259    -1335    -1401    -1451    -1486    -1525    -1572 
   -1634    -1725    -1838    -1949    -2037    -2080    -2050    -1946 
   -1807    -1660    -1522    -1410    -1318    -1205    -1051     -888 
    -745     -622     -540     -531     -594     -687     -785     -900 
   -1054    -1259    -1491    -1707    -1912    -2100    -2207    -2231 
   -2205    -2107    -1923    -1683    -1436    -1219    -1015     -828 
    -695     -591     -473     -341     -205      -83       -4       36 
      17      -85     -229     -367     -508     -642     -747     -851 
    -953    -1039    -1147    -1281    -1395    -1479    -1541    -1574 
   -1578    -1571    -1578    -1606    -1651    -1701    -1742    -1753 
   -1729    -1682    -1613    -1548    -1525    -1532    -1561    -1618 
   -1665    -1663    -1611    -1518    -1404    -1281    -1158    -1070 
   -1038    -1032    -1050    -1121    -1233    -1333    -1413    -1480 
   -1552    -1645    -1779    -1942    -2110    -2274    -2416    -2497 
   -2532    -2585    -2670    -2763    -2856    -2964    -3084    -3215 
   -3342    -3431    -3470    -3468    -3404    -3299    -3195    -3094 
   -2968    -2801    -2592    -2350    -2080    -1796    -1516    -1225 
    -926     -629     -326      -40      180      330      418      469 
     496      483      422      329      240      172      102       27 
     -32     -102     -216     -357     -495     -614     -729     -868 
   -1030    -1205    -1390    -1576    -1771    -1956    -2128    -2297 
   -2436    -2512    -2521    -2471    -2382    -2284    -2192    -2112 
   -2033    -1946    -1867    -1796    -1738    -1694    -1633    -1552 
   -1468    -1399    -1356    -1339    -1339    -1348    -1355    -1345 
   -1320    -1297    -1282    -1285    -1323    -1405    -1526    -1679 
   -1827    -1949    -2056    -2157    -2243    -2327    -2394    -2415 
   -2398    -2350    -2285    -2230    -2158    -2053    -1923    -1761 
   -1586    -1428    -1263    -1074     -878     -665     -421     -176 
      52      263      471      679      870     1065     1251     1390 
    1502     1602     1664     1703     1733     1723     1672     1576 
    1429     1244     1028      781      535      294       59     -133 
    -298     -456     -604     -761     -928    -1092    -1259    -1405 
   -1512    -1603    -1678    -1722    -1759    -1790    -1811    -1826 
   -1857    -1896    -1935    -1977    -1999    -1991    -1972    -1946 
   -1930    -1957    -2045    -2191    -2393    -2644    -2906    -3145 
   -3365    -3553    -3692    -3809    -3906    -3966    -4013    -4054 
   -4054    -4004    -3892    -3705    -3457    -3180    -2906    -2655 
   -2459    -2336    -2257    -2181    -2118    -2076    -2054    -2069 
   -2107    -2146    -2222    -2343    -2452    -2531    -2559    -2500 
   -2365    -2181    -1958    -1721    -1501    -1310    -1123     -913 
    -685     -452     -221       14      233      392      518      608 
     630      608      552      461      390      364      356      325 
     272      224      186      143       81        6      -51     -103 
    -166     -217     -249     -290     -349     -403     -456     -521 
    -584     -653     -751     -859     -972    -1121    -1324    -1518 
   -1674    -1809    -1907    -1944    -1934    -1883    -1804    -1740 
   -1698    -1652    -1607    -1603    -1636    -1701    -1796    -1904 
   -2045    -2247    -2500    -2783    -3082    -3358    -3589    -3761 
   -3882    -3964    -4004    -4012    -4002    -3964    -3931    -3935 
   -3951    -3960    -3933    -3843    -3712    -3564    -3419    -3310 
   -3215    -3134    -3080    -3018    -2921    -2795    -2627    -2404 
   -2150    -1871    -1559    -1239     -923     -619     -344     -101 
     117      324      527      727      920     1084     1198     1278 
    1324     1340     1360     1378     1383     1391     1402     1398 
    1377     1348     1320     1285     1270     1290     1305     1310 
    1325     1313     1260     1185     1084      990      943      916 
     909      932      946      916      862      812      770      707 
     616      526      432      318      203       90      -44     -201 
    -367     -556     -770     -992    -1210    -1416    -1602    -1782 
   -1983    -2192    -2367    -2512    -2637    -2747    -2862    -2978 
   -3088    -3214    -3335    -3431    -3549    -3716    -3925    -4163 
   -4417    -4664    -4887    -5086    -5254    -5366    -5451    -5526 
   -5560    -5547    -5498    -5412    -5282    -5115    -4899    -4619 
   -4295    -3943    -3564    -3191    -2856    -2542    -2241    -1975 
   -1741    -1529    -1359    -1231    -1120    -1021     -927     -818 
    -679     -510     -346     -199      -49       82      187      280 
     351      391      394      346      275      175       37     -120 
    -286     -450     -610     -777     -954    -1125    -1275    -1406 
   -1516    -1606    -1683    -1719    -1730    -1740    -1710    -1630 
   -1513    -1351    -1175    -1004     -822     -643     -496     -383 
    -301     -259     -263     -294     -321     -306     -255     -190 
    -126      -66       -5       54       98      130      162      193 
     199      164       95       20      -48     -125     -218     -313 
    -402     -492     -604     -758     -946    -1132    -1318    -1505 
   -1661    -1776    -1867    -1929    -1957    -1950    -1891    -1792 
   -1705    -1622    -1526    -1410    -1270    -1119     -965     -832 
    -764     -757     -803     -916    -1075    -1244    -1422    -1613 
   -1826    -2076    -2315    -2523    -2732    -2922    -3056    -3137 
   -3172    -3179    -3154    -3084    -2998    -2937    -2886    -2818 
   -2736    -2641    -2544    -2442    -2300    -2122    -1937    -1767 
   -1622    -1482    -1328    -1201    -1101     -999     -915     -874 
    -877     -935    -1042    -1182    -1347    -1507    -1660    -1795 
   -1873    -1883    -1873    -1865    -1831    -1772    -1705    -1649 
   -1603    -1525    -1402    -1255    -1107     -973     -819     -635 
    -483     -361     -243     -148      -93      -85     -120     -189 
    -306     -460     -615     -795    -1009    -1235    -1462    -1667 
   -1841    -2003    -2137    -2226    -2289    -2309    -2282    -2234 
   -2137    -1975    -1787    -1571    -1324    -1080     -845     -622 
    -417     -209      -12      122      178      160       72      -83 
    -299     -541     -785    -1028    -1262    -1467    -1653    -1833 
   -1979    -2111    -2265    -2396    -2471    -2498    -2459    -2371 
   -2262    -2142    -2029    -1904    -1761    -1626    -1497    -1375 
   -1267    -1151    -1021     -903     -807     -742     -743     -822 
    -938    -1088    -1259    -1402    -1524    -1632    -1714    -1761 
   -1755    -1687    -1568    -1417    -1227     -969     -688     -449 
    -241      -52       95      194      257      272      240      186 
     108      -22     -191     -395     -648     -905    -1139    -1387 
   -1642    -1868    -2088    -2330    -2569    -2793    -3013    -3211 
   -3368    -3480    -3549    -3569    -3530    -3441    -3337    -3242 
   -3144    -3048    -2972    -2903    -2828    -2737    -2604    -2438 
   -2272    -2110    -1948    -1796    -1663    -1556    -1485    -1452 
   -1464    -1501    -1532    -1549    -1563    -1586    -1591    -1557 
   -1507    -1421    -1291    -1163    -1030     -861     -672     -479 
    -256        9      292      588      924     1289     1626     1925 
    2177     2332     2366     2311     2166     1937     1671     1362 
     984      583      168     -290     -785    -1293    -1799    -2296 
   -2794    -3287    -3728    -4102    -4437    -4729    -4939    -5080 
   -5165    -5167    -5082    -4931    -4729    -4482    -4193    -3867 
   -3526    -3165    -2797    -2432    -2093    -1802    -1533    -1267 
   -1028     -839     -697     -564     -432     -376     -395     -409 
    -418     -456     -503     -545     -569     -549     -511     -490 
    -449     -375     -310     -229      -97       55      210      373 
     530      680      818      932     1023     1093     1139     1148 
    1115     1046      942      801      627      440      230      -36 
    -341     -648     -974    -1328    -1667    -1995    -2340    -2689 
   -2994    -3217    -3370    -3470    -3496    -3464    -3404    -3289 
   -3130    -2971    -2793    -2587    -2392    -2196    -2011    -1885 
   -1786    -1699    -1694    -1757    -1834    -1933    -2029    -2074 
   -2087    -2111    -2142    -2143    -2134    -2157    -2218    -2295 
   -2386    -2492    -2582    -2637    -2666    -2654    -2608    -2552 
   -2496    -2454    -2466    -2519    -2563    -2604    -2660    -2718 
   -2806    -2921    -3006    -3088    -3177    -3234    -3284    -3342 
   -3357    -3308    -3207    -3064    -2886    -2686    -2484    -2274 
   -2047    -1813    -1561    -1289    -1011     -726     -425     -124 
     171      477      777     1044     1302     1556     1757     1922 
    2085     2193     2223     2222     2181     2095     1984     1840 
    1653     1424     1154      864      572      279      -20     -321 
    -606     -880    -1139    -1345    -1495    -1613    -1707    -1786 
   -1873    -1958    -2003    -2014    -2002    -1949    -1891    -1863 
   -1829    -1792    -1775    -1744    -1709    -1709    -1730    -1749 
   -1784    -1848    -1930    -2041    -2178    -2308    -2404    -2506 
   -2632    -2755    -2880    -3010    -3115    -3179    -3214    -3230 
   -3208    -3172    -3134    -3063    -2961    -2828    -2656    -2481 
   -2299    -2092    -1896    -1702    -1466    -1237    -1048     -853 
    -673     -557     -481     -418     -369     -349     -373     -403 
    -406     -429     -490     -527     -533     -560     -583     -560 
    -518     -452     -346     -253     -176      -98      -40      -28 
     -45      -95     -167     -224     -268     -314     -348     -386 
    -433     -481     -550     -652     -773     -896    -1013    -1131 
   -1243    -1337    -1399    -1451    -1534    -1642    -1753    -1871 
   -1980    -2072    -2141    -2180    -2189    -2162    -2095    -2003 
   -1904    -1810    -1715    -1615    -1524    -1459    -1416    -1372 
   -1321    -1273    -1237    -1198    -1144    -1096    -1062    -1038 
